{
  "type": "FeatureCollection",
  "name": "us_med_pnmgl_kayak_aamp_ln_2154",
  "crs": {
    "type": "name",
    "properties": {
      "name": "urn:ogc:def:crs:EPSG::2154"
    }
  },
  "features": [
    {
      "type": "Feature",
      "properties": {
        "source": "Concertation PRO KAYAK: vermeille, Aléoutes, BlueBéar",
        "info": true,
        "cara": false,
        "regl": false,
        "fid": 1.0,
        "num": "AAMP - PNMGL Stage usages - 2014",
        "tech": true,
        "projet": "Perception des activités de plongées et de plaisance",
        "objectid": 1,
        "freq_pro": 1,
        "freq_indiv": 2,
        "freq_tot": "Moyenne",
        "type": "Randonnée"
      },
      "geometry": {
        "type": "MultiLineString",
        "coordinates": [
          [
            [
              704324.0050000027,
              6197211.638799999
            ],
            [
              704955.7735000029,
              6200829.285500001
            ],
            [
              705229.5133000016,
              6202282.485399999
            ],
            [
              705138.9624999985,
              6202599.4133
            ],
            [
              704844.6723000035,
              6202984.254299998
            ],
            [
              704459.8312999979,
              6203233.269099999
            ],
            [
              704052.3524999991,
              6203459.646200001
            ],
            [
              703758.0622999966,
              6203753.9364
            ],
            [
              703622.2361000031,
              6204206.6906
            ],
            [
              703667.511500001,
              6204727.357799999
            ],
            [
              703871.2509000003,
              6206730.795000002
            ]
          ]
        ]
      }
    },
    {
      "type": "Feature",
      "properties": {
        "source": "Concertation PRO KAYAK: vermeille, Aléoutes, BlueBéar",
        "info": true,
        "cara": false,
        "regl": false,
        "fid": 2.0,
        "num": "AAMP - PNMGL Stage usages - 2014",
        "tech": true,
        "projet": "Perception des activités de plongées et de plaisance",
        "objectid": 2,
        "freq_pro": 1,
        "freq_indiv": 2,
        "freq_tot": "Moyenne",
        "type": "Randonnée"
      },
      "geometry": {
        "type": "MultiLineString",
        "coordinates": [
          [
            [
              703458.1127000004,
              6188835.686900001
            ],
            [
              704278.7295999974,
              6196770.203499999
            ]
          ]
        ]
      }
    },
    {
      "type": "Feature",
      "properties": {
        "source": "Concertation PRO KAYAK: vermeille, Aléoutes, BlueBéar",
        "info": true,
        "cara": false,
        "regl": false,
        "fid": 3.0,
        "num": "AAMP - PNMGL Stage usages - 2014",
        "tech": true,
        "projet": "Perception des activités de plongées et de plaisance",
        "objectid": 3,
        "freq_pro": 0,
        "freq_indiv": 2,
        "freq_tot": "Faible",
        "type": "Randonnée"
      },
      "geometry": {
        "type": "MultiLineString",
        "coordinates": [
          [
            [
              703438.3047000021,
              6178184.645399999
            ],
            [
              703460.942400001,
              6179486.3136
            ],
            [
              703528.8554999977,
              6179995.6620000005
            ],
            [
              703404.3480999991,
              6181116.228500001
            ],
            [
              703449.6235999987,
              6183017.796
            ],
            [
              703517.5367000028,
              6188586.6721
            ]
          ]
        ]
      }
    },
    {
      "type": "Feature",
      "properties": {
        "source": "Concertation PRO KAYAK: vermeille, Aléoutes, BlueBéar",
        "info": true,
        "cara": false,
        "regl": false,
        "fid": 4.0,
        "num": "AAMP - PNMGL Stage usages - 2014",
        "tech": true,
        "projet": "Perception des activités de plongées et de plaisance",
        "objectid": 4,
        "freq_pro": 0,
        "freq_indiv": 2,
        "freq_tot": "Faible",
        "type": "Randonnée"
      },
      "geometry": {
        "type": "MultiLineString",
        "coordinates": [
          [
            [
              703967.4610999972,
              6163877.614
            ],
            [
              703967.4610999972,
              6165190.6011000015
            ],
            [
              703933.5046000034,
              6165824.456900001
            ],
            [
              703661.8520999998,
              6167284.589000002
            ],
            [
              703492.3452999964,
              6168661.819200002
            ],
            [
              703582.620099999,
              6169095.605700001
            ],
            [
              703412.8373000026,
              6169254.069600001
            ],
            [
              703288.3298999965,
              6169367.258200001
            ],
            [
              703141.184799999,
              6174619.2064
            ],
            [
              703446.7937999964,
              6177867.717500001
            ]
          ]
        ]
      }
    },
    {
      "type": "Feature",
      "properties": {
        "source": "Concertation PRO KAYAK: vermeille, Aléoutes, BlueBéar",
        "info": true,
        "cara": false,
        "regl": false,
        "fid": 5.0,
        "num": "AAMP - PNMGL Stage usages - 2014",
        "tech": true,
        "projet": "Perception des activités de plongées et de plaisance",
        "objectid": 5,
        "freq_pro": 1,
        "freq_indiv": 2,
        "freq_tot": "Moyenne",
        "type": "Randonnée"
      },
      "geometry": {
        "type": "MultiLineString",
        "coordinates": [
          [
            [
              704384.8805000037,
              6160479.7403
            ],
            [
              703967.4610999972,
              6163877.614
            ]
          ]
        ]
      }
    },
    {
      "type": "Feature",
      "properties": {
        "source": "Concertation PRO KAYAK: vermeille, Aléoutes, BlueBéar",
        "info": true,
        "cara": false,
        "regl": false,
        "fid": 6.0,
        "num": "AAMP - PNMGL Stage usages - 2014",
        "tech": true,
        "projet": "Perception des activités de plongées et de plaisance",
        "objectid": 6,
        "freq_pro": 2,
        "freq_indiv": 3,
        "freq_tot": "Forte",
        "type": "Randonnée"
      },
      "geometry": {
        "type": "MultiLineString",
        "coordinates": [
          [
            [
              713920.9773000032,
              6150784.528900001
            ],
            [
              713905.4148999974,
              6150640.214299999
            ],
            [
              713848.820600003,
              6150476.090999998
            ],
            [
              713763.9292000011,
              6150368.561799999
            ],
            [
              713775.2480000034,
              6150221.416700002
            ],
            [
              713837.501699999,
              6150108.2282
            ],
            [
              713973.3280000016,
              6150023.336800002
            ],
            [
              714097.8354000002,
              6149944.104800001
            ],
            [
              714171.4078999981,
              6149751.684300002
            ],
            [
              714477.0169999972,
              6149349.864999998
            ],
            [
              714709.0534999967,
              6149140.466200002
            ],
            [
              714788.2854999974,
              6148982.0022
            ],
            [
              714850.5392000005,
              6148783.9223
            ],
            [
              714890.1551999971,
              6148512.2698
            ],
            [
              714890.1551999971,
              6148410.4001
            ]
          ]
        ]
      }
    },
    {
      "type": "Feature",
      "properties": {
        "source": "Concertation PRO KAYAK: vermeille, Aléoutes, BlueBéar",
        "info": true,
        "cara": false,
        "regl": false,
        "fid": 7.0,
        "num": "AAMP - PNMGL Stage usages - 2014",
        "tech": true,
        "projet": "Perception des activités de plongées et de plaisance",
        "objectid": 7,
        "freq_pro": 3,
        "freq_indiv": 3,
        "freq_tot": "Très forte",
        "type": "Randonnée"
      },
      "geometry": {
        "type": "MultiLineString",
        "coordinates": [
          [
            [
              711092.6797000021,
              6153815.152899999
            ],
            [
              711207.7761000022,
              6153744.2749999985
            ],
            [
              711402.5332999974,
              6153724.602000002
            ],
            [
              711521.3813000023,
              6153622.732299998
            ],
            [
              712002.432599999,
              6153532.181499999
            ],
            [
              712234.4690999985,
              6153424.652399998
            ],
            [
              712806.0711999983,
              6153311.4639
            ],
            [
              712958.875699997,
              6153164.318799999
            ],
            [
              713032.4482999966,
              6152994.535999998
            ],
            [
              713043.7670999989,
              6152841.731400002
            ],
            [
              713009.8105999976,
              6152688.926899999
            ],
            [
              713004.1511000022,
              6152609.694899999
            ],
            [
              712992.8322999999,
              6152496.5064
            ],
            [
              713032.4482999966,
              6152400.296100002
            ],
            [
              713134.317900002,
              6152275.788699999
            ],
            [
              713241.8470999971,
              6152173.919
            ],
            [
              713451.2458999977,
              6151975.8390999995
            ],
            [
              713530.4777999967,
              6151763.610599998
            ],
            [
              713513.4996000007,
              6151582.508900002
            ],
            [
              713485.2023999989,
              6151435.3638
            ],
            [
              713394.6516000032,
              6151276.899900001
            ],
            [
              713436.9846000001,
              6151111.5297
            ],
            [
              713536.1371000037,
              6151039.203699999
            ],
            [
              713733.696800001,
              6150954.5353999995
            ],
            [
              713920.9773000032,
              6150784.528900001
            ],
            [
              713734.2171000019,
              6150954.312399998
            ]
          ]
        ]
      }
    },
    {
      "type": "Feature",
      "properties": {
        "source": "Concertation PRO KAYAK: vermeille, Aléoutes, BlueBéar",
        "info": true,
        "cara": false,
        "regl": false,
        "fid": 8.0,
        "num": "AAMP - PNMGL Stage usages - 2014",
        "tech": true,
        "projet": "Perception des activités de plongées et de plaisance",
        "objectid": 8,
        "freq_pro": 2,
        "freq_indiv": 3,
        "freq_tot": "Forte",
        "type": "Randonnée"
      },
      "geometry": {
        "type": "MultiLineString",
        "coordinates": [
          [
            [
              711313.3972999975,
              6155595.042599998
            ],
            [
              711341.6944999993,
              6155357.3467000015
            ],
            [
              711273.7813000008,
              6155278.114700001
            ],
            [
              711166.2522,
              6155164.926199999
            ],
            [
              711126.6362000033,
              6154949.868000001
            ],
            [
              711149.2739000022,
              6154757.447500002
            ],
            [
              711137.9550999999,
              6154573.516100001
            ],
            [
              711092.6797000021,
              6154471.646400001
            ],
            [
              711002.1287999973,
              6154398.073800001
            ],
            [
              710905.9186000004,
              6154301.863600001
            ],
            [
              710894.5996999964,
              6154199.993900001
            ],
            [
              710922.8968999982,
              6154137.740200002
            ],
            [
              710979.4910999984,
              6154092.4648
            ],
            [
              711019.1071000025,
              6154030.211100001
            ],
            [
              711041.7448000014,
              6153962.298
            ],
            [
              711081.360799998,
              6153860.428300001
            ],
            [
              711092.6797000021,
              6153815.152899999
            ]
          ]
        ]
      }
    },
    {
      "type": "Feature",
      "properties": {
        "source": "Concertation PRO KAYAK: vermeille, Aléoutes, BlueBéar",
        "info": true,
        "cara": false,
        "regl": false,
        "fid": 9.0,
        "num": "AAMP - PNMGL Stage usages - 2014",
        "tech": true,
        "projet": "Perception des activités de plongées et de plaisance",
        "objectid": 9,
        "freq_pro": 3,
        "freq_indiv": 3,
        "freq_tot": "Très forte",
        "type": "Randonnée"
      },
      "geometry": {
        "type": "MultiLineString",
        "coordinates": [
          [
            [
              711855.2875000015,
              6157414.5484
            ],
            [
              711788.7892000005,
              6157287.211300001
            ],
            [
              711488.8395999968,
              6157117.4285
            ],
            [
              711211.5275999978,
              6156998.580499999
            ],
            [
              711109.6578999981,
              6156692.971500002
            ],
            [
              710888.9403000027,
              6156449.616099998
            ],
            [
              710656.9038000032,
              6156325.1087
            ],
            [
              710504.0992999971,
              6156177.9635999985
            ],
            [
              710441.8456000015,
              6156042.137400001
            ],
            [
              710436.1860999987,
              6155962.9054000005
            ],
            [
              710504.0992999971,
              6155878.013999999
            ],
            [
              710645.5848999992,
              6155753.5066
            ],
            [
              710764.4328999966,
              6155736.5282999985
            ],
            [
              711030.425999999,
              6155781.8037
            ],
            [
              711279.4408000037,
              6155702.571800001
            ],
            [
              711313.3972999975,
              6155595.042599998
            ]
          ]
        ]
      }
    },
    {
      "type": "Feature",
      "properties": {
        "source": "Concertation PRO KAYAK: vermeille, Aléoutes, BlueBéar",
        "info": true,
        "cara": false,
        "regl": false,
        "fid": 10.0,
        "num": "AAMP - PNMGL Stage usages - 2014",
        "tech": true,
        "projet": "Perception des activités de plongées et de plaisance",
        "objectid": 10,
        "freq_pro": 2,
        "freq_indiv": 2,
        "freq_tot": "Forte",
        "type": "Randonnée"
      },
      "geometry": {
        "type": "MultiLineString",
        "coordinates": [
          [
            [
              707397.9482000023,
              6158661.510899998
            ],
            [
              707639.0143999979,
              6158526.625799999
            ],
            [
              708029.5147999972,
              6158537.944699999
            ],
            [
              708705.8162999973,
              6158560.582400002
            ],
            [
              709430.2229999974,
              6158390.799600001
            ],
            [
              709922.5930999964,
              6158181.400800001
            ],
            [
              710477.2170000002,
              6157955.023699999
            ],
            [
              711147.8590999991,
              6157680.541499998
            ],
            [
              711855.2875000015,
              6157414.5484
            ]
          ]
        ]
      }
    },
    {
      "type": "Feature",
      "properties": {
        "source": "Concertation PRO KAYAK: vermeille, Aléoutes, BlueBéar",
        "info": true,
        "cara": false,
        "regl": false,
        "fid": 11.0,
        "num": "AAMP - PNMGL Stage usages - 2014",
        "tech": true,
        "projet": "Perception des activités de plongées et de plaisance",
        "objectid": 11,
        "freq_pro": 3,
        "freq_indiv": 2,
        "freq_tot": "Forte",
        "type": "Randonnée"
      },
      "geometry": {
        "type": "MultiLineString",
        "coordinates": [
          [
            [
              704509.3513000011,
              6160116.924800001
            ],
            [
              704945.1270999983,
              6159641.532900002
            ],
            [
              705533.7075000033,
              6159698.1272
            ],
            [
              705912.8891000003,
              6159652.851799998
            ],
            [
              706348.6649999991,
              6159471.750100002
            ],
            [
              706869.3322999999,
              6159177.459899999
            ],
            [
              707316.4270000011,
              6158775.6406
            ],
            [
              707401.318400003,
              6158656.792599998
            ]
          ]
        ]
      }
    }
  ]
}