{
  "type": "FeatureCollection",
  "name": "us_med_pnmgl_Route-transport_commerce_ln_4326",
  "crs": {
    "type": "name",
    "properties": {
      "name": "urn:ogc:def:crs:OGC:1.3:CRS84"
    }
  },
  "features": [
    {
      "type": "Feature",
      "properties": {
        "info": false,
        "cara": false,
        "regl": false,
        "tech": false,
        "projet": "La pêche de loisir",
        "id": null,
        "longueur": 45.921
      },
      "geometry": {
        "type": "MultiLineString",
        "coordinates": [
          [
            [
              3.09717601379659,
              42.960162780219584
            ],
            [
              3.101713556454358,
              42.951609742494824
            ],
            [
              3.106288334920657,
              42.94193300489358
            ],
            [
              3.109353878486024,
              42.93558295036532
            ],
            [
              3.111493230275534,
              42.928336604852326
            ],
            [
              3.112937866551178,
              42.92173813105275
            ],
            [
              3.113184145500457,
              42.91434976257439
            ],
            [
              3.113430424449736,
              42.5486255228957
            ]
          ]
        ]
      }
    },
    {
      "type": "Feature",
      "properties": {
        "info": false,
        "cara": false,
        "regl": false,
        "tech": false,
        "projet": "La pêche de loisir",
        "id": null,
        "longueur": 20.008
      },
      "geometry": {
        "type": "MultiLineString",
        "coordinates": [
          [
            [
              3.1299311140514,
              42.53926692282313
            ],
            [
              3.1471706405009,
              42.54443878075798
            ],
            [
              3.152342498435751,
              42.54567017550437
            ],
            [
              3.160962261660501,
              42.54616273340293
            ],
            [
              3.166626677493908,
              42.54542389655509
            ],
            [
              3.179925740754952,
              42.540252038620245
            ],
            [
              3.186575272385474,
              42.53581901753323
            ],
            [
              3.196918988255174,
              42.52719925430848
            ],
            [
              3.306266841734864,
              42.43533333336683
            ]
          ]
        ]
      }
    },
    {
      "type": "Feature",
      "properties": {
        "info": false,
        "cara": false,
        "regl": false,
        "tech": false,
        "projet": "La pêche de loisir",
        "id": null,
        "longueur": 49.09
      },
      "geometry": {
        "type": "MultiLineString",
        "coordinates": [
          [
            [
              3.123774140319435,
              42.54493133865654
            ],
            [
              3.328924505070061,
              42.96016277860974
            ]
          ]
        ]
      }
    }
  ]
}