{
  "type": "FeatureCollection",
  "name": "US_MED_PNMGL_chantier_naval_AAMP_pt_2154",
  "crs": {
    "type": "name",
    "properties": {
      "name": "urn:ogc:def:crs:IGNF::LAMB93"
    }
  },
  "features": [
    {
      "type": "Feature",
      "properties": {
        "nom": "Chantier naval de Saint-Cyprien",
        "source": "PNMGL",
        "info": true,
        "cara": false,
        "regl": false,
        "id": 0,
        "num": "AAMP sur la base du scan littoral",
        "tech": true,
        "projet": "La pêche de loisir",
        "Id": 0,
        "sources": "PNMGL"
      },
      "geometry": {
        "type": "Point",
        "coordinates": [
          703047.852877379,
          6168504.233403756
        ]
      }
    },
    {
      "type": "Feature",
      "properties": {
        "nom": "Chantier naval du Canet",
        "source": "PNMGL",
        "info": true,
        "cara": false,
        "regl": false,
        "id": 0,
        "num": "AAMP sur la base du scan littoral",
        "tech": true,
        "projet": "La pêche de loisir",
        "Id": 0,
        "sources": "PNMGL"
      },
      "geometry": {
        "type": "Point",
        "coordinates": [
          702904.970348187,
          6178448.723719901
        ]
      }
    },
    {
      "type": "Feature",
      "properties": {
        "nom": "Chantier naval du Roussillon",
        "source": "PNMGL",
        "info": true,
        "cara": false,
        "regl": false,
        "id": 0,
        "num": "AAMP sur la base du scan littoral",
        "tech": true,
        "projet": "La pêche de loisir",
        "Id": 0,
        "sources": "PNMGL"
      },
      "geometry": {
        "type": "Point",
        "coordinates": [
          703305.0717112671,
          6196181.29655291
        ]
      }
    }
  ]
}