{
  "type": "FeatureCollection",
  "name": "us_med_pnmgl_Port-commerce_pt_4326",
  "crs": {
    "type": "name",
    "properties": {
      "name": "urn:ogc:def:crs:OGC:1.3:CRS84"
    }
  },
  "features": [
    {
      "type": "Feature",
      "properties": {
        "nom": "Port-Vendres 13",
        "source": "CCI Port-Vendres",
        "info": true,
        "import_t": 231390,
        "export_t": 40300,
        "cara": true,
        "regl": false,
        "num": "Stage Usage PNMGL GOIMARD 2014",
        "tech": true,
        "projet": "La pêche de loisir",
        "NOM": "Port-Vendres 13",
        "Import_T": 231390,
        "Export_T": 40300,
        "Source": "CCI Port-Vendres",
        "NUM": "Stage Usage PNMGL GOIMARD 2014"
      },
      "geometry": {
        "type": "Point",
        "coordinates": [
          3.109589903044186,
          42.51746440591741
        ]
      }
    }
  ]
}