{
  "type": "FeatureCollection",
  "name": "us_med_pnmgl_ZMEL_RNMCB_ln_4326",
  "crs": {
    "type": "name",
    "properties": {
      "name": "urn:ogc:def:crs:OGC:1.3:CRS84"
    }
  },
  "features": [
    {
      "type": "Feature",
      "properties": {
        "info": false,
        "cara": false,
        "regl": false,
        "tech": false,
        "projet": "Etat des lieux de la pêche artisanale",
        "id": null,
        "Longueur": 1.828
      },
      "geometry": {
        "type": "MultiLineString",
        "coordinates": [
          [
            [
              3.148940253503567,
              42.47769676459461
            ],
            [
              3.148940253503567,
              42.477881932755984
            ],
            [
              3.149072391470706,
              42.479382749213656
            ],
            [
              3.156102131322517,
              42.479304785608754
            ],
            [
              3.159009166599582,
              42.4733695210251
            ],
            [
              3.154622186090557,
              42.4734377456551
            ]
          ]
        ]
      }
    },
    {
      "type": "Feature",
      "properties": {
        "info": false,
        "cara": false,
        "regl": false,
        "tech": false,
        "projet": "Etat des lieux de la pêche artisanale",
        "id": null,
        "Longueur": 0.595
      },
      "geometry": {
        "type": "MultiLineString",
        "coordinates": [
          [
            [
              3.158725069970236,
              42.45904070104614
            ],
            [
              3.158308835373747,
              42.45964998633972
            ],
            [
              3.158163483609893,
              42.4601617814047
            ],
            [
              3.158150269813179,
              42.46055171769403
            ],
            [
              3.160198408303839,
              42.46127796755961
            ],
            [
              3.161116767175457,
              42.45931366159073
            ]
          ]
        ]
      }
    },
    {
      "type": "Feature",
      "properties": {
        "info": false,
        "cara": false,
        "regl": false,
        "id": 4,
        "tech": true,
        "projet": "Etat des lieux de la pêche artisanale",
        "Longueur": 0.481
      },
      "geometry": {
        "type": "MultiLineString",
        "coordinates": [
          [
            [
              3.132977987073141,
              42.48447453679888
            ],
            [
              3.133651890705552,
              42.48393857867195
            ],
            [
              3.132290869644017,
              42.482925118027936
            ],
            [
              3.131590538418178,
              42.48346108483689
            ],
            [
              3.132964773276427,
              42.484455047492894
            ]
          ]
        ]
      }
    },
    {
      "type": "Feature",
      "properties": {
        "info": false,
        "cara": false,
        "regl": false,
        "id": 4,
        "tech": true,
        "projet": "Etat des lieux de la pêche artisanale",
        "Longueur": 1.099
      },
      "geometry": {
        "type": "MultiLineString",
        "coordinates": [
          [
            [
              3.088500347334053,
              42.527774517181236
            ],
            [
              3.086346498469682,
              42.52613852784835
            ],
            [
              3.087258250442943,
              42.52460961813583
            ],
            [
              3.087509312580508,
              42.52462909492797
            ],
            [
              3.087707519531217,
              42.52473621717622
            ],
            [
              3.087905726481926,
              42.52470700203582
            ],
            [
              3.088011436855637,
              42.524668048494036
            ],
            [
              3.088090719635921,
              42.5246583101048
            ],
            [
              3.088222857603061,
              42.52460961813583
            ],
            [
              3.0883549955702,
              42.52459987973748
            ],
            [
              3.088460705943911,
              42.52457066453333
            ],
            [
              3.088553202520909,
              42.52457066453333
            ],
            [
              3.08865891289462,
              42.52459987973748
            ],
            [
              3.088698554284762,
              42.52461935653266
            ],
            [
              3.088777837065046,
              42.52461935653266
            ],
            [
              3.088817478455187,
              42.52461935653266
            ],
            [
              3.088923188828899,
              42.52459014133761
            ],
            [
              3.088989257812468,
              42.52457066453333
            ],
            [
              3.089108181982894,
              42.52457066453333
            ],
            [
              3.089253533746747,
              42.52459014133761
            ],
            [
              3.089346030323744,
              42.52463883332177
            ],
            [
              3.089412099307314,
              42.52469726365265
            ],
            [
              3.089451740697456,
              42.52475569392888
            ],
            [
              3.089464954494169,
              42.52484333924077
            ],
            [
              3.089504595884312,
              42.524940722776435
            ],
            [
              3.089557451071167,
              42.52499915282497
            ],
            [
              3.089610306258023,
              42.52505758281885
            ],
            [
              3.089663161444879,
              42.525135489392355
            ],
            [
              3.089610306258023,
              42.5252133958687
            ],
            [
              3.089570664867881,
              42.52522313417141
            ],
            [
              3.089517809681026,
              42.525291302247894
            ],
            [
              3.089557451071167,
              42.52530104053846
            ],
            [
              3.089583878664595,
              42.52533025540106
            ],
            [
              3.089610306258023,
              42.52538868508527
            ],
            [
              3.089610306258023,
              42.52538868508527
            ],
            [
              3.089755658021876,
              42.52548606777083
            ],
            [
              3.089795299412018,
              42.52550554428972
            ],
            [
              3.089940651175871,
              42.525534759056676
            ],
            [
              3.090046361549583,
              42.5255152825469
            ],
            [
              3.090138858126581,
              42.525447114714815
            ],
            [
              3.09027099609372,
              42.52543737644702
            ],
            [
              3.090376706467431,
              42.52543737644702
            ],
            [
              3.090429561654287,
              42.52546659124585
            ],
            [
              3.088500347334053,
              42.527774517181236
            ]
          ]
        ]
      }
    },
    {
      "type": "Feature",
      "properties": {
        "info": false,
        "cara": false,
        "regl": false,
        "id": 5,
        "tech": true,
        "projet": "Etat des lieux de la pêche artisanale",
        "Longueur": 0.463
      },
      "geometry": {
        "type": "MultiLineString",
        "coordinates": [
          [
            [
              3.132442828306229,
              42.490817983276585
            ],
            [
              3.132363545525945,
              42.48933692891262
            ],
            [
              3.128736358327972,
              42.489375904476766
            ]
          ]
        ]
      }
    }
  ]
}