{
  "type": "FeatureCollection",
  "name": "ges_med_pnmgl_Mer_territoriale_ln_4326",
  "crs": {
    "type": "name",
    "properties": {
      "name": "urn:ogc:def:crs:OGC:1.3:CRS84"
    }
  },
  "features": [
    {
      "type": "Feature",
      "properties": {
        "source": "Carte marine SHOM",
        "info": true,
        "cara": false,
        "regl": false,
        "tech": false,
        "projet": "Eutrophisation du Golfe du Lion",
        "OBJECTID": 30,
        "FEATURE": "12NM",
        "DESCRIPTIF": "Limite de la mer territoriale française (12M)",
        "NOTA": null,
        "RÉFÉRENCE": "Loi 71-1060",
        "ZONE": "Métropole méditerranée",
        "NATION": "France",
        "PRODUCTEUR": "SHOM",
        "SOURCE": "Carte marine SHOM",
        "DATE_PROD": "2007-11-01",
        "SHAPE_Leng": 61.5921467355
      },
      "geometry": {
        "type": "MultiLineString",
        "coordinates": [
          [
            [
              3.446037907506,
              42.435333
            ],
            [
              3.446000312000081,
              42.43609971500007
            ],
            [
              3.445899251000071,
              42.43770002400004
            ],
            [
              3.445699377000039,
              42.43940009900007
            ],
            [
              3.445600562000038,
              42.441600813000036
            ],
            [
              3.445400687000074,
              42.443899585000054
            ],
            [
              3.445200811000063,
              42.44629973200006
            ],
            [
              3.445000936000042,
              42.448699787000066
            ],
            [
              3.444801061000078,
              42.451299325000036
            ],
            [
              3.444598940000049,
              42.453900418000046
            ],
            [
              3.444300250000083,
              42.45620039900007
            ],
            [
              3.444100375000062,
              42.45850029500008
            ],
            [
              3.443900500000041,
              42.460700332000044
            ],
            [
              3.443799439000088,
              42.462700753000036
            ],
            [
              3.443799439000088,
              42.46459967800007
            ],
            [
              3.443599564000067,
              42.466599973000086
            ],
            [
              3.443300875000091,
              42.468099736000056
            ],
            [
              3.44289887900004,
              42.469599463000065
            ],
            [
              3.442400314000054,
              42.47130032800004
            ],
            [
              3.441899503000059,
              42.47309923900008
            ],
            [
              3.440998941000089,
              42.47549992100005
            ],
            [
              3.440100627000049,
              42.47790051000004
            ],
            [
              3.43939994100009,
              42.48029934500005
            ],
            [
              3.438699254000085,
              42.48269975000005
            ],
            [
              3.437800939000056,
              42.485399262000044
            ],
            [
              3.436999193000077,
              42.48800059000007
            ],
            [
              3.436300753000069,
              42.490000131000045
            ],
            [
              3.435698881000064,
              42.49199960800007
            ],
            [
              3.435099256000058,
              42.49400068300008
            ],
            [
              3.43440081600005,
              42.49590031400004
            ],
            [
              3.433798945000092,
              42.497899601000086
            ],
            [
              3.433100504000038,
              42.49980077500004
            ],
            [
              3.432199943000057,
              42.50220042500007
            ],
            [
              3.431099507000056,
              42.50469968600004
            ],
            [
              3.42979919600009,
              42.507100808000075
            ],
            [
              3.428498885000067,
              42.509500176000074
            ],
            [
              3.427299633000075,
              42.51179976100008
            ],
            [
              3.426100383000062,
              42.514200609000056
            ],
            [
              3.42480007100005,
              42.516500019000034
            ],
            [
              3.423600820000047,
              42.51879934400006
            ],
            [
              3.422199449000061,
              42.52129959700005
            ],
            [
              3.420699262000085,
              42.523799749000034
            ],
            [
              3.419300136000061,
              42.52629980100005
            ],
            [
              3.417901009000047,
              42.52889941500007
            ],
            [
              3.416699513000083,
              42.53100062200008
            ],
            [
              3.41539920200006,
              42.533100095000066
            ],
            [
              3.414301012000067,
              42.53530081300005
            ],
            [
              3.413099515000056,
              42.53749979100007
            ],
            [
              3.411900264000053,
              42.53970035200007
            ],
            [
              3.410799828000052,
              42.542000478000034
            ],
            [
              3.409699391000061,
              42.54430051700007
            ],
            [
              3.408700016000068,
              42.54660047200008
            ],
            [
              3.407700640000087,
              42.54930052800006
            ],
            [
              3.406898893000061,
              42.55189917700005
            ],
            [
              3.406299268000055,
              42.55460066100005
            ],
            [
              3.405600828000047,
              42.557300368000085
            ],
            [
              3.404900142000088,
              42.55990034300004
            ],
            [
              3.40410064100007,
              42.56259981800008
            ],
            [
              3.40320008100008,
              42.56509996500006
            ],
            [
              3.402200704000052,
              42.56760001100008
            ],
            [
              3.401199083000051,
              42.57000035900006
            ],
            [
              3.400199708000059,
              42.572500207000076
            ],
            [
              3.399099271000068,
              42.574900365000076
            ],
            [
              3.398001080000085,
              42.57740001500008
            ],
            [
              3.396900644000084,
              42.57979998300004
            ],
            [
              3.395800208000082,
              42.58219985800008
            ],
            [
              3.394699772000081,
              42.58450006500004
            ],
            [
              3.393500521000078,
              42.58689975800007
            ],
            [
              3.392299024000067,
              42.589199790000066
            ],
            [
              3.391000959000053,
              42.59159930100009
            ],
            [
              3.389700647000041,
              42.593900818000066
            ],
            [
              3.388200461000054,
              42.59639970100005
            ],
            [
              3.386799089000078,
              42.59880059200009
            ],
            [
              3.38520008800009,
              42.601199729000086
            ],
            [
              3.383699901000057,
              42.60360043400004
            ],
            [
              3.382100900000069,
              42.605999385000075
            ],
            [
              3.380499653000072,
              42.60839990300008
            ],
            [
              3.378900652000084,
              42.61080032800004
            ],
            [
              3.377200590000086,
              42.613099472000044
            ],
            [
              3.375500528000089,
              42.61540019000006
            ],
            [
              3.373800467000081,
              42.61759964200007
            ],
            [
              3.371999344000074,
              42.61980067500008
            ],
            [
              3.370200468000064,
              42.62199997100004
            ],
            [
              3.368300532000092,
              42.62409967800005
            ],
            [
              3.366400595000073,
              42.626199314000075
            ],
            [
              3.364500658000054,
              42.62840004000009
            ],
            [
              3.362499661000072,
              42.630499530000066
            ],
            [
              3.360500909000052,
              42.63270010400004
            ],
            [
              3.358401097000069,
              42.63479944800008
            ],
            [
              3.356200224000077,
              42.63699986800009
            ],
            [
              3.353900537000072,
              42.63920021000007
            ],
            [
              3.351600850000068,
              42.64140047300003
            ],
            [
              3.349298917000056,
              42.64349952200007
            ],
            [
              3.34690041500005,
              42.64560015600006
            ],
            [
              3.344400853000081,
              42.647800192000034
            ],
            [
              3.341800230000047,
              42.65000015000004
            ],
            [
              3.339199608000058,
              42.65210056300003
            ],
            [
              3.336500170000079,
              42.654199247000065
            ],
            [
              3.333800733000089,
              42.656299517000036
            ],
            [
              3.331298925000056,
              42.658099693000054
            ],
            [
              3.328700548000086,
              42.659999268000035
            ],
            [
              3.326099925000051,
              42.661699886000065
            ],
            [
              3.323499303000062,
              42.66349990300006
            ],
            [
              3.320900926000093,
              42.66529986900008
            ],
            [
              3.318801113000063,
              42.66670035800007
            ],
            [
              3.316800116000081,
              42.668200255000045
            ],
            [
              3.314599244000078,
              42.66949958400005
            ],
            [
              3.313099057000045,
              42.67050057900008
            ],
            [
              3.311601117000066,
              42.67129937400006
            ],
            [
              3.311100306000071,
              42.67149990000007
            ],
            [
              3.310599495000076,
              42.67170042500004
            ],
            [
              3.310300805000054,
              42.67200038300007
            ],
            [
              3.31010093000009,
              42.67219924900007
            ],
            [
              3.31010093000009,
              42.672499205000065
            ],
            [
              3.31010093000009,
              42.67280081600006
            ],
            [
              3.310199744000045,
              42.67320020100004
            ],
            [
              3.310199744000045,
              42.67370067000007
            ],
            [
              3.310300805000054,
              42.674000618000036
            ],
            [
              3.310399620000055,
              42.674399994000055
            ],
            [
              3.310700555000039,
              42.67490045400007
            ],
            [
              3.311100306000071,
              42.67649957700007
            ],
            [
              3.311601117000066,
              42.678799592000075
            ],
            [
              3.311899807000088,
              42.68109952000009
            ],
            [
              3.312200742000073,
              42.683399362000046
            ],
            [
              3.312699307000059,
              42.68630055500006
            ],
            [
              3.313099057000045,
              42.68919995400006
            ],
            [
              3.313399993000075,
              42.69209921600009
            ],
            [
              3.313501053000039,
              42.69460075600006
            ],
            [
              3.31359986800004,
              42.697100538000086
            ],
            [
              3.31370092800006,
              42.69960021800006
            ],
            [
              3.31370092800006,
              42.70209979800006
            ],
            [
              3.31370092800006,
              42.70500010900008
            ],
            [
              3.31359986800004,
              42.707799254000065
            ],
            [
              3.313501053000039,
              42.710699298000065
            ],
            [
              3.313399993000075,
              42.713499839000065
            ],
            [
              3.313298932000066,
              42.716099873000076
            ],
            [
              3.313298932000066,
              42.718699797000056
            ],
            [
              3.313099057000045,
              42.72140062100004
            ],
            [
              3.312699307000059,
              42.72400032100006
            ],
            [
              3.312200742000073,
              42.72659991200004
            ],
            [
              3.311699931000078,
              42.729199393000044
            ],
            [
              3.311398996000094,
              42.73119942800008
            ],
            [
              3.311100306000071,
              42.73310006400004
            ],
            [
              3.310799370000041,
              42.73509997300005
            ],
            [
              3.310500680000075,
              42.736500532000036
            ],
            [
              3.310199744000045,
              42.737899404000075
            ],
            [
              3.31010093000009,
              42.74029976200006
            ],
            [
              3.310199744000045,
              42.74279934600008
            ],
            [
              3.310199744000045,
              42.74530048300005
            ],
            [
              3.310300805000054,
              42.74820041700008
            ],
            [
              3.310500680000075,
              42.75099925300009
            ],
            [
              3.310500680000075,
              42.753900574000056
            ],
            [
              3.310500680000075,
              42.75650055700004
            ],
            [
              3.310399620000055,
              42.75899948300008
            ],
            [
              3.310199744000045,
              42.761599250000074
            ],
            [
              3.31010093000009,
              42.76369917300008
            ],
            [
              3.30999986900008,
              42.76589996200005
            ],
            [
              3.30999986900008,
              42.76799973700008
            ],
            [
              3.310399620000055,
              42.770000167000035
            ],
            [
              3.31090043100005,
              42.77200053200005
            ],
            [
              3.311300181000092,
              42.77479994000004
            ],
            [
              3.311699931000078,
              42.77749995700009
            ],
            [
              3.312099682000053,
              42.780300769000064
            ],
            [
              3.312400617000094,
              42.78320070700005
            ],
            [
              3.312600492000058,
              42.785999605000086
            ],
            [
              3.312800367000079,
              42.78859988600004
            ],
            [
              3.313000242000044,
              42.79129929800007
            ],
            [
              3.313099057000045,
              42.793899354000075
            ],
            [
              3.313200117000065,
              42.796600186000035
            ],
            [
              3.313200117000065,
              42.79940012700007
            ],
            [
              3.313099057000045,
              42.80219994100008
            ],
            [
              3.312899182000081,
              42.804999628000076
            ],
            [
              3.312600492000058,
              42.807000507000055
            ],
            [
              3.312200742000073,
              42.80910053300005
            ],
            [
              3.312000867000052,
              42.811099625000054
            ],
            [
              3.312099682000053,
              42.81259931500006
            ],
            [
              3.312299557000074,
              42.81410062100008
            ],
            [
              3.312800367000079,
              42.81580029300005
            ],
            [
              3.313399993000075,
              42.81740072100007
            ],
            [
              3.314199494000093,
              42.81899945300006
            ],
            [
              3.314900180000052,
              42.82059979500008
            ],
            [
              3.316000615000064,
              42.82320026500008
            ],
            [
              3.317101052000055,
              42.82580062400007
            ],
            [
              3.318100428000093,
              42.828500053000084
            ],
            [
              3.318801113000063,
              42.83070017500006
            ],
            [
              3.319400739000059,
              42.83290021700009
            ],
            [
              3.320099179000067,
              42.83510018000004
            ],
            [
              3.320701051000071,
              42.83730006400003
            ],
            [
              3.321300675000089,
              42.83980066400005
            ],
            [
              3.321900301000085,
              42.84229950800005
            ],
            [
              3.322499927000081,
              42.84479990300008
            ],
            [
              3.323000738000076,
              42.84730019600005
            ],
            [
              3.323400488000061,
              42.84989953500008
            ],
            [
              3.323800238000047,
              42.852500415000065
            ],
            [
              3.324098928000069,
              42.85520032200009
            ],
            [
              3.324399863000053,
              42.85779932500009
            ],
            [
              3.324599738000074,
              42.86050065100005
            ],
            [
              3.324799614000085,
              42.863200207000034
            ],
            [
              3.324999489000049,
              42.865800522000086
            ],
            [
              3.325100549000069,
              42.86799930600006
            ],
            [
              3.325100549000069,
              42.870300427000075
            ],
            [
              3.325199364000071,
              42.872500700000046
            ],
            [
              3.325100549000069,
              42.87319942000005
            ],
            [
              3.325199364000071,
              42.87400054100004
            ],
            [
              3.32530042500008,
              42.87480000100004
            ],
            [
              3.325500300000044,
              42.87559945000004
            ],
            [
              3.326099925000051,
              42.877799534000076
            ],
            [
              3.326699550000058,
              42.880199384000036
            ],
            [
              3.327299176000054,
              42.882500047000065
            ],
            [
              3.327901047000069,
              42.884899714000085
            ],
            [
              3.328399612000055,
              42.88720020100004
            ],
            [
              3.328799363000087,
              42.889500601000066
            ],
            [
              3.329199113000072,
              42.89179926400004
            ],
            [
              3.329601109000066,
              42.89409949100008
            ],
            [
              3.330000859000052,
              42.89659942500003
            ],
            [
              3.330400609000094,
              42.89900019000004
            ],
            [
              3.330800360000069,
              42.90149992400006
            ],
            [
              3.331200110000054,
              42.90390049700005
            ],
            [
              3.331501046000085,
              42.90640003100009
            ],
            [
              3.331599861000086,
              42.90880041200006
            ],
            [
              3.33179973600005,
              42.911299746000054
            ],
            [
              3.33179973600005,
              42.91380062800005
            ],
            [
              3.33179973600005,
              42.91629975700005
            ],
            [
              3.33179973600005,
              42.917400728000075
            ],
            [
              3.33179973600005,
              42.91869975000009
            ],
            [
              3.331700921000049,
              42.92129936100008
            ],
            [
              3.331599861000086,
              42.923900511000056
            ],
            [
              3.331501046000085,
              42.92639922800004
            ],
            [
              3.331298925000056,
              42.92900016200008
            ],
            [
              3.331099050000091,
              42.931599334000055
            ],
            [
              3.33089917500007,
              42.934000376000085
            ],
            [
              3.330600485000048,
              42.936399675000075
            ],
            [
              3.330299549000074,
              42.93880052800006
            ],
            [
              3.330000859000052,
              42.94119963800006
            ],
            [
              3.329601109000066,
              42.94310037900004
            ],
            [
              3.329601109000066,
              42.94330001900005
            ],
            [
              3.329300174000082,
              42.94440050400004
            ],
            [
              3.329100299000061,
              42.945700603000034
            ],
            [
              3.328799363000087,
              42.94720030000008
            ],
            [
              3.328599488000066,
              42.94880059700006
            ],
            [
              3.328500673000065,
              42.94960072900005
            ],
            [
              3.328500673000065,
              42.95049983600006
            ],
            [
              3.328500673000065,
              42.95060046900005
            ],
            [
              3.328700548000086,
              42.95129994600006
            ],
            [
              3.328999238000051,
              42.95190043400004
            ],
            [
              3.329699923000078,
              42.95359958700004
            ],
            [
              3.330299549000074,
              42.955300342000044
            ],
            [
              3.331298925000056,
              42.95790004600008
            ],
            [
              3.332170840146514,
              42.960163
            ]
          ]
        ]
      }
    }
  ]
}