{
  "type": "FeatureCollection",
  "name": "us_med_pnmgl_ZMO_Collioure_Banyuls_pol_4326",
  "crs": {
    "type": "name",
    "properties": {
      "name": "urn:ogc:def:crs:OGC:1.3:CRS84"
    }
  },
  "features": [
    {
      "type": "Feature",
      "properties": {
        "nom": "Baie_de_Collioure",
        "source": "PREMAR",
        "auteur": "Andromède Océanologie",
        "maj": "MAI 2021",
        "info": true,
        "cara": false,
        "regl_type": "Zone de mouillage et d'équipements légers",
        "regl": true,
        "tech": false,
        "projet": "Etat des lieux de la pêche artisanale",
        "NOM": "Baie_de_Collioure",
        "MAJ": "MAI 2021",
        "Auteur": "Andromède Océanologie",
        "Source": "PREMAR",
        "arrete_nom": null,
        "actv_inter": null,
        "actc_excpt": null,
        "Regl_type": "Zone de mouillage et d'équipements légers",
        "EU_CD": null,
        "NOMMDO": null,
        "Infos_regl": null,
        "Cat_regl": null,
        "Regl_Medtx": "Zone de mouillage"
      },
      "geometry": {
        "type": "MultiPolygon",
        "coordinates": [
          [
            [
              [
                3.088478851467372,
                42.52778244170776
              ],
              [
                3.090422844794281,
                42.525478449643714
              ],
              [
                3.090198158818241,
                42.525463199108025
              ],
              [
                3.08999204139996,
                42.52555118338133
              ],
              [
                3.089989258897641,
                42.52555237138574
              ],
              [
                3.089987621231995,
                42.52555222389683
              ],
              [
                3.089919975126922,
                42.52554613638583
              ],
              [
                3.089802037134708,
                42.52551297478483
              ],
              [
                3.089774210311889,
                42.52549871153704
              ],
              [
                3.089642703348374,
                42.525431304651946
              ],
              [
                3.089598889277458,
                42.52539088821975
              ],
              [
                3.089599938786586,
                42.52538128346006
              ],
              [
                3.089604882359958,
                42.52533604756129
              ],
              [
                3.089541661818635,
                42.52532081844172
              ],
              [
                3.08953789455879,
                42.52531470664914
              ],
              [
                3.089517294687679,
                42.52528128514399
              ],
              [
                3.089530577674569,
                42.525225538868305
              ],
              [
                3.089596183217624,
                42.52521110115212
              ],
              [
                3.089633776677715,
                42.525158031258975
              ],
              [
                3.089631306240149,
                42.52513196440944
              ],
              [
                3.089609378970015,
                42.52509872096991
              ],
              [
                3.089515707384337,
                42.52503857071415
              ],
              [
                3.089494986105346,
                42.52499903381905
              ],
              [
                3.089455660550738,
                42.52489493009785
              ],
              [
                3.089449836541128,
                42.52487951122126
              ],
              [
                3.08944359074944,
                42.524768945871116
              ],
              [
                3.089443572762961,
                42.52475726008025
              ],
              [
                3.089421608620681,
                42.52469974573748
              ],
              [
                3.089324291183609,
                42.52463959728052
              ],
              [
                3.089128543847751,
                42.52458582411734
              ],
              [
                3.088986973470267,
                42.52459879234138
              ],
              [
                3.088930475361652,
                42.52460396793955
              ],
              [
                3.088892803660399,
                42.524605797160675
              ],
              [
                3.088811421310304,
                42.52463463122389
              ],
              [
                3.088806035270521,
                42.524634635720915
              ],
              [
                3.088759163504988,
                42.52463467529061
              ],
              [
                3.088719048345647,
                42.52462841600915
              ],
              [
                3.088667510897474,
                42.52460832065849
              ],
              [
                3.088633926614855,
                42.52459522562989
              ],
              [
                3.088498992335091,
                42.52457286398741
              ],
              [
                3.088255969437903,
                42.52459913408335
              ],
              [
                3.087966880567494,
                42.52470185284912
              ],
              [
                3.087930435541563,
                42.52471177147193
              ],
              [
                3.087926737529317,
                42.524711481890265
              ],
              [
                3.087828337308401,
                42.52470376480757
              ],
              [
                3.087822269582489,
                42.5247061650982
              ],
              [
                3.087719023814385,
                42.524747004211584
              ],
              [
                3.087654594584127,
                42.52473537148113
              ],
              [
                3.087658185577093,
                42.52469851096822
              ],
              [
                3.087497666484547,
                42.52463391896105
              ],
              [
                3.087412722819054,
                42.5247193887296
              ],
              [
                3.087348307079138,
                42.524716743823404
              ],
              [
                3.087282444329694,
                42.52475196667083
              ],
              [
                3.087200157261979,
                42.52479597319656
              ],
              [
                3.087211345727144,
                42.524745568893564
              ],
              [
                3.087245470422959,
                42.52459183532532
              ],
              [
                3.086365772706293,
                42.52602513591282
              ],
              [
                3.086369210670822,
                42.52602936370492
              ],
              [
                3.086371924824781,
                42.5260327010891
              ],
              [
                3.086379255199009,
                42.526058765240485
              ],
              [
                3.086351668765197,
                42.52612307923638
              ],
              [
                3.088339382997503,
                42.527673645814914
              ],
              [
                3.088367537532086,
                42.527652774896296
              ],
              [
                3.088479535502375,
                42.52777404038041
              ],
              [
                3.08847317265332,
                42.527778011804145
              ],
              [
                3.088478851467372,
                42.52778244170776
              ]
            ],
            [
              [
                3.087353451201157,
                42.52490551961465
              ],
              [
                3.087387403306243,
                42.52485425106348
              ],
              [
                3.087437282405123,
                42.52488837044256
              ],
              [
                3.087434728330568,
                42.52489304511855
              ],
              [
                3.08741910171067,
                42.52492164625763
              ],
              [
                3.087378399293837,
                42.52493171956396
              ],
              [
                3.08735349886527,
                42.52493788171838
              ],
              [
                3.087353451201157,
                42.52490551961465
              ]
            ],
            [
              [
                3.08781998170717,
                42.52480445380314
              ],
              [
                3.08783697169938,
                42.52478825881184
              ],
              [
                3.087869734900776,
                42.5247549713056
              ],
              [
                3.087919588818178,
                42.524772009861096
              ],
              [
                3.087928664776479,
                42.52478969412985
              ],
              [
                3.087936652554605,
                42.5248052568978
              ],
              [
                3.087869860805728,
                42.524838573182286
              ],
              [
                3.087848290566598,
                42.52482381800562
              ],
              [
                3.08781998170717,
                42.52480445380314
              ]
            ]
          ],
          [
            [
              [
                3.087260452185818,
                42.52456742539029
              ],
              [
                3.08726596535877,
                42.52456458294882
              ],
              [
                3.087261767321776,
                42.52456528261684
              ],
              [
                3.087260452185818,
                42.52456742539029
              ]
            ]
          ]
        ]
      }
    },
    {
      "type": "Feature",
      "properties": {
        "nom": "Baie_de_Banyuls",
        "source": "PREMAR",
        "auteur": "Andromède Océanologie",
        "maj": "MAI 2021",
        "info": true,
        "cara": false,
        "regl_type": "Zone de mouillage et d'équipements légers",
        "regl": true,
        "tech": false,
        "projet": "Etat des lieux de la pêche artisanale",
        "NOM": "Baie_de_Banyuls",
        "MAJ": "MAI 2021",
        "Auteur": "Andromède Océanologie",
        "Source": "PREMAR",
        "arrete_nom": null,
        "actv_inter": null,
        "actc_excpt": null,
        "Regl_type": "Zone de mouillage et d'équipements légers",
        "EU_CD": null,
        "NOMMDO": null,
        "Infos_regl": null,
        "Cat_regl": null,
        "Regl_Medtx": "Zone de mouillage"
      },
      "geometry": {
        "type": "MultiPolygon",
        "coordinates": [
          [
            [
              [
                3.131583333333334,
                42.483450000939605
              ],
              [
                3.132966666666666,
                42.484466667606284
              ],
              [
                3.13365,
                42.483950000939636
              ],
              [
                3.132269539017953,
                42.48293289095027
              ],
              [
                3.131583333333334,
                42.483450000939605
              ]
            ]
          ]
        ]
      }
    }
  ]
}