{
  "type": "FeatureCollection",
  "name": "us_med_pnmgl_ZMEL_Plage_sanatorium_mouillage_reglemente_pol_4326",
  "features": [
    {
      "type": "Feature",
      "properties": {
        "nom": "Plage du sanatorium",
        "source": "PREMAR",
        "auteur": "Andromède Océanologie",
        "maj": "JUILLET 2021",
        "info": true,
        "cara": false,
        "regl_type": "Zone réglementée",
        "cat_regl": "zones interdites mouillage peche",
        "arrete_nom": "Arrêté préfectoral 163/2019",
        "actv_inter": "Mouillage et pêche avec utilisation d'engins de fond interdits",
        "regl": true,
        "tech": false,
        "projet": "Etat des lieux de la pêche artisanale",
        "NOM": "Plage du sanatorium",
        "MAJ": "JUILLET 2021",
        "Auteur": "Andromède Océanologie",
        "Source": "PREMAR",
        "actc_excpt": null,
        "Regl_type": "Zone réglementée",
        "EU_CD": null,
        "NOMMDO": null,
        "Infos_regl": "Mouillage et pêche avec utilisation d'engins de fond interdits",
        "Cat_regl": "zones interdites mouillage peche",
        "Regl_Medtx": "Zone réglementée"
      },
      "geometry": {
        "type": "MultiPolygon",
        "coordinates": [
          [
            [
              [
                3.132432936887724,
                42.490816422812244
              ],
              [
                3.132350684642392,
                42.48935412174409
              ],
              [
                3.128748253344845,
                42.489382717431276
              ],
              [
                3.128795468336483,
                42.48946356243426
              ],
              [
                3.129044983439345,
                42.48970147448433
              ],
              [
                3.129260259553522,
                42.489834253088986
              ],
              [
                3.129430449056362,
                42.48990056729805
              ],
              [
                3.129606657721469,
                42.48994260251
              ],
              [
                3.129787559948414,
                42.4899100209714
              ],
              [
                3.129851899246017,
                42.489894661450116
              ],
              [
                3.129922307168946,
                42.48987749609
              ],
              [
                3.130015836661707,
                42.48988007894357
              ],
              [
                3.130114142454025,
                42.489845800383954
              ],
              [
                3.130188227704824,
                42.489843911807725
              ],
              [
                3.130230808805277,
                42.48987532242896
              ],
              [
                3.130183552129899,
                42.48992571953686
              ],
              [
                3.130279578140465,
                42.48995886225233
              ],
              [
                3.130255358498459,
                42.48999125223504
              ],
              [
                3.13033310219149,
                42.489995652617786
              ],
              [
                3.13038053153666,
                42.49002256213216
              ],
              [
                3.130462136019278,
                42.49012403983318
              ],
              [
                3.13047949203528,
                42.49013451423728
              ],
              [
                3.13054240770635,
                42.490172483614025
              ],
              [
                3.130582479697981,
                42.49016793933964
              ],
              [
                3.13066133135564,
                42.49012469543888
              ],
              [
                3.130729342585592,
                42.49012191473529
              ],
              [
                3.130809413723677,
                42.490080466780626
              ],
              [
                3.130882310970269,
                42.490090264894484
              ],
              [
                3.131131296372743,
                42.49008726295744
              ],
              [
                3.131295454122336,
                42.49017066068818
              ],
              [
                3.131351202196475,
                42.49011575797632
              ],
              [
                3.131392658244854,
                42.49013769154173
              ],
              [
                3.131407140027684,
                42.49014535286627
              ],
              [
                3.13138462460105,
                42.490169925942254
              ],
              [
                3.131347770383584,
                42.490210148120696
              ],
              [
                3.131318662926158,
                42.490229061762506
              ],
              [
                3.131344242343137,
                42.4902613905914
              ],
              [
                3.131398937311241,
                42.490278403066576
              ],
              [
                3.131427215593838,
                42.49027595241393
              ],
              [
                3.131556804303444,
                42.490264724378044
              ],
              [
                3.131623658105562,
                42.490287115698386
              ],
              [
                3.131638295471336,
                42.490314964105174
              ],
              [
                3.131529540456336,
                42.49037496417413
              ],
              [
                3.131510920892625,
                42.49038523623043
              ],
              [
                3.131568280551944,
                42.49050651970079
              ],
              [
                3.131669130526185,
                42.490523474619046
              ],
              [
                3.131754176714317,
                42.49053415676665
              ],
              [
                3.131777341451566,
                42.49057278174914
              ],
              [
                3.131917043037347,
                42.49058249712506
              ],
              [
                3.131925648650213,
                42.49062833107354
              ],
              [
                3.131963336538899,
                42.49064356648816
              ],
              [
                3.131988836815538,
                42.49064083794492
              ],
              [
                3.132038558533384,
                42.49060661784186
              ],
              [
                3.132136955156716,
                42.49061278809041
              ],
              [
                3.132189254331096,
                42.49064418522164
              ],
              [
                3.132167440375353,
                42.49066578693713
              ],
              [
                3.132171153676116,
                42.49069634500101
              ],
              [
                3.132217344655025,
                42.49071246894604
              ],
              [
                3.132327882126364,
                42.49071592683914
              ],
              [
                3.132405808381718,
                42.49080032911257
              ],
              [
                3.132432936887724,
                42.490816422812244
              ]
            ]
          ]
        ]
      }
    }
  ]
}