{
  "type": "FeatureCollection",
  "name": "us_med_eoliennes_AO6_DM_pol_4326",
  "crs": {
    "type": "name",
    "properties": {
      "name": "urn:ogc:def:crs:OGC:1.3:CRS84"
    }
  },
  "features": [
    {
      "type": "Feature",
      "properties": {
        "info": false,
        "cara": false,
        "regl": false,
        "tech": false,
        "projet": "Erosion de la côte Vermeille",
        "ZONE": "Zone 1",
        "Nom Zone": 1
      },
      "geometry": {
        "type": "MultiPolygon",
        "coordinates": [
          [
            [
              [
                3.619792,
                43.08213890094121
              ],
              [
                3.639935,
                43.08988060094121
              ],
              [
                3.6591341,
                43.09882130094125
              ],
              [
                3.6772567,
                43.10889940094127
              ],
              [
                3.684140231101945,
                43.11334205889195
              ],
              [
                3.66681895142876,
                43.06028492133233
              ],
              [
                3.616116020123039,
                42.903933953078464
              ],
              [
                3.385346245800078,
                42.97374308323754
              ],
              [
                3.415842364876265,
                43.0004313417311
              ],
              [
                3.425761173258304,
                43.02572312884909
              ],
              [
                3.418737934541273,
                43.057715328533796
              ],
              [
                3.4332624,
                43.06729110094116
              ],
              [
                3.4349567,
                43.0685585009412
              ],
              [
                3.4386614,
                43.06782170094123
              ],
              [
                3.4610236,
                43.06480760094117
              ],
              [
                3.47307850000001,
                43.06393220094119
              ],
              [
                3.4778507,
                43.063532900941176
              ],
              [
                3.483649,
                43.06316460094118
              ],
              [
                3.4910296,
                43.06292800094116
              ],
              [
                3.5032052,
                43.062901800941184
              ],
              [
                3.5087782,
                43.062837900941176
              ],
              [
                3.5314624,
                43.06396160094114
              ],
              [
                3.5473792,
                43.065586700941196
              ],
              [
                3.5539829,
                43.06646690094115
              ],
              [
                3.554062100000012,
                43.06648070094119
              ],
              [
                3.555115699999989,
                43.06659790094119
              ],
              [
                3.5772358,
                43.0704574009412
              ],
              [
                3.598844100000012,
                43.07564960094119
              ],
              [
                3.619792,
                43.08213890094121
              ]
            ]
          ]
        ]
      }
    },
    {
      "type": "Feature",
      "properties": {
        "info": false,
        "cara": false,
        "regl": false,
        "tech": false,
        "projet": "Erosion de la côte Vermeille",
        "ZONE": "Zone 2",
        "Nom Zone": 2
      },
      "geometry": {
        "type": "MultiPolygon",
        "coordinates": [
          [
            [
              [
                4.648471753000024,
                42.96858829700007
              ],
              [
                4.630835529538973,
                42.973949315466555
              ],
              [
                4.603600117613001,
                42.974161005268556
              ],
              [
                4.579460033000033,
                42.96669634400007
              ],
              [
                4.568739012241616,
                42.98627134534558
              ],
              [
                4.543525923000061,
                43.002441821000055
              ],
              [
                4.542504273548542,
                43.00891556384696
              ],
              [
                4.51191114421321,
                43.05392348321967
              ],
              [
                4.47621209148368,
                43.06787677060015
              ],
              [
                4.451996836338472,
                43.067955816358406
              ],
              [
                4.452341087600383,
                43.18630567617349
              ],
              [
                4.456512599999989,
                43.184580900941356
              ],
              [
                4.4736277,
                43.17871230094131
              ],
              [
                4.4837843,
                43.17537250094127
              ],
              [
                4.4865968,
                43.174495000941306
              ],
              [
                4.4891028,
                43.17373150094128
              ],
              [
                4.4920058,
                43.1728734009413
              ],
              [
                4.4925531,
                43.1727084009413
              ],
              [
                4.498142899999988,
                43.17108110094131
              ],
              [
                4.5041266,
                43.16941970094133
              ],
              [
                4.5163626,
                43.166351500941275
              ],
              [
                4.5168338,
                43.16624270094129
              ],
              [
                4.5234348,
                43.16478180094125
              ],
              [
                4.524971,
                43.164458500941265
              ],
              [
                4.526498199999989,
                43.16413640094132
              ],
              [
                4.5304602,
                43.16332570094128
              ],
              [
                4.531753899999989,
                43.16306850094127
              ],
              [
                4.534288900000012,
                43.16256740094129
              ],
              [
                4.5434977,
                43.16080370094128
              ],
              [
                4.5452438,
                43.16049490094131
              ],
              [
                4.566058899999986,
                43.156397500941274
              ],
              [
                4.5774368,
                43.15469020094127
              ],
              [
                4.589781199999988,
                43.152075800941255
              ],
              [
                4.5990885,
                43.15040220094125
              ],
              [
                4.6214808,
                43.14738810094127
              ],
              [
                4.6441367,
                43.14574520094123
              ],
              [
                4.649738,
                43.14555250094123
              ],
              [
                4.6506772,
                43.14552730094125
              ],
              [
                4.6673615,
                43.145472000941176
              ],
              [
                4.6747849,
                43.14568660094123
              ],
              [
                4.682949417094555,
                43.14568047124951
              ],
              [
                4.678370934724446,
                42.993196432365075
              ],
              [
                4.678363470071092,
                42.992759469150855
              ],
              [
                4.648471753000024,
                42.96858829700007
              ]
            ]
          ]
        ]
      }
    }
  ]
}