{
  "type": "FeatureCollection",
  "name": "us_med_pnmgl_epaves_aamp_pt_2154",
  "crs": {
    "type": "name",
    "properties": {
      "name": "urn:ogc:def:crs:EPSG::2154"
    }
  },
  "features": [
    {
      "type": "Feature",
      "properties": {
        "nom": "Alice Robert",
        "source": "DRASSM, carte 15/10/2013",
        "info": true,
        "etiquette": "Epave archéologique",
        "cara": true,
        "regl": false,
        "id": 0.0,
        "id_bdd": "0",
        "fid": 1.0,
        "num": "AAMP plan gestion PNMGL - calage carte DRASSM",
        "tech": true,
        "projet": "Etat des lieux de la pêche artisanale",
        "date_ep": "1944-06-02",
        "annee": 0.0,
        "type": "Bananier armé"
      },
      "geometry": {
        "type": "MultiPoint",
        "coordinates": [
          [
            710673.8307553323,
            6165518.059110482
          ]
        ]
      }
    },
    {
      "type": "Feature",
      "properties": {
        "nom": "Astrée",
        "source": "DRASSM, carte 15/10/2013",
        "info": true,
        "etiquette": "Epave archéologique",
        "cara": true,
        "regl": false,
        "id": 1.0,
        "id_bdd": "1",
        "fid": 2.0,
        "num": "AAMP plan gestion PNMGL - calage carte DRASSM",
        "tech": true,
        "projet": "Etat des lieux de la pêche artisanale",
        "date_ep": "1944-06-03",
        "annee": 0.0,
        "type": "Cargo"
      },
      "geometry": {
        "type": "MultiPoint",
        "coordinates": [
          [
            711013.349709566,
            6158748.71979367
          ]
        ]
      }
    },
    {
      "type": "Feature",
      "properties": {
        "nom": "Bras",
        "source": "DRASSM, carte 15/10/2013",
        "info": true,
        "etiquette": "Epave archéologique",
        "cara": true,
        "regl": false,
        "id": 2.0,
        "id_bdd": "2",
        "fid": 3.0,
        "num": "AAMP plan gestion PNMGL - calage carte DRASSM",
        "tech": true,
        "projet": "Etat des lieux de la pêche artisanale",
        "date_ep": null,
        "annee": 0.0,
        "type": null
      },
      "geometry": {
        "type": "MultiPoint",
        "coordinates": [
          [
            721420.4630972189,
            6154369.984384568
          ]
        ]
      }
    },
    {
      "type": "Feature",
      "properties": {
        "nom": "Estérel",
        "source": "RNMCB / AAMP (Richesses de la CV)",
        "info": true,
        "etiquette": "Epave",
        "cara": true,
        "regl": false,
        "id": 3.0,
        "id_bdd": "3",
        "fid": 4.0,
        "num": "AAMP - Richesse MCV",
        "tech": true,
        "projet": "Etat des lieux de la pêche artisanale",
        "date_ep": null,
        "annee": 0.0,
        "type": null
      },
      "geometry": {
        "type": "MultiPoint",
        "coordinates": [
          [
            733253.0882726773,
            6172345.693015544
          ]
        ]
      }
    },
    {
      "type": "Feature",
      "properties": {
        "nom": "Etoile du nord",
        "source": "DRASSM, carte 15/10/2013",
        "info": true,
        "etiquette": "Epave archéologique",
        "cara": true,
        "regl": false,
        "id": 4.0,
        "id_bdd": "4",
        "fid": 5.0,
        "num": "AAMP plan gestion PNMGL - calage carte DRASSM",
        "tech": true,
        "projet": "Etat des lieux de la pêche artisanale",
        "date_ep": null,
        "annee": 0.0,
        "type": "Chalutier"
      },
      "geometry": {
        "type": "MultiPoint",
        "coordinates": [
          [
            711085.0368855668,
            6157970.36644862
          ]
        ]
      }
    },
    {
      "type": "Feature",
      "properties": {
        "nom": "Fourmi",
        "source": "DRASSM, carte 15/10/2013",
        "info": true,
        "etiquette": "Epave archéologique",
        "cara": true,
        "regl": false,
        "id": 5.0,
        "id_bdd": "5",
        "fid": 6.0,
        "num": "AAMP plan gestion PNMGL - calage carte DRASSM",
        "tech": true,
        "projet": "Etat des lieux de la pêche artisanale",
        "date_ep": null,
        "annee": 0.0,
        "type": "Chalutier"
      },
      "geometry": {
        "type": "MultiPoint",
        "coordinates": [
          [
            714113.197547674,
            6153932.0548358215
          ]
        ]
      }
    },
    {
      "type": "Feature",
      "properties": {
        "nom": "Ganekogorta-Mendi",
        "source": "RNMCB / AAMP (Richesses de la CV)",
        "info": true,
        "etiquette": "Epave",
        "cara": true,
        "regl": false,
        "id": 6.0,
        "id_bdd": "6",
        "fid": 7.0,
        "num": "AAMP - Richesse MCV",
        "tech": true,
        "projet": "Etat des lieux de la pêche artisanale",
        "date_ep": null,
        "annee": 0.0,
        "type": null
      },
      "geometry": {
        "type": "MultiPoint",
        "coordinates": [
          [
            745132.5238551951,
            6176125.120047503
          ]
        ]
      }
    },
    {
      "type": "Feature",
      "properties": {
        "nom": "Jose Illueca",
        "source": "DRASSM, carte 15/10/2013",
        "info": true,
        "etiquette": "Epave archéologique",
        "cara": true,
        "regl": false,
        "id": 7.0,
        "id_bdd": "7",
        "fid": 8.0,
        "num": "AAMP plan gestion PNMGL - calage carte DRASSM",
        "tech": true,
        "projet": "Etat des lieux de la pêche artisanale",
        "date_ep": null,
        "annee": 0.0,
        "type": "Cargo"
      },
      "geometry": {
        "type": "MultiPoint",
        "coordinates": [
          [
            715696.1567204681,
            6152040.632014144
          ]
        ]
      }
    },
    {
      "type": "Feature",
      "properties": {
        "nom": "Marilou",
        "source": "DRASSM, carte 15/10/2013",
        "info": true,
        "etiquette": "Epave archéologique",
        "cara": true,
        "regl": false,
        "id": 8.0,
        "id_bdd": "8",
        "fid": 9.0,
        "num": "AAMP plan gestion PNMGL - calage carte DRASSM",
        "tech": true,
        "projet": "Etat des lieux de la pêche artisanale",
        "date_ep": "1989-05-23",
        "annee": 0.0,
        "type": "Sardinier"
      },
      "geometry": {
        "type": "MultiPoint",
        "coordinates": [
          [
            714058.2320590632,
            6151212.441602324
          ]
        ]
      }
    },
    {
      "type": "Feature",
      "properties": {
        "nom": "Roland Isabelle",
        "source": "DRASSM, carte 15/10/2013",
        "info": true,
        "etiquette": "Epave archéologique",
        "cara": true,
        "regl": false,
        "id": 9.0,
        "id_bdd": "9",
        "fid": 10.0,
        "num": "AAMP plan gestion PNMGL - calage carte DRASSM",
        "tech": true,
        "projet": "Etat des lieux de la pêche artisanale",
        "date_ep": null,
        "annee": 1997.0,
        "type": "Chalutier"
      },
      "geometry": {
        "type": "MultiPoint",
        "coordinates": [
          [
            713824.31854591,
            6152846.827143057
          ]
        ]
      }
    },
    {
      "type": "Feature",
      "properties": {
        "nom": "Saint Lucien",
        "source": "DRASSM, carte 15/10/2013",
        "info": true,
        "etiquette": "Epave archéologique",
        "cara": true,
        "regl": false,
        "id": 10.0,
        "id_bdd": "10",
        "fid": 11.0,
        "num": "AAMP plan gestion PNMGL - calage carte DRASSM",
        "tech": true,
        "projet": "Etat des lieux de la pêche artisanale",
        "date_ep": null,
        "annee": 1944.0,
        "type": "Cargo"
      },
      "geometry": {
        "type": "MultiPoint",
        "coordinates": [
          [
            711570.2882405614,
            6157654.729420383
          ]
        ]
      }
    },
    {
      "type": "Feature",
      "properties": {
        "nom": "Saumur",
        "source": "DRASSM, carte 15/10/2013",
        "info": true,
        "etiquette": "Epave archéologique",
        "cara": true,
        "regl": false,
        "id": 11.0,
        "id_bdd": "11",
        "fid": 12.0,
        "num": "AAMP plan gestion PNMGL - calage carte DRASSM",
        "tech": true,
        "projet": "Etat des lieux de la pêche artisanale",
        "date_ep": "1944-05-21",
        "annee": 0.0,
        "type": "Cargo"
      },
      "geometry": {
        "type": "MultiPoint",
        "coordinates": [
          [
            710996.4202157295,
            6158383.114075178
          ]
        ]
      }
    },
    {
      "type": "Feature",
      "properties": {
        "nom": "Bazan",
        "source": "DRASSM, carte 15/10/2013",
        "info": true,
        "etiquette": "Epave archéologique",
        "cara": true,
        "regl": false,
        "id": 12.0,
        "id_bdd": "12",
        "fid": 13.0,
        "num": "AAMP plan gestion PNMGL - calage carte DRASSM",
        "tech": true,
        "projet": "Etat des lieux de la pêche artisanale",
        "date_ep": null,
        "annee": 0.0,
        "type": null
      },
      "geometry": {
        "type": "MultiPoint",
        "coordinates": [
          [
            711041.2326448576,
            6157571.250663097
          ]
        ]
      }
    },
    {
      "type": "Feature",
      "properties": {
        "nom": "Pythéas",
        "source": "DRASSM, carte 15/10/2013",
        "info": true,
        "etiquette": "Epave archéologique",
        "cara": true,
        "regl": false,
        "id": 13.0,
        "id_bdd": "13",
        "fid": 14.0,
        "num": "AAMP plan gestion PNMGL - calage carte DRASSM",
        "tech": true,
        "projet": "Etat des lieux de la pêche artisanale",
        "date_ep": "1897-10-19",
        "annee": 0.0,
        "type": "Vapeur"
      },
      "geometry": {
        "type": "MultiPoint",
        "coordinates": [
          [
            710109.1902825977,
            6157989.712820776
          ]
        ]
      }
    },
    {
      "type": "Feature",
      "properties": {
        "nom": "Sahel",
        "source": "DRASSM, carte 15/10/2013",
        "info": true,
        "etiquette": "Epave archéologique",
        "cara": true,
        "regl": false,
        "id": 14.0,
        "id_bdd": "14",
        "fid": 15.0,
        "num": "AAMP plan gestion PNMGL - calage carte DRASSM",
        "tech": true,
        "projet": "Etat des lieux de la pêche artisanale",
        "date_ep": null,
        "annee": 0.0,
        "type": null
      },
      "geometry": {
        "type": "MultiPoint",
        "coordinates": [
          [
            714783.9663284662,
            6149383.362009935
          ]
        ]
      }
    },
    {
      "type": "Feature",
      "properties": {
        "nom": "Le Michel",
        "source": "DRASSM, carte 15/10/2013",
        "info": true,
        "etiquette": "Epave archéologique",
        "cara": true,
        "regl": false,
        "id": 15.0,
        "id_bdd": "15",
        "fid": 16.0,
        "num": "AAMP plan gestion PNMGL - calage carte DRASSM",
        "tech": true,
        "projet": "Etat des lieux de la pêche artisanale",
        "date_ep": null,
        "annee": 1994.0,
        "type": null
      },
      "geometry": {
        "type": "MultiPoint",
        "coordinates": [
          [
            714113.2667920644,
            6153900.53459344
          ]
        ]
      }
    },
    {
      "type": "Feature",
      "properties": {
        "nom": "Samuel",
        "source": "RNMCB / AAMP (Richesses de la CV)",
        "info": true,
        "etiquette": "Epave",
        "cara": true,
        "regl": false,
        "id": 16.0,
        "id_bdd": "16",
        "fid": 17.0,
        "num": "AAMP - Richesse MCV",
        "tech": true,
        "projet": "Etat des lieux de la pêche artisanale",
        "date_ep": null,
        "annee": 0.0,
        "type": "Vapeur"
      },
      "geometry": {
        "type": "MultiPoint",
        "coordinates": [
          [
            730186.3853980011,
            6135130.963721535
          ]
        ]
      }
    },
    {
      "type": "Feature",
      "properties": {
        "nom": "Japonais",
        "source": "DRASSM, carte 15/10/2013",
        "info": true,
        "etiquette": "Epave archéologique",
        "cara": true,
        "regl": false,
        "id": 17.0,
        "id_bdd": "17",
        "fid": 18.0,
        "num": "AAMP plan gestion PNMGL - calage carte DRASSM",
        "tech": true,
        "projet": "Etat des lieux de la pêche artisanale",
        "date_ep": "1899-12-30",
        "annee": 0.0,
        "type": null
      },
      "geometry": {
        "type": "MultiPoint",
        "coordinates": [
          [
            706642.6738974036,
            6206631.66935133
          ]
        ]
      }
    },
    {
      "type": "Feature",
      "properties": {
        "source": "DRASSM, carte 15/10/2013",
        "info": true,
        "etiquette": "Epave archéologique",
        "cara": true,
        "regl": false,
        "id": 18.0,
        "id_bdd": "18",
        "fid": 19.0,
        "num": "AAMP plan gestion PNMGL - calage carte DRASSM",
        "tech": true,
        "projet": "Etat des lieux de la pêche artisanale",
        "date_ep": "1899-12-30",
        "annee": 0.0,
        "nom": null,
        "type": null
      },
      "geometry": {
        "type": "MultiPoint",
        "coordinates": [
          [
            705414.2388495035,
            6213093.551722621
          ]
        ]
      }
    },
    {
      "type": "Feature",
      "properties": {
        "source": "DRASSM, carte 15/10/2013",
        "info": true,
        "etiquette": "Epave archéologique",
        "cara": true,
        "regl": false,
        "id": 19.0,
        "id_bdd": "19",
        "fid": 20.0,
        "num": "AAMP plan gestion PNMGL - calage carte DRASSM",
        "tech": true,
        "projet": "Etat des lieux de la pêche artisanale",
        "date_ep": "1899-12-30",
        "annee": 0.0,
        "nom": null,
        "type": null
      },
      "geometry": {
        "type": "MultiPoint",
        "coordinates": [
          [
            707109.9659528966,
            6210787.710005162
          ]
        ]
      }
    },
    {
      "type": "Feature",
      "properties": {
        "source": "DRASSM, carte 15/10/2013",
        "info": true,
        "etiquette": "Epave archéologique",
        "cara": true,
        "regl": false,
        "id": 20.0,
        "id_bdd": "20",
        "fid": 21.0,
        "num": "AAMP plan gestion PNMGL - calage carte DRASSM",
        "tech": true,
        "projet": "Etat des lieux de la pêche artisanale",
        "date_ep": "1899-12-30",
        "annee": 0.0,
        "nom": null,
        "type": null
      },
      "geometry": {
        "type": "MultiPoint",
        "coordinates": [
          [
            712286.7539561338,
            6206298.7287233835
          ]
        ]
      }
    },
    {
      "type": "Feature",
      "properties": {
        "source": "DRASSM, carte 15/10/2013",
        "info": true,
        "etiquette": "Epave archéologique",
        "cara": true,
        "regl": false,
        "id": 21.0,
        "id_bdd": "21",
        "fid": 22.0,
        "num": "AAMP plan gestion PNMGL - calage carte DRASSM",
        "tech": true,
        "projet": "Etat des lieux de la pêche artisanale",
        "date_ep": "1899-12-30",
        "annee": 0.0,
        "nom": null,
        "type": null
      },
      "geometry": {
        "type": "MultiPoint",
        "coordinates": [
          [
            703594.3738133571,
            6206702.208692277
          ]
        ]
      }
    },
    {
      "type": "Feature",
      "properties": {
        "source": "DRASSM, carte 15/10/2013",
        "info": true,
        "etiquette": "Epave archéologique",
        "cara": true,
        "regl": false,
        "id": 22.0,
        "id_bdd": "22",
        "fid": 23.0,
        "num": "AAMP plan gestion PNMGL - calage carte DRASSM",
        "tech": true,
        "projet": "Etat des lieux de la pêche artisanale",
        "date_ep": "1899-12-30",
        "annee": 0.0,
        "nom": null,
        "type": null
      },
      "geometry": {
        "type": "MultiPoint",
        "coordinates": [
          [
            705206.2331662657,
            6201851.373541231
          ]
        ]
      }
    },
    {
      "type": "Feature",
      "properties": {
        "source": "DRASSM, carte 15/10/2013",
        "info": true,
        "etiquette": "Epave archéologique",
        "cara": true,
        "regl": false,
        "id": 23.0,
        "id_bdd": "23",
        "fid": 24.0,
        "num": "AAMP plan gestion PNMGL - calage carte DRASSM",
        "tech": true,
        "projet": "Etat des lieux de la pêche artisanale",
        "date_ep": "1899-12-30",
        "annee": 0.0,
        "nom": null,
        "type": null
      },
      "geometry": {
        "type": "MultiPoint",
        "coordinates": [
          [
            702945.7438128067,
            6199601.425296029
          ]
        ]
      }
    },
    {
      "type": "Feature",
      "properties": {
        "source": "DRASSM, carte 15/10/2013",
        "info": true,
        "etiquette": "Epave archéologique",
        "cara": true,
        "regl": false,
        "id": 24.0,
        "id_bdd": "24",
        "fid": 25.0,
        "num": "AAMP plan gestion PNMGL - calage carte DRASSM",
        "tech": true,
        "projet": "Etat des lieux de la pêche artisanale",
        "date_ep": "1899-12-30",
        "annee": 0.0,
        "nom": null,
        "type": null
      },
      "geometry": {
        "type": "MultiPoint",
        "coordinates": [
          [
            702338.5682110348,
            6194334.746000734
          ]
        ]
      }
    },
    {
      "type": "Feature",
      "properties": {
        "source": "DRASSM, carte 15/10/2013",
        "info": true,
        "etiquette": "Epave archéologique",
        "cara": true,
        "regl": false,
        "id": 25.0,
        "id_bdd": "25",
        "fid": 26.0,
        "num": "AAMP plan gestion PNMGL - calage carte DRASSM",
        "tech": true,
        "projet": "Etat des lieux de la pêche artisanale",
        "date_ep": "1899-12-30",
        "annee": 0.0,
        "nom": null,
        "type": null
      },
      "geometry": {
        "type": "MultiPoint",
        "coordinates": [
          [
            705514.2046380958,
            6197709.585205029
          ]
        ]
      }
    },
    {
      "type": "Feature",
      "properties": {
        "source": "DRASSM, carte 15/10/2013",
        "info": true,
        "etiquette": "Epave archéologique",
        "cara": true,
        "regl": false,
        "id": 26.0,
        "id_bdd": "26",
        "fid": 27.0,
        "num": "AAMP plan gestion PNMGL - calage carte DRASSM",
        "tech": true,
        "projet": "Etat des lieux de la pêche artisanale",
        "date_ep": "1899-12-30",
        "annee": 0.0,
        "nom": null,
        "type": null
      },
      "geometry": {
        "type": "MultiPoint",
        "coordinates": [
          [
            703428.3882068682,
            6191909.0478595095
          ]
        ]
      }
    },
    {
      "type": "Feature",
      "properties": {
        "source": "DRASSM, carte 15/10/2013",
        "info": true,
        "etiquette": "Epave archéologique",
        "cara": true,
        "regl": false,
        "id": 27.0,
        "id_bdd": "27",
        "fid": 28.0,
        "num": "AAMP plan gestion PNMGL - calage carte DRASSM",
        "tech": true,
        "projet": "Etat des lieux de la pêche artisanale",
        "date_ep": "1899-12-30",
        "annee": 0.0,
        "nom": null,
        "type": null
      },
      "geometry": {
        "type": "MultiPoint",
        "coordinates": [
          [
            701909.133847687,
            6174035.9945269525
          ]
        ]
      }
    },
    {
      "type": "Feature",
      "properties": {
        "source": "DRASSM, carte 15/10/2013",
        "info": true,
        "etiquette": "Epave archéologique",
        "cara": true,
        "regl": false,
        "id": 28.0,
        "id_bdd": "28",
        "fid": 29.0,
        "num": "AAMP plan gestion PNMGL - calage carte DRASSM",
        "tech": true,
        "projet": "Etat des lieux de la pêche artisanale",
        "date_ep": "1899-12-30",
        "annee": 0.0,
        "nom": null,
        "type": null
      },
      "geometry": {
        "type": "MultiPoint",
        "coordinates": [
          [
            710660.1108844342,
            6164692.905681651
          ]
        ]
      }
    },
    {
      "type": "Feature",
      "properties": {
        "source": "DRASSM, carte 15/10/2013",
        "info": true,
        "etiquette": "Epave archéologique",
        "cara": true,
        "regl": false,
        "id": 29.0,
        "id_bdd": "29",
        "fid": 30.0,
        "num": "AAMP plan gestion PNMGL - calage carte DRASSM",
        "tech": true,
        "projet": "Etat des lieux de la pêche artisanale",
        "date_ep": "1899-12-30",
        "annee": 0.0,
        "nom": null,
        "type": null
      },
      "geometry": {
        "type": "MultiPoint",
        "coordinates": [
          [
            703397.5680799903,
            6167585.291061245
          ]
        ]
      }
    },
    {
      "type": "Feature",
      "properties": {
        "source": "DRASSM, carte 15/10/2013",
        "info": true,
        "etiquette": "Epave archéologique",
        "cara": true,
        "regl": false,
        "id": 30.0,
        "id_bdd": "30",
        "fid": 31.0,
        "num": "AAMP plan gestion PNMGL - calage carte DRASSM",
        "tech": true,
        "projet": "Etat des lieux de la pêche artisanale",
        "date_ep": "1899-12-30",
        "annee": 0.0,
        "nom": null,
        "type": null
      },
      "geometry": {
        "type": "MultiPoint",
        "coordinates": [
          [
            704232.2127521343,
            6161548.443161114
          ]
        ]
      }
    },
    {
      "type": "Feature",
      "properties": {
        "source": "DRASSM, carte 15/10/2013",
        "info": true,
        "etiquette": "Epave archéologique",
        "cara": true,
        "regl": false,
        "id": 31.0,
        "id_bdd": "31",
        "fid": 32.0,
        "num": "AAMP plan gestion PNMGL - calage carte DRASSM",
        "tech": true,
        "projet": "Etat des lieux de la pêche artisanale",
        "date_ep": "1899-12-30",
        "annee": 0.0,
        "nom": null,
        "type": null
      },
      "geometry": {
        "type": "MultiPoint",
        "coordinates": [
          [
            709315.072555826,
            6158513.560338822
          ]
        ]
      }
    },
    {
      "type": "Feature",
      "properties": {
        "source": "DRASSM, carte 15/10/2013",
        "info": true,
        "etiquette": "Epave archéologique",
        "cara": true,
        "regl": false,
        "id": 32.0,
        "id_bdd": "32",
        "fid": 33.0,
        "num": "AAMP plan gestion PNMGL - calage carte DRASSM",
        "tech": true,
        "projet": "Etat des lieux de la pêche artisanale",
        "date_ep": "1899-12-30",
        "annee": 0.0,
        "nom": null,
        "type": null
      },
      "geometry": {
        "type": "MultiPoint",
        "coordinates": [
          [
            709637.4497046372,
            6157732.330738276
          ]
        ]
      }
    },
    {
      "type": "Feature",
      "properties": {
        "source": "DRASSM, carte 15/10/2013",
        "info": true,
        "etiquette": "Epave archéologique",
        "cara": true,
        "regl": false,
        "id": 33.0,
        "id_bdd": "33",
        "fid": 34.0,
        "num": "AAMP plan gestion PNMGL - calage carte DRASSM",
        "tech": true,
        "projet": "Etat des lieux de la pêche artisanale",
        "date_ep": "1899-12-30",
        "annee": 0.0,
        "nom": null,
        "type": null
      },
      "geometry": {
        "type": "MultiPoint",
        "coordinates": [
          [
            709690.0856785225,
            6158340.398233592
          ]
        ]
      }
    },
    {
      "type": "Feature",
      "properties": {
        "source": "DRASSM, carte 15/10/2013",
        "info": true,
        "etiquette": "Epave archéologique",
        "cara": true,
        "regl": false,
        "id": 34.0,
        "id_bdd": "34",
        "fid": 35.0,
        "num": "AAMP plan gestion PNMGL - calage carte DRASSM",
        "tech": true,
        "projet": "Etat des lieux de la pêche artisanale",
        "date_ep": "1899-12-30",
        "annee": 0.0,
        "nom": null,
        "type": null
      },
      "geometry": {
        "type": "MultiPoint",
        "coordinates": [
          [
            710514.261973721,
            6158529.866193227
          ]
        ]
      }
    },
    {
      "type": "Feature",
      "properties": {
        "source": "DRASSM, carte 15/10/2013",
        "info": true,
        "etiquette": "Epave archéologique",
        "cara": true,
        "regl": false,
        "id": 35.0,
        "id_bdd": "35",
        "fid": 36.0,
        "num": "AAMP plan gestion PNMGL - calage carte DRASSM",
        "tech": true,
        "projet": "Etat des lieux de la pêche artisanale",
        "date_ep": "1899-12-30",
        "annee": 0.0,
        "nom": null,
        "type": null
      },
      "geometry": {
        "type": "MultiPoint",
        "coordinates": [
          [
            712282.9523462319,
            6157476.225003851
          ]
        ]
      }
    },
    {
      "type": "Feature",
      "properties": {
        "source": "DRASSM, carte 15/10/2013",
        "info": true,
        "etiquette": "Epave archéologique",
        "cara": true,
        "regl": false,
        "id": 36.0,
        "id_bdd": "36",
        "fid": 37.0,
        "num": "AAMP plan gestion PNMGL - calage carte DRASSM",
        "tech": true,
        "projet": "Etat des lieux de la pêche artisanale",
        "date_ep": "1899-12-30",
        "annee": 0.0,
        "nom": null,
        "type": null
      },
      "geometry": {
        "type": "MultiPoint",
        "coordinates": [
          [
            711992.9284669028,
            6157953.390755384
          ]
        ]
      }
    },
    {
      "type": "Feature",
      "properties": {
        "source": "DRASSM, carte 15/10/2013",
        "info": true,
        "etiquette": "Epave archéologique",
        "cara": true,
        "regl": false,
        "id": 37.0,
        "id_bdd": "37",
        "fid": 38.0,
        "num": "AAMP plan gestion PNMGL - calage carte DRASSM",
        "tech": true,
        "projet": "Etat des lieux de la pêche artisanale",
        "date_ep": "1899-12-30",
        "annee": 0.0,
        "nom": null,
        "type": null
      },
      "geometry": {
        "type": "MultiPoint",
        "coordinates": [
          [
            711662.9752025757,
            6156838.1362296995
          ]
        ]
      }
    },
    {
      "type": "Feature",
      "properties": {
        "source": "DRASSM, carte 15/10/2013",
        "info": true,
        "etiquette": "Epave archéologique",
        "cara": true,
        "regl": false,
        "id": 38.0,
        "id_bdd": "38",
        "fid": 39.0,
        "num": "AAMP plan gestion PNMGL - calage carte DRASSM",
        "tech": true,
        "projet": "Etat des lieux de la pêche artisanale",
        "date_ep": "1899-12-30",
        "annee": 0.0,
        "nom": null,
        "type": null
      },
      "geometry": {
        "type": "MultiPoint",
        "coordinates": [
          [
            710496.8219163656,
            6156068.912461995
          ]
        ]
      }
    },
    {
      "type": "Feature",
      "properties": {
        "source": "DRASSM, carte 15/10/2013",
        "info": true,
        "etiquette": "Epave archéologique",
        "cara": true,
        "regl": false,
        "id": 39.0,
        "id_bdd": "39",
        "fid": 40.0,
        "num": "AAMP plan gestion PNMGL - calage carte DRASSM",
        "tech": true,
        "projet": "Etat des lieux de la pêche artisanale",
        "date_ep": "1899-12-30",
        "annee": 0.0,
        "nom": null,
        "type": null
      },
      "geometry": {
        "type": "MultiPoint",
        "coordinates": [
          [
            711150.8561138283,
            6155693.619924053
          ]
        ]
      }
    },
    {
      "type": "Feature",
      "properties": {
        "source": "DRASSM, carte 15/10/2013",
        "info": true,
        "etiquette": "Epave archéologique",
        "cara": true,
        "regl": false,
        "id": 40.0,
        "id_bdd": "40",
        "fid": 41.0,
        "num": "AAMP plan gestion PNMGL - calage carte DRASSM",
        "tech": true,
        "projet": "Etat des lieux de la pêche artisanale",
        "date_ep": "1899-12-30",
        "annee": 0.0,
        "nom": null,
        "type": null
      },
      "geometry": {
        "type": "MultiPoint",
        "coordinates": [
          [
            715246.6437239669,
            6149491.4450296415
          ]
        ]
      }
    },
    {
      "type": "Feature",
      "properties": {
        "source": "DRASSM, carte 15/10/2013",
        "info": true,
        "etiquette": "Epave archéologique",
        "cara": true,
        "regl": false,
        "id": 41.0,
        "id_bdd": "41",
        "fid": 42.0,
        "num": "AAMP plan gestion PNMGL - calage carte DRASSM",
        "tech": true,
        "projet": "Etat des lieux de la pêche artisanale",
        "date_ep": "1899-12-30",
        "annee": 0.0,
        "nom": null,
        "type": null
      },
      "geometry": {
        "type": "MultiPoint",
        "coordinates": [
          [
            707290.1049923473,
            6158583.52776985
          ]
        ]
      }
    },
    {
      "type": "Feature",
      "properties": {
        "source": "DRASSM, carte 15/10/2013",
        "info": true,
        "etiquette": "Epave archéologique",
        "cara": true,
        "regl": false,
        "id": 42.0,
        "id_bdd": "42",
        "fid": 43.0,
        "num": "AAMP plan gestion PNMGL - calage carte DRASSM",
        "tech": true,
        "projet": "Etat des lieux de la pêche artisanale",
        "date_ep": "1899-12-30",
        "annee": 0.0,
        "nom": null,
        "type": null
      },
      "geometry": {
        "type": "MultiPoint",
        "coordinates": [
          [
            726221.1057900409,
            6160050.992904596
          ]
        ]
      }
    },
    {
      "type": "Feature",
      "properties": {
        "source": "DRASSM, carte 15/10/2013",
        "info": true,
        "etiquette": "Epave SHOM non encore intégrée",
        "cara": true,
        "regl": false,
        "id": 43.0,
        "id_bdd": "43",
        "fid": 44.0,
        "num": "AAMP plan gestion PNMGL - calage carte DRASSM",
        "tech": true,
        "projet": "Etat des lieux de la pêche artisanale",
        "date_ep": "1899-12-30",
        "annee": 0.0,
        "nom": null,
        "type": null
      },
      "geometry": {
        "type": "MultiPoint",
        "coordinates": [
          [
            727929.6077450945,
            6206320.194678079
          ]
        ]
      }
    },
    {
      "type": "Feature",
      "properties": {
        "source": "DRASSM, carte 15/10/2013",
        "info": true,
        "etiquette": "Epave SHOM non encore intégrée",
        "cara": true,
        "regl": false,
        "id": 44.0,
        "id_bdd": "44",
        "fid": 45.0,
        "num": "AAMP plan gestion PNMGL - calage carte DRASSM",
        "tech": true,
        "projet": "Etat des lieux de la pêche artisanale",
        "date_ep": "1899-12-30",
        "annee": 0.0,
        "nom": null,
        "type": null
      },
      "geometry": {
        "type": "MultiPoint",
        "coordinates": [
          [
            705567.3100215897,
            6175777.906330094
          ]
        ]
      }
    },
    {
      "type": "Feature",
      "properties": {
        "nom": "PV1",
        "source": "Calage carte Port-Vendres",
        "info": true,
        "etiquette": "Epaves Port-Vendres",
        "cara": true,
        "regl": false,
        "id": 45.0,
        "id_bdd": "45",
        "fid": 46.0,
        "num": "AAMP plan gestion PNMGL - calage carte",
        "tech": true,
        "projet": "Etat des lieux de la pêche artisanale",
        "date_ep": "1899-12-30",
        "annee": 0.0,
        "type": null
      },
      "geometry": {
        "type": "MultiPoint",
        "coordinates": [
          [
            709270.3026583784,
            6157795.63867453
          ]
        ]
      }
    },
    {
      "type": "Feature",
      "properties": {
        "nom": "PV2",
        "source": "Calage carte Port-Vendres",
        "info": true,
        "etiquette": "Epaves Port-Vendres",
        "cara": true,
        "regl": false,
        "id": 46.0,
        "id_bdd": "46",
        "fid": 47.0,
        "num": "AAMP plan gestion PNMGL - calage carte",
        "tech": true,
        "projet": "Etat des lieux de la pêche artisanale",
        "date_ep": "1899-12-30",
        "annee": 0.0,
        "type": null
      },
      "geometry": {
        "type": "MultiPoint",
        "coordinates": [
          [
            709421.3709382297,
            6157737.535489972
          ]
        ]
      }
    },
    {
      "type": "Feature",
      "properties": {
        "nom": "PV3",
        "source": "Calage carte Port-Vendres",
        "info": true,
        "etiquette": "Epaves Port-Vendres",
        "cara": true,
        "regl": false,
        "id": 47.0,
        "id_bdd": "47",
        "fid": 48.0,
        "num": "AAMP plan gestion PNMGL - calage carte",
        "tech": true,
        "projet": "Etat des lieux de la pêche artisanale",
        "date_ep": "1899-12-30",
        "annee": 0.0,
        "type": null
      },
      "geometry": {
        "type": "MultiPoint",
        "coordinates": [
          [
            709451.8751101228,
            6157743.345808428
          ]
        ]
      }
    },
    {
      "type": "Feature",
      "properties": {
        "nom": "PV4",
        "source": "Calage carte Port-Vendres",
        "info": true,
        "etiquette": "Epaves Port-Vendres",
        "cara": true,
        "regl": false,
        "id": 48.0,
        "id_bdd": "48",
        "fid": 49.0,
        "num": "AAMP plan gestion PNMGL - calage carte",
        "tech": true,
        "projet": "Etat des lieux de la pêche artisanale",
        "date_ep": "1899-12-30",
        "annee": 0.0,
        "type": null
      },
      "geometry": {
        "type": "MultiPoint",
        "coordinates": [
          [
            709454.7802693507,
            6157736.082910358
          ]
        ]
      }
    },
    {
      "type": "Feature",
      "properties": {
        "nom": "PV5",
        "source": "Calage carte Port-Vendres",
        "info": true,
        "etiquette": "Epaves Port-Vendres",
        "cara": true,
        "regl": false,
        "id": 49.0,
        "id_bdd": "49",
        "fid": 50.0,
        "num": "AAMP plan gestion PNMGL - calage carte",
        "tech": true,
        "projet": "Etat des lieux de la pêche artisanale",
        "date_ep": "1899-12-30",
        "annee": 0.0,
        "type": null
      },
      "geometry": {
        "type": "MultiPoint",
        "coordinates": [
          [
            709395.2245051786,
            6158032.409151605
          ]
        ]
      }
    },
    {
      "type": "Feature",
      "properties": {
        "nom": "PV6",
        "source": "Calage carte Port-Vendres",
        "info": true,
        "etiquette": "Epaves Port-Vendres",
        "cara": true,
        "regl": false,
        "id": 50.0,
        "id_bdd": "50",
        "fid": 51.0,
        "num": "AAMP plan gestion PNMGL - calage carte",
        "tech": true,
        "projet": "Etat des lieux de la pêche artisanale",
        "date_ep": "1899-12-30",
        "annee": 0.0,
        "type": null
      },
      "geometry": {
        "type": "MultiPoint",
        "coordinates": [
          [
            709427.1812566856,
            6157721.557114218
          ]
        ]
      }
    },
    {
      "type": "Feature",
      "properties": {
        "nom": "PV7",
        "source": "Calage carte Port-Vendres",
        "info": true,
        "etiquette": "Epaves Port-Vendres",
        "cara": true,
        "regl": false,
        "id": 51.0,
        "id_bdd": "51",
        "fid": 52.0,
        "num": "AAMP plan gestion PNMGL - calage carte",
        "tech": true,
        "projet": "Etat des lieux de la pêche artisanale",
        "date_ep": "1899-12-30",
        "annee": 0.0,
        "type": null
      },
      "geometry": {
        "type": "MultiPoint",
        "coordinates": [
          [
            709440.2544732112,
            6157725.914853061
          ]
        ]
      }
    },
    {
      "type": "Feature",
      "properties": {
        "nom": "PV8",
        "source": "Calage carte Port-Vendres",
        "info": true,
        "etiquette": "Epaves Port-Vendres",
        "cara": true,
        "regl": false,
        "id": 52.0,
        "id_bdd": "52",
        "fid": 53.0,
        "num": "AAMP plan gestion PNMGL - calage carte",
        "tech": true,
        "projet": "Etat des lieux de la pêche artisanale",
        "date_ep": "1899-12-30",
        "annee": 0.0,
        "type": null
      },
      "geometry": {
        "type": "MultiPoint",
        "coordinates": [
          [
            709329.8584225506,
            6157872.6253940705
          ]
        ]
      }
    },
    {
      "type": "Feature",
      "properties": {
        "nom": "PV9",
        "source": "Calage carte Port-Vendres",
        "info": true,
        "etiquette": "Epaves Port-Vendres",
        "cara": true,
        "regl": false,
        "id": 53.0,
        "id_bdd": "53",
        "fid": 54.0,
        "num": "AAMP plan gestion PNMGL - calage carte",
        "tech": true,
        "projet": "Etat des lieux de la pêche artisanale",
        "date_ep": "1899-12-30",
        "annee": 0.0,
        "type": null
      },
      "geometry": {
        "type": "MultiPoint",
        "coordinates": [
          [
            709376.3409701972,
            6157714.294216149
          ]
        ]
      }
    },
    {
      "type": "Feature",
      "properties": {
        "nom": "PV10",
        "source": "Calage carte Port-Vendres",
        "info": true,
        "etiquette": "Epaves Port-Vendres",
        "cara": true,
        "regl": false,
        "id": 54.0,
        "id_bdd": "54",
        "fid": 55.0,
        "num": "AAMP plan gestion PNMGL - calage carte",
        "tech": true,
        "projet": "Etat des lieux de la pêche artisanale",
        "date_ep": "1899-12-30",
        "annee": 0.0,
        "type": null
      },
      "geometry": {
        "type": "MultiPoint",
        "coordinates": [
          [
            709312.4274671831,
            6157632.949757768
          ]
        ]
      }
    },
    {
      "type": "Feature",
      "properties": {
        "nom": "?",
        "source": "Ajout selon dire expert",
        "info": true,
        "etiquette": "Epave archéologique",
        "cara": true,
        "regl": false,
        "id": 55.0,
        "id_bdd": "55",
        "fid": 56.0,
        "num": "AAMP plan gestion PNMGL - dire expert",
        "tech": true,
        "projet": "Etat des lieux de la pêche artisanale",
        "date_ep": "1899-12-30",
        "annee": 0.0,
        "type": null
      },
      "geometry": {
        "type": "MultiPoint",
        "coordinates": [
          [
            704703.545356916,
            6206678.499876133
          ]
        ]
      }
    },
    {
      "type": "Feature",
      "properties": {
        "nom": "Sor (Péniche)",
        "source": "Ajout selon dire expert",
        "info": true,
        "etiquette": "Epave archéologique",
        "cara": true,
        "regl": false,
        "id": 56.0,
        "id_bdd": "56",
        "fid": 57.0,
        "num": "AAMP plan gestion PNMGL - dire expert",
        "tech": true,
        "projet": "Etat des lieux de la pêche artisanale",
        "date_ep": "1899-12-30",
        "annee": 0.0,
        "type": "Péniche"
      },
      "geometry": {
        "type": "MultiPoint",
        "coordinates": [
          [
            705066.3640923641,
            6170918.344382635
          ]
        ]
      }
    }
  ]
}