{
  "type": "FeatureCollection",
  "name": "ges_med_pnmgl_Delimitation_Mas_Larrieu_et_PNR_2022_pol_4326",
  "crs": {
    "type": "name",
    "properties": {
      "name": "urn:ogc:def:crs:OGC:1.3:CRS84"
    }
  },
  "features": [
    {
      "type": "Feature",
      "properties": {
        "info": false,
        "cara": false,
        "regl": false,
        "id": 1,
        "tech": true,
        "projet": "Eutrophisation du Golfe du Lion"
      },
      "geometry": {
        "type": "MultiPolygon",
        "coordinates": [
          [
            [
              [
                3.043500269173769,
                42.59967997054501
              ],
              [
                3.043482899311526,
                42.59918131569354
              ],
              [
                3.043517639036009,
                42.59832464291405
              ],
              [
                3.043587118484974,
                42.59812006259771
              ],
              [
                3.043812926694111,
                42.595677833205194
              ],
              [
                3.044003995178765,
                42.59420733478968
              ],
              [
                3.04421243352566,
                42.59378535927216
              ],
              [
                3.044490351321521,
                42.5928902502313
              ],
              [
                3.044837748566346,
                42.59195676568028
              ],
              [
                3.044542460908246,
                42.59154756256525
              ],
              [
                3.04433402256135,
                42.59139411070449
              ],
              [
                3.044142954076695,
                42.59095932838063
              ],
              [
                3.044108214352212,
                42.59044781588134
              ],
              [
                3.043951885592041,
                42.589974663082145
              ],
              [
                3.044820378704106,
                42.58932247360665
              ],
              [
                3.044994077326519,
                42.58737865273197
              ],
              [
                3.044889858153072,
                42.58679037920357
              ],
              [
                3.044959337602037,
                42.5853068821763
              ],
              [
                3.045202515673415,
                42.58387450672095
              ],
              [
                3.04541095402031,
                42.582876940088134
              ],
              [
                3.045480433469276,
                42.5816747231935
              ],
              [
                3.045376214295828,
                42.58103523667706
              ],
              [
                3.045654132091688,
                42.579423701565716
              ],
              [
                3.045584652642723,
                42.578937674865095
              ],
              [
                3.045584652642723,
                42.57714701748939
              ],
              [
                3.045671501953929,
                42.57673771715499
              ],
              [
                3.045628077298325,
                42.57634120489418
              ],
              [
                3.045758351265135,
                42.57607259838182
              ],
              [
                3.045662817022808,
                42.5756760818919
              ],
              [
                3.04568018688505,
                42.57515165298454
              ],
              [
                3.045732296471773,
                42.57452489070066
              ],
              [
                3.04527199512238,
                42.57451209956805
              ],
              [
                3.04527199512238,
                42.57492141451017
              ],
              [
                3.044855118428589,
                42.57538189060889
              ],
              [
                3.044507721183763,
                42.57617492480867
              ],
              [
                3.043743447245146,
                42.5759958534515
              ],
              [
                3.043917145867559,
                42.578093514223205
              ],
              [
                3.041207447357919,
                42.58008878459588
              ],
              [
                3.040616872041715,
                42.579551602699375
              ],
              [
                3.038601968021725,
                42.58060038209945
              ],
              [
                3.038497748848278,
                42.5808561792771
              ],
              [
                3.037837694083109,
                42.58106081626365
              ],
              [
                3.037386077664835,
                42.5808561792771
              ],
              [
                3.03717763931794,
                42.581291032070695
              ],
              [
                3.03717763931794,
                42.581291032070695
              ],
              [
                3.03623966675691,
                42.58180261970971
              ],
              [
                3.03502377640002,
                42.5825188353522
              ],
              [
                3.034711118879677,
                42.582493256363776
              ],
              [
                3.034155283287955,
                42.58246767736487
              ],
              [
                3.03352996824727,
                42.58256999329755
              ],
              [
                3.032730954584171,
                42.58236536126429
              ],
              [
                3.030855009462112,
                42.585358037833885
              ],
              [
                3.031202406706938,
                42.585511504554795
              ],
              [
                3.03109818753349,
                42.58574170392779
              ],
              [
                3.030507612217286,
                42.58558823777357
              ],
              [
                3.030055995799013,
                42.586483451680586
              ],
              [
                3.03203616009452,
                42.5868671108482
              ],
              [
                3.033008872380031,
                42.58704615098501
              ],
              [
                3.033877365492096,
                42.58765999897876
              ],
              [
                3.033286790175892,
                42.58806922761637
              ],
              [
                3.034502680532782,
                42.58881094767442
              ],
              [
                3.034120543563474,
                42.58906671116526
              ],
              [
                3.034398461359334,
                42.58942477828937
              ],
              [
                3.035232214746916,
                42.58901555855105
              ],
              [
                3.035475392818294,
                42.58927132120233
              ],
              [
                3.034641639430712,
                42.5899618751188
              ],
              [
                3.03568383116519,
                42.591138356763636
              ],
              [
                3.036448105103806,
                42.59103605489346
              ],
              [
                3.037281858491388,
                42.59300533639961
              ],
              [
                3.03919254333793,
                42.593056485739524
              ],
              [
                3.039922077552064,
                42.59433520559454
              ],
              [
                3.042319118541362,
                42.59696928580334
              ],
              [
                3.042388597990326,
                42.59904066873188
              ],
              [
                3.043500269173769,
                42.59967997054501
              ]
            ]
          ]
        ]
      }
    },
    {
      "type": "Feature",
      "properties": {
        "info": false,
        "cara": false,
        "regl": false,
        "id": 2,
        "tech": true,
        "projet": "Eutrophisation du Golfe du Lion"
      },
      "geometry": {
        "type": "MultiPolygon",
        "coordinates": [
          [
            [
              [
                3.205500289367137,
                42.36397407525971
              ],
              [
                3.257470917193069,
                42.35514350485878
              ],
              [
                3.323615352607892,
                42.32638421314527
              ],
              [
                3.33195288648371,
                42.321041753560536
              ],
              [
                3.33167496868785,
                42.31508232114038
              ],
              [
                3.330563297504407,
                42.311794116838726
              ],
              [
                3.319168667874123,
                42.29637836919244
              ],
              [
                3.298324833184577,
                42.26985445391107
              ],
              [
                3.283595190003966,
                42.2507256349897
              ],
              [
                3.26719804004819,
                42.23488340441571
              ],
              [
                3.218562425772585,
                42.22912160707247
              ],
              [
                3.218840343568445,
                42.232002571491066
              ],
              [
                3.217172836793282,
                42.23261990390175
              ],
              [
                3.217172836793282,
                42.23406032271221
              ],
              [
                3.213837823242955,
                42.23447186490575
              ],
              [
                3.212448234263652,
                42.23447186490575
              ],
              [
                3.212170316467791,
                42.23570647538491
              ],
              [
                3.21161448087607,
                42.23694106171182
              ],
              [
                3.21161448087607,
                42.237969865201194
              ],
              [
                3.212448234263652,
                42.24064467577803
              ],
              [
                3.212726152059513,
                42.240850425741435
              ],
              [
                3.212726152059513,
                42.24146767160625
              ],
              [
                3.212170316467791,
                42.24167341888604
              ],
              [
                3.210502809692628,
                42.24208491143288
              ],
              [
                3.209391138509186,
                42.24249640129609
              ],
              [
                3.208557385121604,
                42.242702145221315
              ],
              [
                3.207445713938161,
                42.24393659468356
              ],
              [
                3.204666535979555,
                42.244142333912414
              ],
              [
                3.203554864796112,
                42.24537675519623
              ],
              [
                3.203276947000252,
                42.24661115232701
              ],
              [
                3.203276947000252,
                42.24743407032912
              ],
              [
                3.202999029204392,
                42.249079874129045
              ],
              [
                3.200775686837506,
                42.24969703948375
              ],
              [
                3.199386097858203,
                42.24949131836978
              ],
              [
                3.197162755491319,
                42.24928559658488
              ],
              [
                3.195773166512016,
                42.24949131836978
              ],
              [
                3.195217330920294,
                42.25134278424211
              ],
              [
                3.193827741940992,
                42.25154849931773
              ],
              [
                3.19299398855341,
                42.25175421372241
              ],
              [
                3.190492728390664,
                42.25257706463179
              ],
              [
                3.190770646186525,
                42.25381132086784
              ],
              [
                3.190214810594804,
                42.25504555295015
              ],
              [
                3.18854730381964,
                42.256485459851774
              ],
              [
                3.187435632636198,
                42.258336720417375
              ],
              [
                3.187713550432058,
                42.258953795195545
              ],
              [
                3.187991468227919,
                42.25936517502625
              ],
              [
                3.187157714840337,
                42.259776552173165
              ],
              [
                3.186879797044476,
                42.2603936128614
              ],
              [
                3.18854730381964,
                42.26121635105239
              ],
              [
                3.189103139411362,
                42.26059929841558
              ],
              [
                3.190492728390664,
                42.2599822397402
              ],
              [
                3.192716070757549,
                42.25874810427377
              ],
              [
                3.19299398855341,
                42.25936517502625
              ],
              [
                3.19327190634927,
                42.26121635105239
              ],
              [
                3.192716070757549,
                42.262039078508124
              ],
              [
                3.191326481778246,
                42.262656117054895
              ],
              [
                3.191326481778246,
                42.263273149563055
              ],
              [
                3.190492728390664,
                42.26450719646349
              ],
              [
                3.189658975003082,
                42.26450719646349
              ],
              [
                3.189936892798944,
                42.26553555042911
              ],
              [
                3.191326481778246,
                42.26697521780051
              ],
              [
                3.191326481778246,
                42.26779787010862
              ],
              [
                3.191326481778246,
                42.26862051168125
              ],
              [
                3.193827741940992,
                42.26697521780051
              ],
              [
                3.19744067328718,
                42.26615255475693
              ],
              [
                3.200219851245786,
                42.267592208038046
              ],
              [
                3.201609440225088,
                42.26862051168125
              ],
              [
                3.201887358020949,
                42.26862051168125
              ],
              [
                3.204944453775415,
                42.268209192236874
              ],
              [
                3.208279467325743,
                42.267592208038046
              ],
              [
                3.209946974100907,
                42.267592208038046
              ],
              [
                3.210224891896767,
                42.268826170396984
              ],
              [
                3.208835302917464,
                42.26923748581553
              ],
              [
                3.208557385121604,
                42.26923748581553
              ],
              [
                3.208001549529882,
                42.269443142518355
              ],
              [
                3.208001549529882,
                42.270265762619914
              ],
              [
                3.205778207162997,
                42.27006010860099
              ],
              [
                3.204666535979555,
                42.27006010860099
              ],
              [
                3.203832782591973,
                42.27170532196512
              ],
              [
                3.203832782591973,
                42.2721166185964
              ],
              [
                3.201053604633367,
                42.270882720650846
              ],
              [
                3.200775686837506,
                42.270882720650846
              ],
              [
                3.199664015654064,
                42.27108837198588
              ],
              [
                3.199108180062343,
                42.2721166185964
              ],
              [
                3.1979965088789,
                42.27314484843247
              ],
              [
                3.1979965088789,
                42.27314484843247
              ],
              [
                3.195495248716155,
                42.27335049238674
              ],
              [
                3.193549824145131,
                42.274995619865585
              ],
              [
                3.19299398855341,
                42.27561253159893
              ],
              [
                3.192160235165828,
                42.276435071182924
              ],
              [
                3.189658975003082,
                42.276640704401444
              ],
              [
                3.188825221615501,
                42.27766886042926
              ],
              [
                3.18854730381964,
                42.27808011814346
              ],
              [
                3.186879797044476,
                42.278491373173686
              ],
              [
                3.186879797044476,
                42.278491373173686
              ],
              [
                3.184378536881731,
                42.28034198759557
              ],
              [
                3.18382270129001,
                42.28178131679237
              ],
              [
                3.184378536881731,
                42.283426224185874
              ],
              [
                3.185768125861034,
                42.284043053386895
              ],
              [
                3.186601879248616,
                42.284043053386895
              ],
              [
                3.189381057207222,
                42.28486548292753
              ],
              [
                3.190770646186525,
                42.286099107108285
              ],
              [
                3.191326481778246,
                42.28671591014005
              ],
              [
                3.19299398855341,
                42.28692150980862
              ],
              [
                3.196884837695458,
                42.28692150980862
              ],
              [
                3.196884837695458,
                42.28692150980862
              ],
              [
                3.192716070757549,
                42.28712710880617
              ],
              [
                3.191048563982386,
                42.288977469588595
              ],
              [
                3.190770646186525,
                42.289594244437815
              ],
              [
                3.191048563982386,
                42.291855700549874
              ],
              [
                3.192160235165828,
                42.293705922431435
              ],
              [
                3.192160235165828,
                42.29535051847417
              ],
              [
                3.190492728390664,
                42.29617280039085
              ],
              [
                3.189658975003082,
                42.29617280039085
              ],
              [
                3.186601879248616,
                42.29411707546828
              ],
              [
                3.185768125861034,
                42.29391149928538
              ],
              [
                3.184378536881731,
                42.292061283443026
              ],
              [
                3.180765605535544,
                42.29329476671048
              ],
              [
                3.180209769943822,
                42.29555608995989
              ],
              [
                3.181599358923125,
                42.29617280039085
              ],
              [
                3.17937601655624,
                42.296789504782524
              ],
              [
                3.176596838597634,
                42.29658393732299
              ],
              [
                3.175763085210052,
                42.29596723091823
              ],
              [
                3.174373496230749,
                42.29432265098018
              ],
              [
                3.172150153863865,
                42.295761660774566
              ],
              [
                3.171594318272144,
                42.29637836919244
              ],
              [
                3.171038482680422,
                42.29863958172172
              ],
              [
                3.171316400476283,
                42.299050702549046
              ],
              [
                3.169370975905259,
                42.299050702549046
              ],
              [
                3.166313880150792,
                42.299050702549046
              ],
              [
                3.16548012676321,
                42.30131181911999
              ],
              [
                3.165758044559071,
                42.30336730917954
              ],
              [
                3.163812619988047,
                42.30501165291179
              ],
              [
                3.161589277621162,
                42.30706702218248
              ],
              [
                3.162423031008744,
                42.3109720389206
              ],
              [
                3.160199688641859,
                42.312821699137395
              ],
              [
                3.15630883949981,
                42.314260286170644
              ],
              [
                3.153529661541204,
                42.31364375289711
              ],
              [
                3.152695908153623,
                42.31364375289711
              ],
              [
                3.148805059011574,
                42.312821699137395
              ],
              [
                3.148805059011574,
                42.311588598365795
              ],
              [
                3.14185711411506,
                42.31487681340455
              ],
              [
                3.13741042938129,
                42.31631535346276
              ],
              [
                3.129072895505471,
                42.320219796435964
              ],
              [
                3.124626210771702,
                42.322069184866805
              ],
              [
                3.118234101466908,
                42.32330208028839
              ],
              [
                3.115177005712442,
                42.32432947468471
              ],
              [
                3.110452403182812,
                42.32432947468471
              ],
              [
                3.107395307428345,
                42.32515137812208
              ],
              [
                3.10934073199937,
                42.32884981071297
              ],
              [
                3.106839471836624,
                42.32926073424549
              ],
              [
                3.1048940472656,
                42.330082573257265
              ],
              [
                3.1048940472656,
                42.332342575173335
              ],
              [
                3.10044736253183,
                42.33336982192712
              ],
              [
                3.098779855756667,
                42.33336982192712
              ],
              [
                3.099891526940109,
                42.33645146152128
              ],
              [
                3.096556513389781,
                42.337889508322405
              ],
              [
                3.094055253227036,
                42.33706777131992
              ],
              [
                3.092387746451872,
                42.33706777131992
              ],
              [
                3.089052732901546,
                42.33871123458691
              ],
              [
                3.087941061718103,
                42.34097092644641
              ],
              [
                3.090720239676709,
                42.34117634895232
              ],
              [
                3.092109828656012,
                42.341998032264655
              ],
              [
                3.096278595593921,
                42.34487383929497
              ],
              [
                3.097390266777364,
                42.34754411375262
              ],
              [
                3.098501937960806,
                42.348571112188736
              ],
              [
                3.101559033715273,
                42.35021427478689
              ],
              [
                3.106005718449042,
                42.35185739443144
              ],
              [
                3.111008238774533,
                42.35267893814603
              ],
              [
                3.113509498937278,
                42.352473553224115
              ],
              [
                3.115177005712442,
                42.34898190686517
              ],
              [
                3.119345772650351,
                42.34713330968016
              ],
              [
                3.1232366217924,
                42.34672250292313
              ],
              [
                3.127683306526169,
                42.347338712051965
              ],
              [
                3.130462484484775,
                42.34754411375262
              ],
              [
                3.13296374464752,
                42.34877650986253
              ],
              [
                3.136020840401987,
                42.35206278136681
              ],
              [
                3.138522100564733,
                42.352268167631046
              ],
              [
                3.141301278523339,
                42.3528843223968
              ],
              [
                3.142412949706781,
                42.35534888105565
              ],
              [
                3.143246703094363,
                42.35637575197252
              ],
              [
                3.143246703094363,
                42.3565811241424
              ],
              [
                3.14658171664469,
                42.356786495641124
              ],
              [
                3.149638812399156,
                42.35596500561926
              ],
              [
                3.151862154766041,
                42.354938127990756
              ],
              [
                3.155475086112229,
                42.354938127990756
              ],
              [
                3.158254264070835,
                42.35575963143588
              ],
              [
                3.161589277621162,
                42.35863480892719
              ],
              [
                3.161589277621162,
                42.35945626404842
              ],
              [
                3.161867195417023,
                42.354527372241236
              ],
              [
                3.164368455579768,
                42.35370585268827
              ],
              [
                3.167425551334234,
                42.353500471122146
              ],
              [
                3.171038482680423,
                42.35370585268827
              ],
              [
                3.174651414026611,
                42.35329508888485
              ],
              [
                3.176874756393495,
                42.352268167631046
              ],
              [
                3.176596838597635,
                42.349598093846204
              ],
              [
                3.175763085210053,
                42.34754411375262
              ],
              [
                3.176318920801774,
                42.34549006654462
              ],
              [
                3.177708509781077,
                42.34816031482773
              ],
              [
                3.179931852147962,
                42.34980348816424
              ],
              [
                3.182711030106568,
                42.34877650986253
              ],
              [
                3.183266865698289,
                42.34713330968016
              ],
              [
                3.184378536881732,
                42.34343595222262
              ],
              [
                3.181043523331404,
                42.34117634895232
              ],
              [
                3.181043523331404,
                42.339327522238484
              ],
              [
                3.182711030106568,
                42.336862335391494
              ],
              [
                3.186323961452756,
                42.33357526926454
              ],
              [
                3.186601879248616,
                42.331315311641745
              ],
              [
                3.186601879248616,
                42.331109856922104
              ],
              [
                3.186323961452756,
                42.32864434794005
              ],
              [
                3.182988947902428,
                42.32720608973877
              ],
              [
                3.181043523331404,
                42.325767798653615
              ],
              [
                3.182433112310707,
                42.323713040060184
              ],
              [
                3.181321441127265,
                42.32124724116396
              ],
              [
                3.177708509781077,
                42.31857584997478
              ],
              [
                3.178542263168659,
                42.317959358978996
              ],
              [
                3.184100619085871,
                42.31960332154613
              ],
              [
                3.184934372473453,
                42.31960332154613
              ],
              [
                3.187435632636198,
                42.31652085650106
              ],
              [
                3.189936892798944,
                42.314260286170644
              ],
              [
                3.192438152961689,
                42.312205151771394
              ],
              [
                3.191604399574107,
                42.315698840321396
              ],
              [
                3.191048563982386,
                42.317753860638234
              ],
              [
                3.192438152961689,
                42.31960332154613
              ],
              [
                3.194105659736853,
                42.31919233493084
              ],
              [
                3.196884837695459,
                42.31960332154613
              ],
              [
                3.197996508878901,
                42.320425286723726
              ],
              [
                3.199941933449925,
                42.320425286723726
              ],
              [
                3.202721111408531,
                42.320219796435964
              ],
              [
                3.209113220713325,
                42.320836265286005
              ],
              [
                3.213004069855374,
                42.322891117832214
              ],
              [
                3.211892398671931,
                42.3255623258142
              ],
              [
                3.211058645284349,
                42.330698945469486
              ],
              [
                3.209391138509186,
                42.33501338183528
              ],
              [
                3.207723631734022,
                42.33994380384991
              ],
              [
                3.20688987834644,
                42.342203451414896
              ],
              [
                3.209669056305047,
                42.34466842886947
              ],
              [
                3.205500289367137,
                42.36397407525971
              ]
            ]
          ]
        ]
      }
    }
  ]
}