{
  "type": "FeatureCollection",
  "name": "us_med_pnmgl_omon_emr_afb_pol_4326",
  "crs": {
    "type": "name",
    "properties": {
      "name": "urn:ogc:def:crs:OGC:1.3:CRS84"
    }
  },
  "features": [
    {
      "type": "Feature",
      "properties": {
        "nom": "Méditerranée",
        "source": "Décision du 17 mars 2022 consécutive au débat public portant sur le projet d'éoliennes flottantes en Méditerranée et leur raccordement",
        "maj": "2023/03/08",
        "info": true,
        "cara": false,
        "regl": false,
        "id": 53,
        "fid": 34.0,
        "tech": true,
        "projet": "Images satellites et suivis environnementaux",
        "typ_emr1": "Eolien flottant",
        "typ_emr2": null,
        "typ_emr3": null,
        "phase": 1.0,
        "etat": "Zone propice",
        "exploitant": null,
        "surf_km2": 363.321,
        "remarques": "Zone 3 : Zone optionnelle retenue pour la procédure de mise en concurrence du deuxième parc (364 km²)",
        "facade": "Méditerranée",
        "agent": "lpelissier",
        "date_debut": "2022/03/25",
        "date_fin": null,
        "ao": "AO6",
        "nb_eolienn": null,
        "nb_mw_tota": null,
        "typ_emr4": null
      },
      "geometry": {
        "type": "MultiPolygon",
        "coordinates": [
          [
            [
              [
                3.362723033975942,
                42.80162797001157
              ],
              [
                3.340319052707931,
                42.879175398556676
              ],
              [
                3.58497553358044,
                42.80528393074129
              ],
              [
                3.529646954455191,
                42.633471765660495
              ],
              [
                3.440910993000045,
                42.633559722999934
              ],
              [
                3.431012180324046,
                42.6404610236903
              ],
              [
                3.412312695161784,
                42.644318884268095
              ],
              [
                3.392293033580909,
                42.64438539700785
              ],
              [
                3.370109176127078,
                42.668655179895794
              ],
              [
                3.364195151214705,
                42.685236300350596
              ],
              [
                3.364076986400059,
                42.71481883359112
              ],
              [
                3.372088105829806,
                42.747219126165426
              ],
              [
                3.362723033975942,
                42.80162797001157
              ]
            ]
          ]
        ]
      }
    },
    {
      "type": "Feature",
      "properties": {
        "nom": "Méditerranée",
        "source": "Décision du 17 mars 2022 consécutive au débat public portant sur le projet d'éoliennes flottantes en Méditerranée et leur raccordement",
        "maj": "2023/03/08",
        "info": true,
        "cara": false,
        "regl": false,
        "id": 51,
        "fid": 38.0,
        "tech": true,
        "projet": "Images satellites et suivis environnementaux",
        "typ_emr1": "Eolien flottant",
        "typ_emr2": null,
        "typ_emr3": null,
        "phase": 1.0,
        "etat": "Zone propice",
        "exploitant": null,
        "surf_km2": 295.894356601,
        "remarques": "Zone 1 : Zone retenue pour la procédure de mise en concurrence du premier parc (296 km²)",
        "facade": "Méditerranée",
        "agent": "lpelissier",
        "date_debut": "2022/03/25",
        "date_fin": null,
        "ao": "AO6",
        "nb_eolienn": null,
        "nb_mw_tota": null,
        "typ_emr4": null
      },
      "geometry": {
        "type": "MultiPolygon",
        "coordinates": [
          [
            [
              [
                3.619792,
                43.082138900941096
              ],
              [
                3.639935,
                43.0898806009411
              ],
              [
                3.6591341,
                43.09882130094115
              ],
              [
                3.6772567,
                43.10889940094117
              ],
              [
                3.684140231101945,
                43.113342058891845
              ],
              [
                3.66681895142876,
                43.060284921332226
              ],
              [
                3.616116020123039,
                42.90393395307834
              ],
              [
                3.385346245800078,
                42.97374308323741
              ],
              [
                3.415842364876265,
                43.000431341731
              ],
              [
                3.425761173258304,
                43.02572312884898
              ],
              [
                3.418737934541273,
                43.057715328533675
              ],
              [
                3.4332624,
                43.06729110094105
              ],
              [
                3.4349567,
                43.06855850094107
              ],
              [
                3.4386614,
                43.06782170094108
              ],
              [
                3.4610236,
                43.06480760094106
              ],
              [
                3.47307850000001,
                43.06393220094107
              ],
              [
                3.4778507,
                43.06353290094106
              ],
              [
                3.483649,
                43.063164600941064
              ],
              [
                3.4910296,
                43.06292800094104
              ],
              [
                3.5032052,
                43.06290180094106
              ],
              [
                3.5087782,
                43.062837900941055
              ],
              [
                3.5314624,
                43.06396160094103
              ],
              [
                3.5473792,
                43.065586700941076
              ],
              [
                3.5539829,
                43.06646690094105
              ],
              [
                3.554062100000011,
                43.06648070094107
              ],
              [
                3.555115699999989,
                43.06659790094107
              ],
              [
                3.5772358,
                43.07045740094109
              ],
              [
                3.598844100000012,
                43.07564960094108
              ],
              [
                3.619792,
                43.082138900941096
              ]
            ]
          ]
        ]
      }
    },
    {
      "type": "Feature",
      "properties": {
        "nom": "Leucate",
        "source": "Géolittoral, 092015",
        "maj": "2015/09/17 00:00:00.000",
        "info": true,
        "cara": false,
        "regl": false,
        "id": 18,
        "fid": 61.0,
        "tech": true,
        "projet": "Images satellites et suivis environnementaux",
        "typ_emr1": "Eolien flottant",
        "typ_emr2": null,
        "typ_emr3": null,
        "phase": 1.0,
        "etat": "Zone propice",
        "exploitant": null,
        "surf_km2": 156.952411939934,
        "remarques": "Résultat de l'exercice de planification du développement de l'énergie éolienne en mer réalisé en 2014 - 2015",
        "facade": "Méditerranée",
        "agent": "modion",
        "date_debut": null,
        "date_fin": null,
        "ao": "Ferme pilote éoliennes flottantes (2015)",
        "nb_eolienn": null,
        "nb_mw_tota": null,
        "typ_emr4": null
      },
      "geometry": {
        "type": "MultiPolygon",
        "coordinates": [
          [
            [
              [
                3.233333188176914,
                42.90833339756915
              ],
              [
                3.325000649061508,
                42.88333290479062
              ],
              [
                3.325000464700508,
                42.73333360296431
              ],
              [
                3.216666173206136,
                42.73333310024327
              ],
              [
                3.21666668402105,
                42.84166715521593
              ],
              [
                3.233333188176914,
                42.90833339756915
              ]
            ]
          ]
        ]
      }
    }
  ]
}