{
  "type": "FeatureCollection",
  "name": "us_med_pnmgl_omon_emr_raccordt_afb_pol_4326",
  "crs": {
    "type": "name",
    "properties": {
      "name": "urn:ogc:def:crs:OGC:1.3:CRS84"
    }
  },
  "features": [
    {
      "type": "Feature",
      "properties": {
        "nom": "Leucate",
        "source": "LEFGL, RTE - numérisation AFB ant. Med - PNMGL",
        "maj": "2018-09-04",
        "info": true,
        "cara": false,
        "regl": false,
        "id": 1.0,
        "fid": 1,
        "num": "PNMGL en WGS84 UTM31N, conv. par AFB ant. Med",
        "tech": true,
        "projet": "Images satellites et suivis environnementaux",
        "typ_emr1": "Eolien flottant",
        "typ_emr2": "raccordement",
        "typ_emr3": null,
        "etat": "projet éoliennes flottantes au sein du PNMGL",
        "exploitant": null,
        "remarques": "Projet LEFGL: Les Eoliennes Flottantes du Golfe du Lion",
        "facade": "Méditerranée",
        "agent": "edamier",
        "date_maj": "2018-09-04"
      },
      "geometry": {
        "type": "MultiPolygon",
        "coordinates": [
          [
            [
              [
                3.037120696887284,
                42.80097659899111
              ],
              [
                3.04974631450219,
                42.801018330835454
              ],
              [
                3.049518194805307,
                42.7970573516607
              ],
              [
                3.148233638443841,
                42.82275128107639
              ],
              [
                3.267181244937209,
                42.85472749389017
              ],
              [
                3.272468730678092,
                42.84931870380352
              ],
              [
                3.19881464574128,
                42.830117880768626
              ],
              [
                3.049530793165795,
                42.791607628432246
              ],
              [
                3.048771817970859,
                42.77659655370031
              ],
              [
                3.036285403408701,
                42.776972218034764
              ],
              [
                3.037120696887284,
                42.80097659899111
              ]
            ]
          ]
        ]
      }
    }
  ]
}