{
  "type": "FeatureCollection",
  "name": "ges_med_pnmgl_Decret_delimitation_ZEE_pol_3857",
  "crs": {
    "type": "name",
    "properties": {
      "name": "urn:ogc:def:crs:ESRI::54004"
    }
  },
  "features": [
    {
      "type": "Feature",
      "properties": {
        "info": false,
        "cara": false,
        "regl": false,
        "id": 0,
        "tech": true,
        "projet": "Eutrophisation du Golfe du Lion",
        "Id": 0
      },
      "geometry": {
        "type": "MultiPolygon",
        "coordinates": [
          [
            [
              [
                844173.6903761551,
                5368325.497296659
              ],
              [
                872007.837931348,
                5282833.266414322
              ],
              [
                890554.1539158971,
                5282851.842791973
              ],
              [
                1001879.163502544,
                5358978.20351204
              ],
              [
                1047009.7977066735,
                5317341.0700497
              ],
              [
                981037.1105347113,
                5022284.999912026
              ],
              [
                964765.9430960383,
                5028503.925286703
              ],
              [
                927657.9342730442,
                5070429.684006223
              ],
              [
                779237.2856862628,
                5107592.11418528
              ],
              [
                760663.0078855868,
                5107534.378177053
              ],
              [
                654933.2167645975,
                5022354.870572727
              ],
              [
                698914.1935181088,
                4850561.225039942
              ],
              [
                596486.093021913,
                4850561.225039942
              ],
              [
                395818.0961307449,
                5197548.347389466
              ],
              [
                383783.68827180483,
                5197548.347389466
              ],
              [
                383770.12590959005,
                5197569.573800523
              ],
              [
                859699.3364201506,
                5274548.226395919
              ],
              [
                863373.3464102519,
                5277569.886849197
              ],
              [
                834928.4489540202,
                5361477.585801493
              ],
              [
                838581.2869105142,
                5364581.60429715
              ],
              [
                838581.282621418,
                5364581.619421182
              ],
              [
                838583.7021488693,
                5364583.698050848
              ],
              [
                838583.3650254129,
                5364583.362417742
              ],
              [
                844173.6903761551,
                5368325.497296659
              ]
            ],
            [
              [
                863374.169570809,
                5277570.974792465
              ],
              [
                863373.4096321504,
                5277569.938854035
              ],
              [
                863374.2647679818,
                5277570.642268538
              ],
              [
                863374.169570809,
                5277570.974792465
              ]
            ]
          ]
        ]
      }
    },
    {
      "type": "Feature",
      "properties": {
        "info": false,
        "cara": false,
        "regl": false,
        "id": 0,
        "tech": true,
        "projet": "Eutrophisation du Golfe du Lion",
        "Id": 0
      },
      "geometry": {
        "type": "MultiPolygon",
        "coordinates": [
          [
            [
              [
                1093550.1402872687,
                5157537.123346295
              ],
              [
                1141475.7190059868,
                5070824.041010096
              ],
              [
                1071847.9914334908,
                5048367.967476112
              ],
              [
                1093550.1402872687,
                5157537.123346295
              ]
            ]
          ]
        ]
      }
    }
  ]
}