{
  "type": "FeatureCollection",
  "name": "us_med_omon_emr_raccordt_afb_pol_4326",
  "crs": {
    "type": "name",
    "properties": {
      "name": "urn:ogc:def:crs:OGC:1.3:CRS84"
    }
  },
  "features": [
    {
      "type": "Feature",
      "properties": {
        "nom": "Leucate",
        "source": "LEFGL, RTE - numérisation AFB ant. Med - PNMGL",
        "maj": "2018-09-04",
        "info": true,
        "cara": false,
        "regl": false,
        "id": 1.0,
        "fid": 1,
        "num": "PNMGL en WGS84 UTM31N, conv. par AFB ant. Med",
        "tech": true,
        "projet": "Images satellites et suivis environnementaux",
        "typ_emr1": "Eolien flottant",
        "typ_emr2": "raccordement",
        "typ_emr3": null,
        "etat": "projet éoliennes flottantes au sein du PNMGL",
        "exploitant": null,
        "remarques": "Projet LEFGL: Les Eoliennes Flottantes du Golfe du Lion",
        "facade": "Méditerranée",
        "agent": "edamier",
        "date_maj": "2018-09-04"
      },
      "geometry": {
        "type": "MultiPolygon",
        "coordinates": [
          [
            [
              [
                3.037120696887284,
                42.80097659899111
              ],
              [
                3.04974631450219,
                42.801018330835454
              ],
              [
                3.049518194805307,
                42.7970573516607
              ],
              [
                3.148233638443841,
                42.82275128107639
              ],
              [
                3.267181244937209,
                42.85472749389017
              ],
              [
                3.272468730678092,
                42.84931870380352
              ],
              [
                3.19881464574128,
                42.830117880768626
              ],
              [
                3.049530793165795,
                42.791607628432246
              ],
              [
                3.048771817970859,
                42.77659655370031
              ],
              [
                3.036285403408701,
                42.776972218034764
              ],
              [
                3.037120696887284,
                42.80097659899111
              ]
            ]
          ]
        ]
      }
    },
    {
      "type": "Feature",
      "properties": {
        "nom": "Gruissan",
        "source": "EOLMED, RTE - num AFB",
        "maj": "2018-12-05",
        "info": true,
        "cara": false,
        "regl": false,
        "id": 2.0,
        "fid": 2,
        "num": "AFB - Ant Med selon étude impact 2018",
        "tech": true,
        "projet": "Images satellites et suivis environnementaux",
        "typ_emr1": "Eolien flottant",
        "typ_emr2": "raccordement",
        "typ_emr3": null,
        "etat": "projet éolien flottant",
        "exploitant": null,
        "remarques": "Projet EOLMED",
        "facade": "Méditerranée",
        "agent": "edamier",
        "date_maj": "2018-12-05"
      },
      "geometry": {
        "type": "MultiPolygon",
        "coordinates": [
          [
            [
              [
                3.059722222,
                43.005
              ],
              [
                3.060833333,
                43.00805556
              ],
              [
                3.091111111,
                42.98527778
              ],
              [
                3.099444444,
                42.98277778
              ],
              [
                3.113888889,
                42.98027778
              ],
              [
                3.130277778,
                42.97555556
              ],
              [
                3.273888889,
                43.0225
              ],
              [
                3.278333333,
                43.02472222
              ],
              [
                3.305277778,
                43.0275
              ],
              [
                3.324444444,
                43.02472222
              ],
              [
                3.323333333,
                43.02138889
              ],
              [
                3.304722222,
                43.02388889
              ],
              [
                3.278888889,
                43.02138889
              ],
              [
                3.130277778,
                42.9725
              ],
              [
                3.113055556,
                42.97777778
              ],
              [
                3.098333333,
                42.98027778
              ],
              [
                3.089166667,
                42.98305556
              ],
              [
                3.059722222,
                43.005
              ]
            ]
          ]
        ]
      }
    },
    {
      "type": "Feature",
      "properties": {
        "nom": "Faraman",
        "source": "Arrêté préfectoral approuvant la concession d'utilisation du DPM RTE",
        "maj": "2023-04-17",
        "info": true,
        "cara": false,
        "regl": false,
        "id": 9.0,
        "fid": 5,
        "num": "coordonnées géographiques",
        "tech": true,
        "projet": "Images satellites et suivis environnementaux",
        "typ_emr1": "Eolien flottant",
        "typ_emr2": "raccordement",
        "typ_emr3": null,
        "etat": "Ferme pré-commerciale, en construction",
        "exploitant": "Provence Grand Large",
        "remarques": null,
        "facade": "Méditerranée",
        "agent": "lpelissier",
        "date_maj": "2023-04-17"
      },
      "geometry": {
        "type": "MultiPolygon",
        "coordinates": [
          [
            [
              [
                4.877446111111111,
                43.3529725
              ],
              [
                4.880953888888889,
                43.3538275
              ],
              [
                4.892011388888888,
                43.32965638888889
              ],
              [
                4.892342777777777,
                43.328605833333334
              ],
              [
                4.891813888888889,
                43.32759916666667
              ],
              [
                4.804099166666666,
                43.198680555555555
              ],
              [
                4.800795277777778,
                43.19988055555555
              ],
              [
                4.888504722222222,
                43.32880194444445
              ],
              [
                4.877446111111111,
                43.3529725
              ]
            ]
          ]
        ]
      }
    }
  ]
}