{
  "type": "FeatureCollection",
  "name": "us_med_omon_emr_afb_pol_4326",
  "crs": {
    "type": "name",
    "properties": {
      "name": "urn:ogc:def:crs:OGC:1.3:CRS84"
    }
  },
  "features": [
    {
      "type": "Feature",
      "properties": {
        "nom": "Méditerranée",
        "source": "Décision MTE (2023): https://www.ecologie.gouv.fr/eolien-en-mer-gouvernement-precise-localisation-des-futurs-parcs-eoliens-flottants-en-mediterranee",
        "maj": "2023/12/07",
        "info": true,
        "cara": false,
        "regl": false,
        "id": 78,
        "fid": 3.0,
        "tech": true,
        "projet": "Images satellites et suivis environnementaux",
        "typ_emr1": "Eolien flottant",
        "typ_emr2": null,
        "typ_emr3": null,
        "phase": 2.0,
        "etat": "Zone d'appel d'offre",
        "exploitant": null,
        "surf_km2": 48.0,
        "remarques": "Zone 1: Zone retenue pour l'appel d'offre",
        "facade": "Méditerranée",
        "agent": "lpelissier",
        "date_debut": null,
        "date_fin": null,
        "ao": "AO6",
        "nb_eolienn": null,
        "nb_mw_tota": 250.0,
        "typ_emr4": null
      },
      "geometry": {
        "type": "MultiPolygon",
        "coordinates": [
          [
            [
              [
                3.550624589310288,
                43.051600745894426
              ],
              [
                3.566204873401666,
                43.05318936820721
              ],
              [
                3.584440855307575,
                43.05574901575523
              ],
              [
                3.601006948691449,
                43.05907684738243
              ],
              [
                3.633274041746287,
                43.022383285639116
              ],
              [
                3.623282236502787,
                42.99158555644112
              ],
              [
                3.522286624457853,
                43.00714365724505
              ],
              [
                3.506055167935501,
                43.013160301346794
              ],
              [
                3.550624589310288,
                43.051600745894426
              ]
            ]
          ]
        ]
      }
    },
    {
      "type": "Feature",
      "properties": {
        "nom": "Méditerranée",
        "source": "Décision MTE (2023): https://www.ecologie.gouv.fr/eolien-en-mer-gouvernement-precise-localisation-des-futurs-parcs-eoliens-flottants-en-mediterranee",
        "maj": "2023/12/07",
        "info": true,
        "cara": false,
        "regl": false,
        "id": 79,
        "fid": 4.0,
        "tech": true,
        "projet": "Images satellites et suivis environnementaux",
        "typ_emr1": "Eolien flottant",
        "typ_emr2": null,
        "typ_emr3": null,
        "phase": 2.0,
        "etat": "Zone d'appel d'offre",
        "exploitant": null,
        "surf_km2": 52.0,
        "remarques": "Zone 2: Zone retenue pour l'appel d'offre",
        "facade": "Méditerranée",
        "agent": "lpelissier",
        "date_debut": null,
        "date_fin": null,
        "ao": "AO6",
        "nb_eolienn": null,
        "nb_mw_tota": 250.0,
        "typ_emr4": null
      },
      "geometry": {
        "type": "MultiPolygon",
        "coordinates": [
          [
            [
              [
                4.673482229899744,
                43.11423539958266
              ],
              [
                4.673415079291052,
                43.07350089261273
              ],
              [
                4.53875698034256,
                43.04480840242801
              ],
              [
                4.538785191706705,
                43.08760095339542
              ],
              [
                4.663942498350406,
                43.11423529752643
              ],
              [
                4.673482229899744,
                43.11423539958266
              ]
            ]
          ]
        ]
      }
    },
    {
      "type": "Feature",
      "properties": {
        "nom": "Méditerranée",
        "source": "Décision MTE (2023): https://www.ecologie.gouv.fr/eolien-en-mer-gouvernement-precise-localisation-des-futurs-parcs-eoliens-flottants-en-mediterranee",
        "maj": "2023/12/07",
        "info": true,
        "cara": false,
        "regl": false,
        "id": 80,
        "fid": 5.0,
        "tech": true,
        "projet": "Images satellites et suivis environnementaux",
        "typ_emr1": "Eolien flottant",
        "typ_emr2": null,
        "typ_emr3": null,
        "phase": 2.0,
        "etat": "Zone d'appel d'offre",
        "exploitant": null,
        "surf_km2": 96.0,
        "remarques": "Zone 1 - extension: Zone retenue pour un futur appel d'offre",
        "facade": "Méditerranée",
        "agent": "lpelissier",
        "date_debut": null,
        "date_fin": null,
        "ao": null,
        "nb_eolienn": null,
        "nb_mw_tota": 500.0,
        "typ_emr4": null
      },
      "geometry": {
        "type": "MultiPolygon",
        "coordinates": [
          [
            [
              [
                3.623282236502787,
                42.99158555644112
              ],
              [
                3.604230147691315,
                42.93277015623804
              ],
              [
                3.58260135041394,
                42.91411354904888
              ],
              [
                3.441033708960131,
                42.956957747158526
              ],
              [
                3.506055175021351,
                43.01316030746012
              ],
              [
                3.522286624457853,
                43.00714365724505
              ],
              [
                3.623282236502787,
                42.99158555644112
              ]
            ]
          ]
        ]
      }
    },
    {
      "type": "Feature",
      "properties": {
        "nom": "Méditerranée",
        "source": "Décision MTE (2023): https://www.ecologie.gouv.fr/eolien-en-mer-gouvernement-precise-localisation-des-futurs-parcs-eoliens-flottants-en-mediterranee",
        "maj": "2023/12/07",
        "info": true,
        "cara": false,
        "regl": false,
        "id": 81,
        "fid": 14.0,
        "tech": true,
        "projet": "Images satellites et suivis environnementaux",
        "typ_emr1": "Eolien flottant",
        "typ_emr2": null,
        "typ_emr3": null,
        "phase": 2.0,
        "etat": "Zone d'appel d'offre",
        "exploitant": null,
        "surf_km2": 103.0,
        "remarques": "Zone 2 - extension: Zone retenue pour un futur appel d'offre",
        "facade": "Méditerranée",
        "agent": "lpelissier",
        "date_debut": null,
        "date_fin": null,
        "ao": null,
        "nb_eolienn": null,
        "nb_mw_tota": 500.0,
        "typ_emr4": null
      },
      "geometry": {
        "type": "MultiPolygon",
        "coordinates": [
          [
            [
              [
                4.542504273548542,
                43.00891556384696
              ],
              [
                4.538736943472236,
                43.01446292227619
              ],
              [
                4.53875698034256,
                43.04480840242801
              ],
              [
                4.673415079291052,
                43.07350089261273
              ],
              [
                4.673482229899744,
                43.11423539958266
              ],
              [
                4.682003292551983,
                43.11423478164704
              ],
              [
                4.681997607277425,
                43.11404542892616
              ],
              [
                4.678363470071092,
                42.992759469150876
              ],
              [
                4.678363470068261,
                42.992759469148574
              ],
              [
                4.67836347006676,
                42.992759469147366
              ],
              [
                4.654860631841003,
                42.973756849749876
              ],
              [
                4.575255978587104,
                42.97437398988188
              ],
              [
                4.568739012241616,
                42.98627134534558
              ],
              [
                4.54949959516551,
                42.998611921228715
              ],
              [
                4.542504273548542,
                43.00891556384696
              ]
            ]
          ]
        ]
      }
    },
    {
      "type": "Feature",
      "properties": {
        "nom": "Faraman",
        "source": "Géolittoral, 092015",
        "maj": "2015/09/17 00:00:00.000",
        "info": true,
        "cara": false,
        "regl": false,
        "id": 32,
        "fid": 21.0,
        "tech": true,
        "projet": "Images satellites et suivis environnementaux",
        "typ_emr1": "Eolien flottant",
        "typ_emr2": null,
        "typ_emr3": null,
        "phase": 1.0,
        "etat": "Zone propice",
        "exploitant": null,
        "surf_km2": 54.3041481136292,
        "remarques": "Résultat de l'exercice de planification du développement de l'énergie éolienne en mer réalisé en 2014 - 2015",
        "facade": "Méditerranée",
        "agent": "modion",
        "date_debut": null,
        "date_fin": null,
        "ao": "Ferme pilote éoliennes flottantes (2015)",
        "nb_eolienn": null,
        "nb_mw_tota": null,
        "typ_emr4": null
      },
      "geometry": {
        "type": "MultiPolygon",
        "coordinates": [
          [
            [
              [
                4.808333814554715,
                43.13333336114658
              ],
              [
                4.760554909881989,
                43.133333170490346
              ],
              [
                4.790277478323787,
                43.21666629381531
              ],
              [
                4.886666995086557,
                43.21666617960142
              ],
              [
                4.808333814554715,
                43.13333336114658
              ]
            ]
          ]
        ]
      }
    },
    {
      "type": "Feature",
      "properties": {
        "nom": "Gruissan",
        "source": "Géolittoral, 092015",
        "maj": "2015/09/17 00:00:00.000",
        "info": true,
        "cara": false,
        "regl": false,
        "id": 33,
        "fid": 24.0,
        "tech": true,
        "projet": "Images satellites et suivis environnementaux",
        "typ_emr1": "Eolien flottant",
        "typ_emr2": null,
        "typ_emr3": null,
        "phase": 1.0,
        "etat": "Zone propice",
        "exploitant": null,
        "surf_km2": 67.3608772720077,
        "remarques": "Résultat de l'exercice de planification du développement de l'énergie éolienne en mer réalisé en 2014 - 2015",
        "facade": "Méditerranée",
        "agent": "modion",
        "date_debut": "2014",
        "date_fin": "2016",
        "ao": "Ferme pilote éoliennes flottantes (2015)",
        "nb_eolienn": null,
        "nb_mw_tota": null,
        "typ_emr4": null
      },
      "geometry": {
        "type": "MultiPolygon",
        "coordinates": [
          [
            [
              [
                3.352777715020352,
                42.99166704969548
              ],
              [
                3.275000183312613,
                43.02222196767059
              ],
              [
                3.341666570456709,
                43.07222228593065
              ],
              [
                3.433332987228425,
                43.091666635807485
              ],
              [
                3.433333505237897,
                43.07499987804283
              ],
              [
                3.352777715020352,
                42.99166704969548
              ]
            ]
          ]
        ]
      }
    },
    {
      "type": "Feature",
      "properties": {
        "nom": "Méditerranée",
        "source": "Décision du 17 mars 2022 consécutive au débat public portant sur le projet d'éoliennes flottantes en Méditerranée et leur raccordement",
        "maj": "2023/03/08",
        "info": true,
        "cara": false,
        "regl": false,
        "id": 53,
        "fid": 34.0,
        "tech": true,
        "projet": "Images satellites et suivis environnementaux",
        "typ_emr1": "Eolien flottant",
        "typ_emr2": null,
        "typ_emr3": null,
        "phase": 1.0,
        "etat": "Zone propice",
        "exploitant": null,
        "surf_km2": 363.321,
        "remarques": "Zone 3 : Zone optionnelle retenue pour la procédure de mise en concurrence du deuxième parc (364 km²)",
        "facade": "Méditerranée",
        "agent": "lpelissier",
        "date_debut": "2022/03/25",
        "date_fin": null,
        "ao": "AO6",
        "nb_eolienn": null,
        "nb_mw_tota": null,
        "typ_emr4": null
      },
      "geometry": {
        "type": "MultiPolygon",
        "coordinates": [
          [
            [
              [
                3.362723033975942,
                42.80162797001157
              ],
              [
                3.340319052707931,
                42.879175398556676
              ],
              [
                3.58497553358044,
                42.80528393074129
              ],
              [
                3.529646954455191,
                42.633471765660495
              ],
              [
                3.440910993000045,
                42.633559722999934
              ],
              [
                3.431012180324046,
                42.6404610236903
              ],
              [
                3.412312695161784,
                42.644318884268095
              ],
              [
                3.392293033580909,
                42.64438539700785
              ],
              [
                3.370109176127078,
                42.668655179895794
              ],
              [
                3.364195151214705,
                42.685236300350596
              ],
              [
                3.364076986400059,
                42.71481883359112
              ],
              [
                3.372088105829806,
                42.747219126165426
              ],
              [
                3.362723033975942,
                42.80162797001157
              ]
            ]
          ]
        ]
      }
    },
    {
      "type": "Feature",
      "properties": {
        "nom": "Méditerranée",
        "source": "Décision du 17 mars 2022 consécutive au débat public portant sur le projet d'éoliennes flottantes en Méditerranée et leur raccordement",
        "maj": "2023/03/08",
        "info": true,
        "cara": false,
        "regl": false,
        "id": 54,
        "fid": 35.0,
        "tech": true,
        "projet": "Images satellites et suivis environnementaux",
        "typ_emr1": "Eolien flottant",
        "typ_emr2": null,
        "typ_emr3": null,
        "phase": 0.0,
        "etat": "Zone d'étude",
        "exploitant": null,
        "surf_km2": 268.0,
        "remarques": "Zone 4: Zone retenue pour la poursuite des études environnementales et techniques",
        "facade": "Méditerranée",
        "agent": "lpelissier",
        "date_debut": "2022/03/25",
        "date_fin": null,
        "ao": "AO6",
        "nb_eolienn": null,
        "nb_mw_tota": null,
        "typ_emr4": null
      },
      "geometry": {
        "type": "MultiPolygon",
        "coordinates": [
          [
            [
              [
                4.28243147400002,
                42.910456580999934
              ],
              [
                4.109788846383232,
                43.1000595327739
              ],
              [
                4.200278975122557,
                43.100059532773905
              ],
              [
                4.360319188895266,
                43.10611405835162
              ],
              [
                4.361212226000021,
                42.94632971799996
              ],
              [
                4.353942089191844,
                42.948022655204085
              ],
              [
                4.336237257495687,
                42.94799618034096
              ],
              [
                4.319038794836807,
                42.941986091739274
              ],
              [
                4.285473761508855,
                42.916297604860084
              ],
              [
                4.28243147400002,
                42.910456580999934
              ]
            ]
          ]
        ]
      }
    },
    {
      "type": "Feature",
      "properties": {
        "nom": "Méditerranée",
        "source": "Décision du 17 mars 2022 consécutive au débat public portant sur le projet d'éoliennes flottantes en Méditerranée et leur raccordement",
        "maj": "2023/03/08",
        "info": true,
        "cara": false,
        "regl": false,
        "id": 51,
        "fid": 38.0,
        "tech": true,
        "projet": "Images satellites et suivis environnementaux",
        "typ_emr1": "Eolien flottant",
        "typ_emr2": null,
        "typ_emr3": null,
        "phase": 1.0,
        "etat": "Zone propice",
        "exploitant": null,
        "surf_km2": 295.894356601,
        "remarques": "Zone 1 : Zone retenue pour la procédure de mise en concurrence du premier parc (296 km²)",
        "facade": "Méditerranée",
        "agent": "lpelissier",
        "date_debut": "2022/03/25",
        "date_fin": null,
        "ao": "AO6",
        "nb_eolienn": null,
        "nb_mw_tota": null,
        "typ_emr4": null
      },
      "geometry": {
        "type": "MultiPolygon",
        "coordinates": [
          [
            [
              [
                3.619792,
                43.082138900941096
              ],
              [
                3.639935,
                43.0898806009411
              ],
              [
                3.6591341,
                43.09882130094115
              ],
              [
                3.6772567,
                43.10889940094117
              ],
              [
                3.684140231101945,
                43.113342058891845
              ],
              [
                3.66681895142876,
                43.060284921332226
              ],
              [
                3.616116020123039,
                42.90393395307834
              ],
              [
                3.385346245800078,
                42.97374308323741
              ],
              [
                3.415842364876265,
                43.000431341731
              ],
              [
                3.425761173258304,
                43.02572312884898
              ],
              [
                3.418737934541273,
                43.057715328533675
              ],
              [
                3.4332624,
                43.06729110094105
              ],
              [
                3.4349567,
                43.06855850094107
              ],
              [
                3.4386614,
                43.06782170094108
              ],
              [
                3.4610236,
                43.06480760094106
              ],
              [
                3.47307850000001,
                43.06393220094107
              ],
              [
                3.4778507,
                43.06353290094106
              ],
              [
                3.483649,
                43.063164600941064
              ],
              [
                3.4910296,
                43.06292800094104
              ],
              [
                3.5032052,
                43.06290180094106
              ],
              [
                3.5087782,
                43.062837900941055
              ],
              [
                3.5314624,
                43.06396160094103
              ],
              [
                3.5473792,
                43.065586700941076
              ],
              [
                3.5539829,
                43.06646690094105
              ],
              [
                3.554062100000011,
                43.06648070094107
              ],
              [
                3.555115699999989,
                43.06659790094107
              ],
              [
                3.5772358,
                43.07045740094109
              ],
              [
                3.598844100000012,
                43.07564960094108
              ],
              [
                3.619792,
                43.082138900941096
              ]
            ]
          ]
        ]
      }
    },
    {
      "type": "Feature",
      "properties": {
        "nom": "Méditerranée",
        "source": "Décision du 17 mars 2022 consécutive au débat public portant sur le projet d'éoliennes flottantes en Méditerranée et leur raccordement",
        "maj": "2023/03/08",
        "info": true,
        "cara": false,
        "regl": false,
        "id": 52,
        "fid": 40.0,
        "tech": true,
        "projet": "Images satellites et suivis environnementaux",
        "typ_emr1": "Eolien flottant",
        "typ_emr2": null,
        "typ_emr3": null,
        "phase": 1.0,
        "etat": "Zone propice",
        "exploitant": null,
        "surf_km2": 311.856,
        "remarques": "Zone 2 : Zone préférentielle retenue pour la procédure de mise en concurrence du deuxième parc (312 km²)",
        "facade": "Méditerranée",
        "agent": "lpelissier",
        "date_debut": "2022/03/25",
        "date_fin": null,
        "ao": "AO6",
        "nb_eolienn": null,
        "nb_mw_tota": null,
        "typ_emr4": null
      },
      "geometry": {
        "type": "MultiPolygon",
        "coordinates": [
          [
            [
              [
                4.648471753000024,
                42.96858829699994
              ],
              [
                4.630835529538973,
                42.97394931546644
              ],
              [
                4.603600117613,
                42.97416100526845
              ],
              [
                4.579460033000032,
                42.966696343999956
              ],
              [
                4.568739012241616,
                42.986271345345465
              ],
              [
                4.543525923000061,
                43.002441820999934
              ],
              [
                4.542504273548542,
                43.00891556384684
              ],
              [
                4.51191114421321,
                43.05392348321955
              ],
              [
                4.47621209148368,
                43.06787677060004
              ],
              [
                4.451996836338472,
                43.0679558163583
              ],
              [
                4.452341087600383,
                43.186305676173376
              ],
              [
                4.456512599999989,
                43.18458090094123
              ],
              [
                4.4736277,
                43.17871230094119
              ],
              [
                4.4837843,
                43.175372500941165
              ],
              [
                4.4865968,
                43.17449500094119
              ],
              [
                4.4891028,
                43.17373150094118
              ],
              [
                4.4920058,
                43.17287340094117
              ],
              [
                4.4925531,
                43.17270840094118
              ],
              [
                4.498142899999988,
                43.17108110094119
              ],
              [
                4.5041266,
                43.16941970094121
              ],
              [
                4.5163626,
                43.16635150094116
              ],
              [
                4.5168338,
                43.16624270094118
              ],
              [
                4.5234348,
                43.164781800941135
              ],
              [
                4.524971,
                43.164458500941166
              ],
              [
                4.526498199999988,
                43.164136400941196
              ],
              [
                4.5304602,
                43.163325700941165
              ],
              [
                4.531753899999989,
                43.16306850094116
              ],
              [
                4.534288900000012,
                43.16256740094117
              ],
              [
                4.5434977,
                43.16080370094115
              ],
              [
                4.5452438,
                43.160494900941174
              ],
              [
                4.566058899999986,
                43.156397500941154
              ],
              [
                4.5774368,
                43.154690200941154
              ],
              [
                4.589781199999987,
                43.15207580094115
              ],
              [
                4.5990885,
                43.15040220094113
              ],
              [
                4.6214808,
                43.14738810094114
              ],
              [
                4.6441367,
                43.14574520094113
              ],
              [
                4.649738,
                43.14555250094111
              ],
              [
                4.6506772,
                43.14552730094114
              ],
              [
                4.6673615,
                43.14547200094106
              ],
              [
                4.6747849,
                43.14568660094112
              ],
              [
                4.682949417094555,
                43.1456804712494
              ],
              [
                4.678370934724445,
                42.99319643236496
              ],
              [
                4.678363470071091,
                42.99275946915075
              ],
              [
                4.648471753000024,
                42.96858829699994
              ]
            ]
          ]
        ]
      }
    },
    {
      "type": "Feature",
      "properties": {
        "nom": "Faraman",
        "source": "Cerema, arrêté préfectoral du 18/02/2019 https://www.bouches-du-rhone.gouv.fr/contenu/telechargement/51391/375011/file/arr%C3%AAt%C3%A9-18f%C3%A9vrier2019-autorisation-parc-%C3%A9olien-Port-St-Louis-du-Rh%C3%B4ne.pdf",
        "maj": "2023/03/20",
        "info": true,
        "cara": false,
        "regl": false,
        "id": 71,
        "fid": 41.0,
        "tech": true,
        "projet": "Images satellites et suivis environnementaux",
        "typ_emr1": "Eolien flottant",
        "typ_emr2": null,
        "typ_emr3": null,
        "phase": 4.0,
        "etat": "Ferme pré-commerciale, en construction",
        "exploitant": "Provence Grand Large",
        "surf_km2": 0.782283477422823,
        "remarques": "Zone de concession CUDPM. Mise en service prévue courant 2023",
        "facade": "Méditerranée",
        "agent": "lpelissier",
        "date_debut": "2022",
        "date_fin": null,
        "ao": "Ferme pilote éoliennes flottantes (2015)",
        "nb_eolienn": 3.0,
        "nb_mw_tota": 24.0,
        "typ_emr4": null
      },
      "geometry": {
        "type": "MultiPolygon",
        "coordinates": [
          [
            [
              [
                4.785183300069377,
                43.18278329970968
              ],
              [
                4.802966700153263,
                43.20228329963476
              ],
              [
                4.806033300196816,
                43.200783299709656
              ],
              [
                4.788266700348117,
                43.18128329978464
              ],
              [
                4.785183300069377,
                43.18278329970968
              ]
            ]
          ]
        ]
      }
    },
    {
      "type": "Feature",
      "properties": {
        "nom": "Mistral",
        "source": "Géométrie: us_med_gds_projets_emprise_pol_2154, https://eos.debatpublic.fr/wp-content/uploads/EOS-VALECO-Plaquette-Offshore-Mistral.pdf",
        "maj": "2023/03/28",
        "info": true,
        "cara": false,
        "regl": false,
        "id": 72,
        "fid": 42.0,
        "tech": true,
        "projet": "Images satellites et suivis environnementaux",
        "typ_emr1": "Eolien flottant",
        "typ_emr2": "Photovoltaïque flottant",
        "typ_emr3": "Hydrogène en mer",
        "phase": 2.0,
        "etat": "Site d'essai",
        "exploitant": "Valeco",
        "surf_km2": 1.694,
        "remarques": "Autorisation d'exploitation accordée en 2014. Installation d'un démonstrateur prévue en 2024",
        "facade": "Méditerranée",
        "agent": "lpelissier",
        "date_debut": "2014/07/25",
        "date_fin": null,
        "ao": null,
        "nb_eolienn": null,
        "nb_mw_tota": null,
        "typ_emr4": null
      },
      "geometry": {
        "type": "MultiPolygon",
        "coordinates": [
          [
            [
              [
                4.906091666956394,
                43.31555833304665
              ],
              [
                4.916952777324929,
                43.31998888868864
              ],
              [
                4.920822222306435,
                43.32017500008948
              ],
              [
                4.926202778163671,
                43.30579166640109
              ],
              [
                4.916122222673721,
                43.30451666710206
              ],
              [
                4.906091666956394,
                43.31555833304665
              ]
            ]
          ]
        ]
      }
    },
    {
      "type": "Feature",
      "properties": {
        "nom": "Faraman",
        "source": "Document de planification (avril 2015): https://www.dirm.mediterranee.developpement-durable.gouv.fr/IMG/pdf/Document_de_planification_pour_transmission.pdf",
        "maj": "2023/04/17",
        "info": true,
        "cara": false,
        "regl": false,
        "id": 74,
        "fid": 50.0,
        "tech": true,
        "projet": "Images satellites et suivis environnementaux",
        "typ_emr1": "Eolien flottant",
        "typ_emr2": null,
        "typ_emr3": null,
        "phase": 1.0,
        "etat": "Zone propice",
        "exploitant": null,
        "surf_km2": 14.68123619558917,
        "remarques": "Site propice Provence Grand Large et son raccordement (en cours d'instruction administrative)",
        "facade": "Méditerranée",
        "agent": "lpelissier",
        "date_debut": "2015/04",
        "date_fin": "2015/08",
        "ao": "Ferme pilote éoliennes flottantes (2015)",
        "nb_eolienn": null,
        "nb_mw_tota": null,
        "typ_emr4": null
      },
      "geometry": {
        "type": "MultiPolygon",
        "coordinates": [
          [
            [
              [
                4.816666666666666,
                43.21666666666667
              ],
              [
                4.8075,
                43.2025
              ],
              [
                4.811111111111111,
                43.20194444444445
              ],
              [
                4.788888888888889,
                43.14111111111111
              ],
              [
                4.765,
                43.145
              ],
              [
                4.786944444444444,
                43.20611111111111
              ],
              [
                4.8025,
                43.20333333333333
              ],
              [
                4.811666666666667,
                43.21666666666667
              ],
              [
                4.816666666666666,
                43.21666666666667
              ]
            ]
          ]
        ]
      }
    },
    {
      "type": "Feature",
      "properties": {
        "nom": "Leucate",
        "source": "Arrêté préfectoral du 06/11/2019 portant autorisation environnementale, arrêté préfectoral modificatif du 26/03/2020 https://www.aude.gouv.fr/IMG/pdf/dreal_apc_26mars2020_modification_aeu_efgl_signe-7.pdf",
        "maj": "2023/03/17",
        "info": true,
        "cara": false,
        "regl": false,
        "id": 69,
        "fid": 51.0,
        "tech": true,
        "projet": "Images satellites et suivis environnementaux",
        "typ_emr1": "Eolien flottant",
        "typ_emr2": null,
        "typ_emr3": null,
        "phase": 4.0,
        "etat": "Ferme pré-commerciale, en construction",
        "exploitant": "Eoliennes flottantes du golfe du Lion",
        "surf_km2": 5.112857824,
        "remarques": "Zone de concession CUDPM",
        "facade": "Méditerranée",
        "agent": "lpelissier",
        "date_debut": "2022/01",
        "date_fin": null,
        "ao": "Ferme pilote éoliennes flottantes (2015)",
        "nb_eolienn": 3.0,
        "nb_mw_tota": 30.0,
        "typ_emr4": null
      },
      "geometry": {
        "type": "MultiPolygon",
        "coordinates": [
          [
            [
              [
                3.25194100037703,
                42.86549000016356
              ],
              [
                3.2681179999459,
                42.857404999641176
              ],
              [
                3.246146,
                42.833602
              ],
              [
                3.229948,
                42.841695
              ],
              [
                3.25194100037703,
                42.86549000016356
              ]
            ]
          ]
        ]
      }
    },
    {
      "type": "Feature",
      "properties": {
        "nom": "Leucate",
        "source": "Géolittoral, 092015",
        "maj": "2015/09/17 00:00:00.000",
        "info": true,
        "cara": false,
        "regl": false,
        "id": 18,
        "fid": 61.0,
        "tech": true,
        "projet": "Images satellites et suivis environnementaux",
        "typ_emr1": "Eolien flottant",
        "typ_emr2": null,
        "typ_emr3": null,
        "phase": 1.0,
        "etat": "Zone propice",
        "exploitant": null,
        "surf_km2": 156.952411939934,
        "remarques": "Résultat de l'exercice de planification du développement de l'énergie éolienne en mer réalisé en 2014 - 2015",
        "facade": "Méditerranée",
        "agent": "modion",
        "date_debut": null,
        "date_fin": null,
        "ao": "Ferme pilote éoliennes flottantes (2015)",
        "nb_eolienn": null,
        "nb_mw_tota": null,
        "typ_emr4": null
      },
      "geometry": {
        "type": "MultiPolygon",
        "coordinates": [
          [
            [
              [
                3.233333188176914,
                42.90833339756915
              ],
              [
                3.325000649061508,
                42.88333290479062
              ],
              [
                3.325000464700508,
                42.73333360296431
              ],
              [
                3.216666173206136,
                42.73333310024327
              ],
              [
                3.21666668402105,
                42.84166715521593
              ],
              [
                3.233333188176914,
                42.90833339756915
              ]
            ]
          ]
        ]
      }
    },
    {
      "type": "Feature",
      "properties": {
        "nom": "Gruissan",
        "source": "Géolittoral, 092015",
        "maj": "2015/09/17 00:00:00.000",
        "info": true,
        "cara": false,
        "regl": false,
        "id": 34,
        "fid": 64.0,
        "tech": true,
        "projet": "Images satellites et suivis environnementaux",
        "typ_emr1": "Eolien flottant",
        "typ_emr2": null,
        "typ_emr3": null,
        "phase": 1.0,
        "etat": "Zone propice",
        "exploitant": null,
        "surf_km2": 10.0304190184155,
        "remarques": "Résultat de l'exercice de planification du développement de l'énergie éolienne en mer réalisé en 2014 - 2015",
        "facade": "Méditerranée",
        "agent": "modion",
        "date_debut": "2014",
        "date_fin": "2016",
        "ao": "Ferme pilote éoliennes flottantes (2015)",
        "nb_eolienn": null,
        "nb_mw_tota": null,
        "typ_emr4": null
      },
      "geometry": {
        "type": "MultiPolygon",
        "coordinates": [
          [
            [
              [
                3.355833581655304,
                43.05833365087818
              ],
              [
                3.361667035905782,
                43.07611136005215
              ],
              [
                3.408332830796326,
                43.08611071593771
              ],
              [
                3.408333728319747,
                43.05861066185349
              ],
              [
                3.355833581655304,
                43.05833365087818
              ]
            ]
          ]
        ]
      }
    },
    {
      "type": "Feature",
      "properties": {
        "nom": "Gruissan",
        "source": "Etude impact -Eolmed - Setec In vivo - juin 2018",
        "maj": "2018/12/05 00:00:00",
        "info": true,
        "cara": false,
        "regl": false,
        "id": 41,
        "fid": 71.0,
        "tech": true,
        "projet": "Images satellites et suivis environnementaux",
        "typ_emr1": "Eolien flottant",
        "typ_emr2": null,
        "typ_emr3": null,
        "phase": 0.0,
        "etat": "Zone de concession",
        "exploitant": null,
        "surf_km2": 8.13894958949359,
        "remarques": "Ferme pilote",
        "facade": "Méditerranée",
        "agent": "edamier",
        "date_debut": null,
        "date_fin": null,
        "ao": "Ferme pilote éoliennes flottantes (2015)",
        "nb_eolienn": null,
        "nb_mw_tota": null,
        "typ_emr4": null
      },
      "geometry": {
        "type": "MultiPolygon",
        "coordinates": [
          [
            [
              [
                3.304480556,
                43.01187778
              ],
              [
                3.3113,
                43.02051111
              ],
              [
                3.345641667,
                43.04545833
              ],
              [
                3.361013889,
                43.03391111
              ],
              [
                3.325088889,
                43.00791389
              ],
              [
                3.304480556,
                43.01187778
              ]
            ]
          ]
        ]
      }
    },
    {
      "type": "Feature",
      "properties": {
        "nom": "Faraman",
        "source": "Document de planification (avril 2015) : https://www.dirm.mediterranee.developpement-durable.gouv.fr/IMG/pdf/Document_de_planification_pour_transmission.pdf",
        "maj": "2023/04/17",
        "info": true,
        "cara": false,
        "regl": false,
        "id": 73,
        "fid": 76.0,
        "tech": true,
        "projet": "Images satellites et suivis environnementaux",
        "typ_emr1": "Eolien flottant",
        "typ_emr2": null,
        "typ_emr3": null,
        "phase": 1.0,
        "etat": "Zone propice",
        "exploitant": null,
        "surf_km2": 117.2986867600172,
        "remarques": "Zone propice au développement de fermes pilotes pré-commerciales d'éoliennes flottantes",
        "facade": "Méditerranée",
        "agent": "lpelissier",
        "date_debut": "2015/04",
        "date_fin": "2015/08",
        "ao": "Ferme pilote éoliennes flottantes (2015)",
        "nb_eolienn": null,
        "nb_mw_tota": null,
        "typ_emr4": null
      },
      "geometry": {
        "type": "MultiPolygon",
        "coordinates": [
          [
            [
              [
                4.886666666666666,
                43.21666666666667
              ],
              [
                4.808333333333334,
                43.13333333333333
              ],
              [
                4.691666666666667,
                43.13333333333333
              ],
              [
                4.691666666666667,
                43.21666666666667
              ],
              [
                4.886666666666666,
                43.21666666666667
              ]
            ]
          ]
        ]
      }
    },
    {
      "type": "Feature",
      "properties": {
        "nom": "Gruissan",
        "source": "Cerema, arrêté préfectoral d'autorisation environnementale du 20/11/2019, arrêté modificatif du 22/10/2020 https://www.aude.gouv.fr/IMG/pdf/aeu_eolmed_apc_ferme_22oct2020.pdf",
        "maj": "2023/03/20",
        "info": true,
        "cara": false,
        "regl": false,
        "id": 70,
        "fid": 77.0,
        "tech": true,
        "projet": "Images satellites et suivis environnementaux",
        "typ_emr1": "Eolien flottant",
        "typ_emr2": null,
        "typ_emr3": null,
        "phase": 4.0,
        "etat": "Ferme pré-commerciale, en construction",
        "exploitant": "Eolmed",
        "surf_km2": 5.554,
        "remarques": "Zone de concession CUDPM. Mise en service prévue en  2024",
        "facade": "Méditerranée",
        "agent": "lpelissier",
        "date_debut": "2022/05/01",
        "date_fin": null,
        "ao": "Ferme pilote éoliennes flottantes (2015)",
        "nb_eolienn": 3.0,
        "nb_mw_tota": 30.0,
        "typ_emr4": null
      },
      "geometry": {
        "type": "MultiPolygon",
        "coordinates": [
          [
            [
              [
                3.304480600299598,
                43.01187780002061
              ],
              [
                3.31130000019499,
                43.02051110010734
              ],
              [
                3.333288899962952,
                43.03644439958953
              ],
              [
                3.348499999775356,
                43.02535000040234
              ],
              [
                3.325088900432547,
                43.007911100017395
              ],
              [
                3.304480600299598,
                43.01187780002061
              ]
            ]
          ]
        ]
      }
    }
  ]
}