{
  "type": "FeatureCollection",
  "name": "us_med_PNMGL_sites_plongee_2021_ofb_pt_4326",
  "crs": {
    "type": "name",
    "properties": {
      "name": "urn:ogc:def:crs:OGC:1.3:CRS84"
    }
  },
  "features": [
    {
      "type": "Feature",
      "properties": {
        "info": false,
        "cara": false,
        "regl": false,
        "tech": false,
        "projet": "Perception des activités de plongées et de plaisance"
      },
      "geometry": {
        "type": "Point",
        "coordinates": [
          3.08415,
          42.5311
        ]
      }
    },
    {
      "type": "Feature",
      "properties": {
        "info": false,
        "cara": false,
        "regl": false,
        "tech": false,
        "projet": "Perception des activités de plongées et de plaisance"
      },
      "geometry": {
        "type": "Point",
        "coordinates": [
          3.109445741839315,
          42.52359170365944
        ]
      }
    },
    {
      "type": "Feature",
      "properties": {
        "info": false,
        "cara": false,
        "regl": false,
        "tech": false,
        "projet": "Perception des activités de plongées et de plaisance"
      },
      "geometry": {
        "type": "Point",
        "coordinates": [
          3.157,
          42.4766333333333
        ]
      }
    },
    {
      "type": "Feature",
      "properties": {
        "info": false,
        "cara": false,
        "regl": false,
        "tech": false,
        "projet": "Perception des activités de plongées et de plaisance"
      },
      "geometry": {
        "type": "Point",
        "coordinates": [
          3.123415390866178,
          42.52145447231532
        ]
      }
    },
    {
      "type": "Feature",
      "properties": {
        "info": false,
        "cara": false,
        "regl": false,
        "tech": false,
        "projet": "Perception des activités de plongées et de plaisance"
      },
      "geometry": {
        "type": "Point",
        "coordinates": [
          3.133854949127988,
          42.52844522512546
        ]
      }
    },
    {
      "type": "Feature",
      "properties": {
        "info": false,
        "cara": false,
        "regl": false,
        "tech": false,
        "projet": "Perception des activités de plongées et de plaisance"
      },
      "geometry": {
        "type": "Point",
        "coordinates": [
          3.168218313685138,
          42.45686256452341
        ]
      }
    },
    {
      "type": "Feature",
      "properties": {
        "info": false,
        "cara": false,
        "regl": false,
        "tech": false,
        "projet": "Perception des activités de plongées et de plaisance"
      },
      "geometry": {
        "type": "Point",
        "coordinates": [
          3.154916618387413,
          42.47849673346166
        ]
      }
    },
    {
      "type": "Feature",
      "properties": {
        "info": false,
        "cara": false,
        "regl": false,
        "tech": false,
        "projet": "Perception des activités de plongées et de plaisance"
      },
      "geometry": {
        "type": "Point",
        "coordinates": [
          3.102255676036865,
          42.524660291915296
        ]
      }
    },
    {
      "type": "Feature",
      "properties": {
        "info": false,
        "cara": false,
        "regl": false,
        "tech": false,
        "projet": "Perception des activités de plongées et de plaisance"
      },
      "geometry": {
        "type": "Point",
        "coordinates": [
          3.103083261879688,
          42.52579717168158
        ]
      }
    },
    {
      "type": "Feature",
      "properties": {
        "info": false,
        "cara": false,
        "regl": false,
        "tech": false,
        "projet": "Perception des activités de plongées et de plaisance"
      },
      "geometry": {
        "type": "Point",
        "coordinates": [
          3.106115536407794,
          42.525919153260105
        ]
      }
    },
    {
      "type": "Feature",
      "properties": {
        "info": false,
        "cara": false,
        "regl": false,
        "tech": false,
        "projet": "Perception des activités de plongées et de plaisance"
      },
      "geometry": {
        "type": "Point",
        "coordinates": [
          3.138828349602921,
          42.48132146242434
        ]
      }
    },
    {
      "type": "Feature",
      "properties": {
        "info": false,
        "cara": false,
        "regl": false,
        "tech": false,
        "projet": "Perception des activités de plongées et de plaisance"
      },
      "geometry": {
        "type": "Point",
        "coordinates": [
          3.137765729380736,
          42.48263246443158
        ]
      }
    },
    {
      "type": "Feature",
      "properties": {
        "info": false,
        "cara": false,
        "regl": false,
        "tech": false,
        "projet": "Perception des activités de plongées et de plaisance"
      },
      "geometry": {
        "type": "Point",
        "coordinates": [
          3.145511932869565,
          42.48049383248764
        ]
      }
    },
    {
      "type": "Feature",
      "properties": {
        "info": false,
        "cara": false,
        "regl": false,
        "tech": false,
        "projet": "Perception des activités de plongées et de plaisance"
      },
      "geometry": {
        "type": "Point",
        "coordinates": [
          3.149583655216258,
          42.47912174930037
        ]
      }
    },
    {
      "type": "Feature",
      "properties": {
        "info": false,
        "cara": false,
        "regl": false,
        "tech": false,
        "projet": "Perception des activités de plongées et de plaisance"
      },
      "geometry": {
        "type": "Point",
        "coordinates": [
          3.153476619020898,
          42.47873111513272
        ]
      }
    },
    {
      "type": "Feature",
      "properties": {
        "info": false,
        "cara": false,
        "regl": false,
        "tech": false,
        "projet": "Perception des activités de plongées et de plaisance"
      },
      "geometry": {
        "type": "Point",
        "coordinates": [
          3.133660489807416,
          42.52514548106294
        ]
      }
    },
    {
      "type": "Feature",
      "properties": {
        "info": false,
        "cara": false,
        "regl": false,
        "tech": false,
        "projet": "Perception des activités de plongées et de plaisance"
      },
      "geometry": {
        "type": "Point",
        "coordinates": [
          3.156753445165564,
          42.47414800073806
        ]
      }
    },
    {
      "type": "Feature",
      "properties": {
        "info": false,
        "cara": false,
        "regl": false,
        "tech": false,
        "projet": "Perception des activités de plongées et de plaisance"
      },
      "geometry": {
        "type": "Point",
        "coordinates": [
          3.178982400903805,
          42.44291028491194
        ]
      }
    },
    {
      "type": "Feature",
      "properties": {
        "info": false,
        "cara": false,
        "regl": false,
        "tech": false,
        "projet": "Perception des activités de plongées et de plaisance"
      },
      "geometry": {
        "type": "Point",
        "coordinates": [
          3.17301054146199,
          42.44223604962639
        ]
      }
    },
    {
      "type": "Feature",
      "properties": {
        "info": false,
        "cara": false,
        "regl": false,
        "tech": false,
        "projet": "Perception des activités de plongées et de plaisance"
      },
      "geometry": {
        "type": "Point",
        "coordinates": [
          3.170468197752837,
          42.44805963971231
        ]
      }
    },
    {
      "type": "Feature",
      "properties": {
        "info": false,
        "cara": false,
        "regl": false,
        "tech": false,
        "projet": "Perception des activités de plongées et de plaisance"
      },
      "geometry": {
        "type": "Point",
        "coordinates": [
          3.138116211985179,
          42.513959861336566
        ]
      }
    },
    {
      "type": "Feature",
      "properties": {
        "info": false,
        "cara": false,
        "regl": false,
        "tech": false,
        "projet": "Perception des activités de plongées et de plaisance"
      },
      "geometry": {
        "type": "Point",
        "coordinates": [
          3.131707387218354,
          42.489710363138144
        ]
      }
    },
    {
      "type": "Feature",
      "properties": {
        "info": false,
        "cara": false,
        "regl": false,
        "tech": false,
        "projet": "Perception des activités de plongées et de plaisance"
      },
      "geometry": {
        "type": "Point",
        "coordinates": [
          3.164358959061114,
          42.4760512379582
        ]
      }
    },
    {
      "type": "Feature",
      "properties": {
        "info": false,
        "cara": false,
        "regl": false,
        "tech": false,
        "projet": "Perception des activités de plongées et de plaisance"
      },
      "geometry": {
        "type": "Point",
        "coordinates": [
          3.133771386310356,
          42.50934790941019
        ]
      }
    },
    {
      "type": "Feature",
      "properties": {
        "info": false,
        "cara": false,
        "regl": false,
        "tech": false,
        "projet": "Perception des activités de plongées et de plaisance"
      },
      "geometry": {
        "type": "Point",
        "coordinates": [
          3.177831031800321,
          42.4388047354829
        ]
      }
    },
    {
      "type": "Feature",
      "properties": {
        "info": false,
        "cara": false,
        "regl": false,
        "tech": false,
        "projet": "Perception des activités de plongées et de plaisance"
      },
      "geometry": {
        "type": "Point",
        "coordinates": [
          3.159180557246451,
          42.46072952129186
        ]
      }
    },
    {
      "type": "Feature",
      "properties": {
        "info": false,
        "cara": false,
        "regl": false,
        "tech": false,
        "projet": "Perception des activités de plongées et de plaisance"
      },
      "geometry": {
        "type": "Point",
        "coordinates": [
          3.158942212523717,
          42.46880282607371
        ]
      }
    },
    {
      "type": "Feature",
      "properties": {
        "info": false,
        "cara": false,
        "regl": false,
        "tech": false,
        "projet": "Perception des activités de plongées et de plaisance"
      },
      "geometry": {
        "type": "Point",
        "coordinates": [
          3.133697533974228,
          42.49095144648812
        ]
      }
    },
    {
      "type": "Feature",
      "properties": {
        "info": false,
        "cara": false,
        "regl": false,
        "tech": false,
        "projet": "Perception des activités de plongées et de plaisance"
      },
      "geometry": {
        "type": "Point",
        "coordinates": [
          3.136319325924292,
          42.49973108673049
        ]
      }
    },
    {
      "type": "Feature",
      "properties": {
        "info": false,
        "cara": false,
        "regl": false,
        "tech": false,
        "projet": "Perception des activités de plongées et de plaisance"
      },
      "geometry": {
        "type": "Point",
        "coordinates": [
          3.129218639392866,
          42.501319930761994
        ]
      }
    },
    {
      "type": "Feature",
      "properties": {
        "info": false,
        "cara": false,
        "regl": false,
        "tech": false,
        "projet": "Perception des activités de plongées et de plaisance"
      },
      "geometry": {
        "type": "Point",
        "coordinates": [
          3.125107192925719,
          42.504819638330275
        ]
      }
    },
    {
      "type": "Feature",
      "properties": {
        "info": false,
        "cara": false,
        "regl": false,
        "tech": false,
        "projet": "Perception des activités de plongées et de plaisance"
      },
      "geometry": {
        "type": "Point",
        "coordinates": [
          3.130430225066759,
          42.505895868844
        ]
      }
    },
    {
      "type": "Feature",
      "properties": {
        "info": false,
        "cara": false,
        "regl": false,
        "tech": false,
        "projet": "Perception des activités de plongées et de plaisance"
      },
      "geometry": {
        "type": "Point",
        "coordinates": [
          3.140331462090301,
          42.51495157805894
        ]
      }
    },
    {
      "type": "Feature",
      "properties": {
        "info": false,
        "cara": false,
        "regl": false,
        "tech": false,
        "projet": "Perception des activités de plongées et de plaisance"
      },
      "geometry": {
        "type": "Point",
        "coordinates": [
          3.140589668873262,
          42.51888238698872
        ]
      }
    },
    {
      "type": "Feature",
      "properties": {
        "info": false,
        "cara": false,
        "regl": false,
        "tech": false,
        "projet": "Perception des activités de plongées et de plaisance"
      },
      "geometry": {
        "type": "Point",
        "coordinates": [
          3.099663893773954,
          42.52437924883898
        ]
      }
    },
    {
      "type": "Feature",
      "properties": {
        "info": false,
        "cara": false,
        "regl": false,
        "tech": false,
        "projet": "Perception des activités de plongées et de plaisance"
      },
      "geometry": {
        "type": "Point",
        "coordinates": [
          3.131825534797765,
          42.58917425520603
        ]
      }
    },
    {
      "type": "Feature",
      "properties": {
        "info": false,
        "cara": false,
        "regl": false,
        "tech": false,
        "projet": "Perception des activités de plongées et de plaisance"
      },
      "geometry": {
        "type": "Point",
        "coordinates": [
          3.071206526982627,
          42.62016718856746
        ]
      }
    },
    {
      "type": "Feature",
      "properties": {
        "info": false,
        "cara": false,
        "regl": false,
        "tech": false,
        "projet": "Perception des activités de plongées et de plaisance"
      },
      "geometry": {
        "type": "Point",
        "coordinates": [
          3.040678540412552,
          42.79863108430563
        ]
      }
    },
    {
      "type": "Feature",
      "properties": {
        "info": false,
        "cara": false,
        "regl": false,
        "tech": false,
        "projet": "Perception des activités de plongées et de plaisance"
      },
      "geometry": {
        "type": "Point",
        "coordinates": [
          3.065525977757487,
          42.92031824156927
        ]
      }
    },
    {
      "type": "Feature",
      "properties": {
        "info": false,
        "cara": false,
        "regl": false,
        "tech": false,
        "projet": "Perception des activités de plongées et de plaisance"
      },
      "geometry": {
        "type": "Point",
        "coordinates": [
          3.063658944096077,
          42.922499955282774
        ]
      }
    },
    {
      "type": "Feature",
      "properties": {
        "info": false,
        "cara": false,
        "regl": false,
        "tech": false,
        "projet": "Perception des activités de plongées et de plaisance"
      },
      "geometry": {
        "type": "Point",
        "coordinates": [
          3.056826395377726,
          42.92715401966239
        ]
      }
    },
    {
      "type": "Feature",
      "properties": {
        "info": false,
        "cara": false,
        "regl": false,
        "tech": false,
        "projet": "Perception des activités de plongées et de plaisance"
      },
      "geometry": {
        "type": "Point",
        "coordinates": [
          3.078674661628267,
          42.96114710817734
        ]
      }
    },
    {
      "type": "Feature",
      "properties": {
        "info": false,
        "cara": false,
        "regl": false,
        "tech": false,
        "projet": "Perception des activités de plongées et de plaisance"
      },
      "geometry": {
        "type": "Point",
        "coordinates": [
          3.075159076967952,
          42.53431409354183
        ]
      }
    },
    {
      "type": "Feature",
      "properties": {
        "info": false,
        "cara": false,
        "regl": false,
        "tech": false,
        "projet": "Perception des activités de plongées et de plaisance"
      },
      "geometry": {
        "type": "Point",
        "coordinates": [
          3.175480338669731,
          42.434528257398256
        ]
      }
    },
    {
      "type": "Feature",
      "properties": {
        "info": false,
        "cara": false,
        "regl": false,
        "tech": false,
        "projet": "Perception des activités de plongées et de plaisance"
      },
      "geometry": {
        "type": "Point",
        "coordinates": [
          3.161673887031559,
          42.45314771811663
        ]
      }
    }
  ]
}