{
  "type": "FeatureCollection",
  "name": "us_med_pnmgl_ZMEL_ZoneB_pol_4326",
  "crs": {
    "type": "name",
    "properties": {
      "name": "urn:ogc:def:crs:OGC:1.3:CRS84"
    }
  },
  "features": [
    {
      "type": "Feature",
      "properties": {
        "info": false,
        "cara": false,
        "regl": false,
        "tech": false,
        "projet": "Etat des lieux de la pêche artisanale",
        "id": null,
        "begin": 1,
        "end": 138,
        "area": 2.3e-05,
        "perimeter": 0.019291
      },
      "geometry": {
        "type": "MultiPolygon",
        "coordinates": [
          [
            [
              [
                3.128813226411365,
                42.499879845964585
              ],
              [
                3.128686509509495,
                42.499954857250735
              ],
              [
                3.128448676496368,
                42.5001822565949
              ],
              [
                3.128193995928581,
                42.50054670470279
              ],
              [
                3.128142762696462,
                42.50064065649227
              ],
              [
                3.128129273716925,
                42.50074471325138
              ],
              [
                3.12820868113153,
                42.500890211241305
              ],
              [
                3.128192424682108,
                42.500905139025875
              ],
              [
                3.128124665707302,
                42.50091264983391
              ],
              [
                3.128112270079577,
                42.50092313844198
              ],
              [
                3.128102734981327,
                42.501111933387335
              ],
              [
                3.128133181744849,
                42.501158491937254
              ],
              [
                3.128146212799587,
                42.50123650675033
              ],
              [
                3.128197132454002,
                42.50133076389218
              ],
              [
                3.128254343043502,
                42.501343159519905
              ],
              [
                3.128305832574052,
                42.50130740290147
              ],
              [
                3.128336344888453,
                42.501309786676025
              ],
              [
                3.128430265606216,
                42.501353648127974
              ],
              [
                3.128482231891679,
                42.501413719246955
              ],
              [
                3.128477464342554,
                42.50142802189433
              ],
              [
                3.128437893684815,
                42.501442324541706
              ],
              [
                3.128268645690877,
                42.50145805745382
              ],
              [
                3.128244807945252,
                42.50147951142488
              ],
              [
                3.128250052249289,
                42.50153195446526
              ],
              [
                3.128207827894312,
                42.50157583359762
              ],
              [
                3.128053688493485,
                42.501658489929014
              ],
              [
                3.128063180362078,
                42.501686391887304
              ],
              [
                3.128080346546223,
                42.50169525280534
              ],
              [
                3.128202853512952,
                42.501709068915254
              ],
              [
                3.128222638841821,
                42.50171955752333
              ],
              [
                3.128229790165509,
                42.501748639572995
              ],
              [
                3.128193080037246,
                42.50178558807871
              ],
              [
                3.128226457017362,
                42.50186065426564
              ],
              [
                3.128201184870758,
                42.50188570661034
              ],
              [
                3.128136822957571,
                42.50190191627736
              ],
              [
                3.128061495681395,
                42.50183993813874
              ],
              [
                3.12798235436592,
                42.50182611224628
              ],
              [
                3.127922283246944,
                42.5017927394024
              ],
              [
                3.127851723519894,
                42.50185138025663
              ],
              [
                3.127909410864307,
                42.5018919044242
              ],
              [
                3.127902259540619,
                42.50192956806229
              ],
              [
                3.127928004305895,
                42.50195388256282
              ],
              [
                3.127915608678169,
                42.50197867381828
              ],
              [
                3.127784024322319,
                42.50198773216161
              ],
              [
                3.127723953203343,
                42.501983918122306
              ],
              [
                3.127605191535051,
                42.50200096575486
              ],
              [
                3.127486001842324,
                42.50199222669063
              ],
              [
                3.127408018462022,
                42.502008179688694
              ],
              [
                3.126833333333333,
                42.50298333333333
              ],
              [
                3.128966666666667,
                42.503883333333334
              ],
              [
                3.131333333333334,
                42.5031
              ],
              [
                3.1342,
                42.50215
              ],
              [
                3.13438958745767,
                42.50089529399132
              ],
              [
                3.134299525487628,
                42.50090275917451
              ],
              [
                3.134124610368135,
                42.500911069520505
              ],
              [
                3.133873075183564,
                42.50088172075603
              ],
              [
                3.133783088173628,
                42.50084228078197
              ],
              [
                3.133686217411509,
                42.50073694463662
              ],
              [
                3.133630442169312,
                42.500715445109044
              ],
              [
                3.133557548097617,
                42.50070602046115
              ],
              [
                3.133482113969731,
                42.50071055560335
              ],
              [
                3.133320095575699,
                42.50077813742524
              ],
              [
                3.133092621090112,
                42.50078114261416
              ],
              [
                3.133074174932804,
                42.50077513887821
              ],
              [
                3.133059988067569,
                42.50071823391387
              ],
              [
                3.132946897918674,
                42.500668933842455
              ],
              [
                3.132545765100248,
                42.500561561525714
              ],
              [
                3.132479981912517,
                42.50048073973212
              ],
              [
                3.132448358174039,
                42.50046369936479
              ],
              [
                3.132365718633086,
                42.50044941906453
              ],
              [
                3.132315948149821,
                42.50046566148513
              ],
              [
                3.132277104811129,
                42.50047919355541
              ],
              [
                3.132179901825972,
                42.500471223655616
              ],
              [
                3.132027965468017,
                42.50043365679278
              ],
              [
                3.131984136959635,
                42.50039146141929
              ],
              [
                3.131955054681125,
                42.50042385877509
              ],
              [
                3.131914498168315,
                42.50042607626454
              ],
              [
                3.131884277603212,
                42.500419525601714
              ],
              [
                3.129583333333109,
                42.5006
              ],
              [
                3.130941819305075,
                42.49986541112875
              ],
              [
                3.130926749246187,
                42.49982831559918
              ],
              [
                3.130938341599178,
                42.49978078695192
              ],
              [
                3.130925590010888,
                42.49972978059876
              ],
              [
                3.130919793834392,
                42.49970775512808
              ],
              [
                3.130944137775673,
                42.49971239206928
              ],
              [
                3.130962685540458,
                42.499705436657486
              ],
              [
                3.130929067716785,
                42.499677615010306
              ],
              [
                3.130926749246187,
                42.49964631565723
              ],
              [
                3.130966163246355,
                42.49964631565723
              ],
              [
                3.130959207834561,
                42.49962776789245
              ],
              [
                3.130850344324553,
                42.49956207405686
              ],
              [
                3.130747357054885,
                42.499512717643135
              ],
              [
                3.130551801068076,
                42.49947235592668
              ],
              [
                3.130140292686707,
                42.499471589806156
              ],
              [
                3.130020312583638,
                42.49949076785299
              ],
              [
                3.129988629047468,
                42.499507300669855
              ],
              [
                3.129965546754381,
                42.49953651086108
              ],
              [
                3.129916708626212,
                42.49954925819158
              ],
              [
                3.129878206074993,
                42.49958356228187
              ],
              [
                3.129817367026977,
                42.499596958566485
              ],
              [
                3.129783048051612,
                42.49958494684533
              ],
              [
                3.129766702902776,
                42.49955959100464
              ],
              [
                3.129794924901375,
                42.49952847142549
              ],
              [
                3.129705763869691,
                42.499527945446594
              ],
              [
                3.129660228212711,
                42.499483593280985
              ],
              [
                3.129619923693836,
                42.499478567103694
              ],
              [
                3.129364594772041,
                42.49954548820786
              ],
              [
                3.128919311604558,
                42.49977948373702
              ],
              [
                3.128813226411365,
                42.499879845964585
              ]
            ]
          ]
        ]
      }
    }
  ]
}