{
  "type": "FeatureCollection",
  "name": "us_med_pnmgl_ZMEL_ZoneA_pol_4326",
  "crs": {
    "type": "name",
    "properties": {
      "name": "urn:ogc:def:crs:OGC:1.3:CRS84"
    }
  },
  "features": [
    {
      "type": "Feature",
      "properties": {
        "info": false,
        "cara": false,
        "regl": false,
        "tech": false,
        "projet": "Etat des lieux de la pêche artisanale",
        "id": null,
        "begin": 1,
        "end": 192,
        "area": 1.8e-05,
        "perimeter": 0.020858
      },
      "geometry": {
        "type": "MultiPolygon",
        "coordinates": [
          [
            [
              [
                3.130813743494916,
                42.50937862186921
              ],
              [
                3.130847675899144,
                42.5092813424593
              ],
              [
                3.130936599786098,
                42.50926505622049
              ],
              [
                3.131092246332452,
                42.50927374673885
              ],
              [
                3.13115,
                42.50926666666667
              ],
              [
                3.134166666666667,
                42.507933333333334
              ],
              [
                3.1277,
                42.50586666666667
              ],
              [
                3.125316666666667,
                42.505383333333334
              ],
              [
                3.124863662105781,
                42.506129659652736
              ],
              [
                3.124868324183996,
                42.5061391686174
              ],
              [
                3.1249472267981,
                42.506149226621055
              ],
              [
                3.125061992149382,
                42.50615981440089
              ],
              [
                3.125361394234434,
                42.50616458195002
              ],
              [
                3.125426232902534,
                42.50614455824369
              ],
              [
                3.125554256008892,
                42.506143439008746
              ],
              [
                3.12557974798436,
                42.50616172142054
              ],
              [
                3.12559881818086,
                42.506179838107215
              ],
              [
                3.12561598135771,
                42.50620558287249
              ],
              [
                3.125637912083686,
                42.506311422463064
              ],
              [
                3.12561979539701,
                42.50637244709186
              ],
              [
                3.125580224739273,
                42.506417738808544
              ],
              [
                3.12555877076821,
                42.506526915683516
              ],
              [
                3.125540177326623,
                42.506538834556316
              ],
              [
                3.125481536472385,
                42.50654598588001
              ],
              [
                3.12553588653241,
                42.506611301303025
              ],
              [
                3.12552875200584,
                42.50664400845325
              ],
              [
                3.12560264462042,
                42.50671624282146
              ],
              [
                3.125681296780723,
                42.50669711718727
              ],
              [
                3.125751379752861,
                42.506735734335194
              ],
              [
                3.125855312323786,
                42.50674050188432
              ],
              [
                3.125890592187312,
                42.50666994215727
              ],
              [
                3.125940174698212,
                42.50662703421514
              ],
              [
                3.126080340642488,
                42.506577451704246
              ],
              [
                3.126211924998339,
                42.50659080084179
              ],
              [
                3.126296787372765,
                42.506641336862515
              ],
              [
                3.12633778829524,
                42.50650307793789
              ],
              [
                3.12640071994369,
                42.50647256562349
              ],
              [
                3.126399766433865,
                42.50644968138769
              ],
              [
                3.126425511199141,
                42.506424890132244
              ],
              [
                3.126408710751569,
                42.50636573814344
              ],
              [
                3.12645761576066,
                42.50638090573912
              ],
              [
                3.126636236870467,
                42.506514520055795
              ],
              [
                3.126745890500342,
                42.506607010508816
              ],
              [
                3.126714424676117,
                42.50665373249024
              ],
              [
                3.126777356324568,
                42.50680915459172
              ],
              [
                3.126775449304918,
                42.506906889348784
              ],
              [
                3.126755425598593,
                42.506980309605304
              ],
              [
                3.126776879569655,
                42.507029415361295
              ],
              [
                3.126720145735068,
                42.50706278820517
              ],
              [
                3.126746367255255,
                42.50709139349992
              ],
              [
                3.126733494872618,
                42.50711952203976
              ],
              [
                3.126746482015285,
                42.5071345445005
              ],
              [
                3.126735405106829,
                42.5071665947423
              ],
              [
                3.126746602439962,
                42.507190054162336
              ],
              [
                3.126803339467299,
                42.50715563622438
              ],
              [
                3.126888082652997,
                42.507162191604436
              ],
              [
                3.12690381556511,
                42.507104623448754
              ],
              [
                3.126935877332974,
                42.50709341970835
              ],
              [
                3.126981770933965,
                42.50710127611999
              ],
              [
                3.127002712101945,
                42.507071117309245
              ],
              [
                3.127034400584968,
                42.50705458525346
              ],
              [
                3.127067417944191,
                42.50705771793505
              ],
              [
                3.127123233405629,
                42.50709603252594
              ],
              [
                3.127299472307288,
                42.50711421998433
              ],
              [
                3.127307576973843,
                42.50709549558325
              ],
              [
                3.127267698752076,
                42.50695420727389
              ],
              [
                3.127286592659673,
                42.50690900769685
              ],
              [
                3.127361142714926,
                42.50690081072369
              ],
              [
                3.127487006011826,
                42.50693513707739
              ],
              [
                3.127530867463777,
                42.506956114293544
              ],
              [
                3.127576635935377,
                42.507017138922365
              ],
              [
                3.127794036175478,
                42.50716207241575
              ],
              [
                3.127841711666728,
                42.50722309704455
              ],
              [
                3.127963903900681,
                42.507279320394304
              ],
              [
                3.128026635811461,
                42.507343319343555
              ],
              [
                3.128006117529245,
                42.50737062306606
              ],
              [
                3.128146820546464,
                42.5074097868806
              ],
              [
                3.12821421013799,
                42.50744713542041
              ],
              [
                3.128226262754617,
                42.507469324869085
              ],
              [
                3.128163260430547,
                42.507477647721565
              ],
              [
                3.128156449770548,
                42.50749985983017
              ],
              [
                3.128120469387714,
                42.507514176986106
              ],
              [
                3.128114065855319,
                42.50752655543469
              ],
              [
                3.128174559301864,
                42.507547100734264
              ],
              [
                3.128324205874351,
                42.50755897446461
              ],
              [
                3.128352061634324,
                42.50755418298149
              ],
              [
                3.128394747365229,
                42.507524406149265
              ],
              [
                3.128590621094048,
                42.5076430287341
              ],
              [
                3.128701418744895,
                42.50772917332089
              ],
              [
                3.128842145126775,
                42.50777832797764
              ],
              [
                3.128926303687766,
                42.5078375425754
              ],
              [
                3.129061394882258,
                42.50785847303418
              ],
              [
                3.129109687149319,
                42.507886486745285
              ],
              [
                3.129115574323413,
                42.50793152190055
              ],
              [
                3.129192518190835,
                42.50802373373996
              ],
              [
                3.129217497278157,
                42.508075089766464
              ],
              [
                3.129175495856976,
                42.508080850197935
              ],
              [
                3.129103205165207,
                42.50805837165125
              ],
              [
                3.128940039027981,
                42.50803926463838
              ],
              [
                3.128967552377815,
                42.50807348890571
              ],
              [
                3.128950643593207,
                42.508079348867405
              ],
              [
                3.128862578835145,
                42.50810152923655
              ],
              [
                3.128779965334531,
                42.508145141045325
              ],
              [
                3.128800224215905,
                42.50820945224113
              ],
              [
                3.128760813827081,
                42.508223773762296
              ],
              [
                3.128715126666431,
                42.5083501456577
              ],
              [
                3.128794690009542,
                42.50842166522829
              ],
              [
                3.128801896060506,
                42.508480776503724
              ],
              [
                3.128921323166087,
                42.50857970314808
              ],
              [
                3.128939201475306,
                42.508607354933005
              ],
              [
                3.128944207401887,
                42.508630715923715
              ],
              [
                3.128897485420462,
                42.50871176425884
              ],
              [
                3.128897962175375,
                42.50873178796517
              ],
              [
                3.128978533755588,
                42.50876516080904
              ],
              [
                3.129092478179675,
                42.508786138025194
              ],
              [
                3.129104397052488,
                42.50882046437889
              ],
              [
                3.129126804533376,
                42.50883429027136
              ],
              [
                3.129160654132163,
                42.50881378981015
              ],
              [
                3.129228353329738,
                42.508835243781206
              ],
              [
                3.129263156438351,
                42.50888291927245
              ],
              [
                3.129269831007126,
                42.50900210800057
              ],
              [
                3.129202131809551,
                42.509042155413226
              ],
              [
                3.129205945848851,
                42.5090831563357
              ],
              [
                3.129160177377251,
                42.50910413355185
              ],
              [
                3.129063872884926,
                42.50911652917957
              ],
              [
                3.1290362211,
                42.50913464586625
              ],
              [
                3.129039081629475,
                42.50915753010205
              ],
              [
                3.129066733414401,
                42.5091937634754
              ],
              [
                3.12901142984455,
                42.50922904333893
              ],
              [
                3.129011728672763,
                42.50924675600392
              ],
              [
                3.129094276258254,
                42.50935196644691
              ],
              [
                3.129163037906727,
                42.50936968603813
              ],
              [
                3.129218333766429,
                42.509357843107765
              ],
              [
                3.129239980708136,
                42.509323876539824
              ],
              [
                3.12930314252074,
                42.509322214036644
              ],
              [
                3.129361677192846,
                42.50929613273678
              ],
              [
                3.129500289420164,
                42.50929215823961
              ],
              [
                3.129591334103011,
                42.509362043103614
              ],
              [
                3.129638386283632,
                42.509377951673486
              ],
              [
                3.129667828637988,
                42.50937939617085
              ],
              [
                3.129764454244223,
                42.50938816031906
              ],
              [
                3.129909057517947,
                42.509379102812545
              ],
              [
                3.130096390963824,
                42.509338220204256
              ],
              [
                3.130178069383353,
                42.509276901087446
              ],
              [
                3.130194735537381,
                42.5092204617505
              ],
              [
                3.130239361244964,
                42.509205720739
              ],
              [
                3.13026673633572,
                42.50917735083549
              ],
              [
                3.130400693659581,
                42.509206635858035
              ],
              [
                3.1304372601253,
                42.50922482822724
              ],
              [
                3.130452322453369,
                42.50925034438259
              ],
              [
                3.130458908249161,
                42.50931972374144
              ],
              [
                3.130488226748764,
                42.50934569826614
              ],
              [
                3.130535202509005,
                42.509359280403615
              ],
              [
                3.130813743494916,
                42.50937862186921
              ]
            ]
          ]
        ]
      }
    },
    {
      "type": "Feature",
      "properties": {
        "info": false,
        "cara": false,
        "regl": false,
        "tech": false,
        "projet": "Etat des lieux de la pêche artisanale",
        "id": null,
        "begin": 1,
        "end": 192,
        "area": 1.8e-05,
        "perimeter": 0.020858
      },
      "geometry": {
        "type": "MultiPolygon",
        "coordinates": []
      }
    },
    {
      "type": "Feature",
      "properties": {
        "info": false,
        "cara": false,
        "regl": false,
        "tech": false,
        "projet": "Etat des lieux de la pêche artisanale",
        "id": null,
        "begin": 1,
        "end": 192,
        "area": 1.8e-05,
        "perimeter": 0.020858
      },
      "geometry": {
        "type": "MultiPolygon",
        "coordinates": []
      }
    }
  ]
}