{
  "type": "FeatureCollection",
  "name": "us_med_pnmgl_ZMEL_Ligne_de_mouillage_ln_4326",
  "crs": {
    "type": "name",
    "properties": {
      "name": "urn:ogc:def:crs:OGC:1.3:CRS84"
    }
  },
  "features": [
    {
      "type": "Feature",
      "properties": {
        "info": false,
        "cara": false,
        "regl": false,
        "id": 1,
        "tech": true,
        "projet": "Etat des lieux de la pêche artisanale",
        "Nom": null
      },
      "geometry": {
        "type": "MultiLineString",
        "coordinates": [
          [
            [
              3.124833315333954,
              42.50614964646782
            ],
            [
              3.125316766484219,
              42.505383298441835
            ],
            [
              3.12683333327092,
              42.502983333269526
            ],
            [
              3.127466840271541,
              42.50189976144021
            ]
          ]
        ]
      }
    },
    {
      "type": "Feature",
      "properties": {
        "info": false,
        "cara": false,
        "regl": false,
        "id": 2,
        "tech": true,
        "projet": "Etat des lieux de la pêche artisanale",
        "Nom": null
      },
      "geometry": {
        "type": "MultiLineString",
        "coordinates": [
          [
            [
              3.126833333317738,
              42.50298333333978
            ],
            [
              3.125200231840862,
              42.50185495253705
            ]
          ]
        ]
      }
    },
    {
      "type": "Feature",
      "properties": {
        "info": false,
        "cara": false,
        "regl": false,
        "id": 3,
        "tech": true,
        "projet": "Etat des lieux de la pêche artisanale",
        "Nom": null
      },
      "geometry": {
        "type": "MultiLineString",
        "coordinates": [
          [
            [
              3.124994369916903,
              42.50202915592384
            ],
            [
              3.1267024651756,
              42.50319046523543
            ]
          ]
        ]
      }
    },
    {
      "type": "Feature",
      "properties": {
        "info": false,
        "cara": false,
        "regl": false,
        "id": 4,
        "tech": true,
        "projet": "Etat des lieux de la pêche artisanale",
        "Nom": null
      },
      "geometry": {
        "type": "MultiLineString",
        "coordinates": [
          [
            [
              3.125446885323278,
              42.505172515765906
            ],
            [
              3.122917844620542,
              42.50489014861063
            ]
          ]
        ]
      }
    },
    {
      "type": "Feature",
      "properties": {
        "info": false,
        "cara": false,
        "regl": false,
        "id": 5,
        "tech": true,
        "projet": "Etat des lieux de la pêche artisanale",
        "Nom": null
      },
      "geometry": {
        "type": "MultiLineString",
        "coordinates": [
          [
            [
              3.125316669099411,
              42.50538333439936
            ],
            [
              3.122848034583565,
              42.50510830497618
            ]
          ]
        ]
      }
    },
    {
      "type": "Feature",
      "properties": {
        "nom": "mouillage",
        "info": true,
        "cara": false,
        "regl": false,
        "tech": false,
        "projet": "Etat des lieux de la pêche artisanale",
        "id": null,
        "Nom": "mouillage"
      },
      "geometry": {
        "type": "MultiLineString",
        "coordinates": [
          [
            [
              3.125626437242503,
              42.50214808896427
            ],
            [
              3.125788612419207,
              42.501941419834544
            ],
            [
              3.126181694771221,
              42.5022478897654
            ],
            [
              3.126030832666838,
              42.50242718462103
            ]
          ]
        ]
      }
    }
  ]
}