{
  "type": "FeatureCollection",
  "name": "us_med_pnmgl_ZMEL_ZoneC_pol_4326",
  "crs": {
    "type": "name",
    "properties": {
      "name": "urn:ogc:def:crs:OGC:1.3:CRS84"
    }
  },
  "features": [
    {
      "type": "Feature",
      "properties": {
        "info": false,
        "cara": false,
        "regl": false,
        "tech": false,
        "projet": "Etat des lieux de la pêche artisanale",
        "id": null
      },
      "geometry": {
        "type": "MultiPolygon",
        "coordinates": [
          [
            [
              [
                3.132708392601838,
                42.495143537300684
              ],
              [
                3.132771538495087,
                42.495135368440025
              ],
              [
                3.132852843518392,
                42.4951002092523
              ],
              [
                3.132911126469304,
                42.49509024851865
              ],
              [
                3.132968247886557,
                42.49510366119087
              ],
              [
                3.133044712383152,
                42.495076598194025
              ],
              [
                3.132708392601838,
                42.495143537300684
              ]
            ]
          ]
        ]
      }
    },
    {
      "type": "Feature",
      "properties": {
        "info": false,
        "cara": false,
        "regl": false,
        "tech": false,
        "projet": "Etat des lieux de la pêche artisanale",
        "id": null
      },
      "geometry": {
        "type": "MultiPolygon",
        "coordinates": [
          [
            [
              [
                3.133044027953338,
                42.4950759871572
              ],
              [
                3.133044712383152,
                42.495076598194025
              ],
              [
                3.132968247886557,
                42.49510366119087
              ],
              [
                3.132911126469304,
                42.49509024851865
              ],
              [
                3.132852843518392,
                42.4951002092523
              ],
              [
                3.132771538495087,
                42.495135368440025
              ],
              [
                3.132708392601838,
                42.495143537300684
              ],
              [
                3.13267068048242,
                42.495183132189084
              ],
              [
                3.132583348488034,
                42.495230185618084
              ],
              [
                3.132467963229463,
                42.495381313819486
              ],
              [
                3.132364636289627,
                42.49555780257819
              ],
              [
                3.132320878867457,
                42.49573041106846
              ],
              [
                3.132319407141725,
                42.495837624904084
              ],
              [
                3.132360718540434,
                42.49609894264021
              ],
              [
                3.132467509840839,
                42.496315771792204
              ],
              [
                3.132539985630379,
                42.49652122447644
              ],
              [
                3.132620841624015,
                42.496641658321956
              ],
              [
                3.13264520784917,
                42.496801494616314
              ],
              [
                3.132813854498985,
                42.49707534189322
              ],
              [
                3.132934105823877,
                42.49717796356586
              ],
              [
                3.13318129441164,
                42.4973070712009
              ],
              [
                3.133246655352518,
                42.49739834199332
              ],
              [
                3.133272570314011,
                42.49748458689549
              ],
              [
                3.133310385893726,
                42.49752640951034
              ],
              [
                3.133363580357758,
                42.49754537479101
              ],
              [
                3.133449319439251,
                42.49755034273062
              ],
              [
                3.133507654722797,
                42.497568032727074
              ],
              [
                3.13361414833364,
                42.497651639145204
              ],
              [
                3.133667377838977,
                42.4976858296369
              ],
              [
                3.133850968802344,
                42.49774396354812
              ],
              [
                3.133972690615654,
                42.49773873565592
              ],
              [
                3.134067877918993,
                42.497751462537266
              ],
              [
                3.134106431765956,
                42.49774110522211
              ],
              [
                3.13434302985446,
                42.49773620826369
              ],
              [
                3.134393850185966,
                42.497747721919886
              ],
              [
                3.134433566059848,
                42.497776695319615
              ],
              [
                3.13447766655144,
                42.497848326036824
              ],
              [
                3.134584324510051,
                42.49790941038989
              ],
              [
                3.134658190957702,
                42.497970218831036
              ],
              [
                3.134735401844697,
                42.49799422826316
              ],
              [
                3.134833126076667,
                42.49799156725548
              ],
              [
                3.134896600051557,
                42.498006712439974
              ],
              [
                3.135021903581045,
                42.4980837123417
              ],
              [
                3.135165939105576,
                42.4980723483788
              ],
              [
                3.135222372948802,
                42.49800883767081
              ],
              [
                3.135242924216045,
                42.49799866135251
              ],
              [
                3.135268686719498,
                42.498017660458586
              ],
              [
                3.135261148611041,
                42.498056441577866
              ],
              [
                3.135278182278889,
                42.49806810601499
              ],
              [
                3.135289133835498,
                42.49807618245931
              ],
              [
                3.135324353504689,
                42.49807254209775
              ],
              [
                3.13537668952895,
                42.49801117957026
              ],
              [
                3.135428147015817,
                42.49801999576297
              ],
              [
                3.135445762668481,
                42.498043622443824
              ],
              [
                3.135389931713977,
                42.49806436858233
              ],
              [
                3.135386352005554,
                42.498092239813
              ],
              [
                3.135420440252026,
                42.49812455787394
              ],
              [
                3.135466640709547,
                42.498141578815286
              ],
              [
                3.135601606498042,
                42.4981441163242
              ],
              [
                3.135754061496985,
                42.498083020831544
              ],
              [
                3.135873468202061,
                42.49809072173151
              ],
              [
                3.135926842309053,
                42.498058292438216
              ],
              [
                3.136021616459788,
                42.498068059848144
              ],
              [
                3.136201509646382,
                42.4981145745047
              ],
              [
                3.136278014322563,
                42.49810368971926
              ],
              [
                3.136371693429266,
                42.498164696971855
              ],
              [
                3.136416666666667,
                42.49815
              ],
              [
                3.136633333333333,
                42.4967
              ],
              [
                3.13515,
                42.49485
              ],
              [
                3.133044027953338,
                42.4950759871572
              ]
            ]
          ]
        ]
      }
    }
  ]
}