{
  "type": "FeatureCollection",
  "name": "ges_med_pnmgl_Limite_RNMCB_pt_4326",
  "crs": {
    "type": "name",
    "properties": {
      "name": "urn:ogc:def:crs:OGC:1.3:CRS84"
    }
  },
  "features": [
    {
      "type": "Feature",
      "properties": {
        "nom": "bouee_nord",
        "info": true,
        "cara": false,
        "regl": false,
        "tech": false,
        "projet": "Eutrophisation du Golfe du Lion",
        "y": 42.48805556,
        "x": 3.16833333
      },
      "geometry": {
        "type": "Point",
        "coordinates": [
          3.16833333,
          42.48805556
        ]
      }
    },
    {
      "type": "Feature",
      "properties": {
        "nom": "bouee_sud",
        "info": true,
        "cara": false,
        "regl": false,
        "tech": false,
        "projet": "Eutrophisation du Golfe du Lion",
        "y": 42.45972222,
        "x": 3.18472222
      },
      "geometry": {
        "type": "Point",
        "coordinates": [
          3.18472222,
          42.45972222
        ]
      }
    }
  ]
}