{
  "type": "FeatureCollection",
  "name": "us_med_pnmgl_parcours_jetski_2023_ofb_ln_4326",
  "crs": {
    "type": "name",
    "properties": {
      "name": "urn:ogc:def:crs:OGC:1.3:CRS84"
    }
  },
  "features": [
    {
      "type": "Feature",
      "properties": {
        "info": false,
        "cara": false,
        "regl": false,
        "tech": false,
        "projet": "Perception des activités de plongées et de plaisance",
        "id": null,
        "Structure": "Leucate jetski",
        "Durée": "a def",
        "Destinatio": "Falaise Leucate"
      },
      "geometry": {
        "type": "MultiLineString",
        "coordinates": [
          [
            [
              3.064556655170788,
              42.92106936289325
            ],
            [
              3.06407512459133,
              42.91683776264414
            ],
            [
              3.061908236983776,
              42.90361213881709
            ],
            [
              3.05733369647894,
              42.8902072784512
            ],
            [
              3.051796094815189,
              42.87379999791845
            ]
          ]
        ]
      }
    },
    {
      "type": "Feature",
      "properties": {
        "info": false,
        "cara": false,
        "regl": false,
        "tech": false,
        "projet": "Perception des activités de plongées et de plaisance",
        "id": null,
        "Structure": "Leucate jetski",
        "Durée": "grand",
        "Destinatio": "Paulilles"
      },
      "geometry": {
        "type": "MultiLineString",
        "coordinates": [
          [
            [
              3.052518390684373,
              42.87238841513816
            ],
            [
              3.054203747712471,
              42.869212235836486
            ],
            [
              3.050351503076819,
              42.84715092653099
            ],
            [
              3.048425380758992,
              42.82684756071712
            ],
            [
              3.045295431992526,
              42.802828014499575
            ],
            [
              3.046740023730895,
              42.79699833577336
            ],
            [
              3.044813901413068,
              42.788694511797196
            ],
            [
              3.044332370833613,
              42.75511450629026
            ],
            [
              3.045295431992526,
              42.72894483540209
            ],
            [
              3.047703084889809,
              42.7017025054688
            ],
            [
              3.04481390141307,
              42.69480157612461
            ],
            [
              3.043610074964428,
              42.65692128860658
            ],
            [
              3.046740023730896,
              42.621498277866856
            ],
            [
              3.052036860104916,
              42.57914133366653
            ],
            [
              3.05853752292758,
              42.54562528745881
            ],
            [
              3.078280276685299,
              42.53799742954499
            ],
            [
              3.100189918050571,
              42.52912665552428
            ],
            [
              3.146898384257856,
              42.51812514590587
            ],
            [
              3.147379914837312,
              42.51138132762793
            ],
            [
              3.135341650350898,
              42.50552426347283
            ]
          ]
        ]
      }
    },
    {
      "type": "Feature",
      "properties": {
        "info": false,
        "cara": false,
        "regl": false,
        "tech": false,
        "projet": "Perception des activités de plongées et de plaisance",
        "id": null,
        "Structure": "St Cyp jet évasion",
        "Durée": "1",
        "Destinatio": "Argeles"
      },
      "geometry": {
        "type": "MultiLineString",
        "coordinates": [
          [
            [
              3.041576814457752,
              42.619280885510584
            ],
            [
              3.049762834308513,
              42.618749367910546
            ],
            [
              3.056745027710633,
              42.56929840051321
            ],
            [
              3.061560333505199,
              42.54783972536964
            ],
            [
              3.061801098794926,
              42.537373728090785
            ]
          ]
        ]
      }
    },
    {
      "type": "Feature",
      "properties": {
        "info": false,
        "cara": false,
        "regl": false,
        "tech": false,
        "projet": "Perception des activités de plongées et de plaisance",
        "id": null,
        "Structure": "St Cyp jet évasion",
        "Durée": "2",
        "Destinatio": "Collioure"
      },
      "geometry": {
        "type": "MultiLineString",
        "coordinates": [
          [
            [
              3.040372988009111,
              42.61910371348137
            ],
            [
              3.052892783074981,
              42.61733196546256
            ],
            [
              3.063245690533297,
              42.54606595100759
            ],
            [
              3.078654669075906,
              42.538792949182636
            ],
            [
              3.091174464141776,
              42.52992228816417
            ],
            [
              3.089007576534222,
              42.526018798156855
            ]
          ]
        ]
      }
    },
    {
      "type": "Feature",
      "properties": {
        "info": false,
        "cara": false,
        "regl": false,
        "tech": false,
        "projet": "Perception des activités de plongées et de plaisance",
        "id": null,
        "Structure": "St Cyp jet évasion",
        "Durée": "3",
        "Destinatio": "Banyuls"
      },
      "geometry": {
        "type": "MultiLineString",
        "coordinates": [
          [
            [
              3.040854518588568,
              42.61804067071947
            ],
            [
              3.05433737481335,
              42.61573734914359
            ],
            [
              3.065171812851123,
              42.548726593650215
            ],
            [
              3.070950179804601,
              42.543050418921716
            ],
            [
              3.087081454216396,
              42.535954474743086
            ],
            [
              3.101045841020635,
              42.531873941694506
            ],
            [
              3.114769462535147,
              42.52992228816417
            ],
            [
              3.13378992042368,
              42.52513160731822
            ],
            [
              3.153051143601942,
              42.51963074289969
            ],
            [
              3.148476603097105,
              42.50898253270842
            ],
            [
              3.140531348536071,
              42.50454524300713
            ],
            [
              3.141735174984713,
              42.49851002355476
            ],
            [
              3.141494409694985,
              42.49123148411689
            ],
            [
              3.138123695638789,
              42.48555008426048
            ],
            [
              3.134512216292865,
              42.48359698388273
            ]
          ]
        ]
      }
    },
    {
      "type": "Feature",
      "properties": {
        "info": false,
        "cara": false,
        "regl": false,
        "tech": false,
        "projet": "Perception des activités de plongées et de plaisance",
        "id": null,
        "Structure": "Jet aventure 66",
        "Durée": "1",
        "Destinatio": "Collioure"
      },
      "geometry": {
        "type": "MultiLineString",
        "coordinates": [
          [
            [
              3.040560378824972,
              42.61989297897317
            ],
            [
              3.046282180439297,
              42.61989297897317
            ],
            [
              3.06424863750828,
              42.54068608433415
            ],
            [
              3.079811937899246,
              42.53714470467669
            ],
            [
              3.090340052869605,
              42.53225389781718
            ],
            [
              3.092628773515335,
              42.53031433386653
            ],
            [
              3.089539000643599,
              42.525676001937306
            ]
          ]
        ]
      }
    },
    {
      "type": "Feature",
      "properties": {
        "info": false,
        "cara": false,
        "regl": false,
        "tech": false,
        "projet": "Perception des activités de plongées et de plaisance",
        "id": null,
        "Structure": "Jet aventure 66",
        "Durée": "2",
        "Destinatio": "Paulilles"
      },
      "geometry": {
        "type": "MultiLineString",
        "coordinates": [
          [
            [
              3.040560378824974,
              42.62048244010237
            ],
            [
              3.052919470311917,
              42.620314023206326
            ],
            [
              3.063676457346848,
              42.56673434568262
            ],
            [
              3.067338410380016,
              42.550550297162765
            ],
            [
              3.079239757737814,
              42.542456698844724
            ],
            [
              3.086792535868724,
              42.53874678225714
            ],
            [
              3.110595230584317,
              42.53149494518339
            ],
            [
              3.137144390074787,
              42.52576033831919
            ],
            [
              3.154538666982337,
              42.51968782781167
            ],
            [
              3.153852050788618,
              42.51327731530218
            ],
            [
              3.151334458078315,
              42.5112528063096
            ],
            [
              3.13348243704162,
              42.50382904562173
            ]
          ]
        ]
      }
    },
    {
      "type": "Feature",
      "properties": {
        "info": false,
        "cara": false,
        "regl": false,
        "tech": false,
        "projet": "Perception des activités de plongées et de plaisance",
        "id": null,
        "Structure": "Jet aventure 66",
        "Durée": "3",
        "Destinatio": "Llanca"
      },
      "geometry": {
        "type": "MultiLineString",
        "coordinates": [
          [
            [
              3.039187146437535,
              42.61930351226355
            ],
            [
              3.051775109989051,
              42.618798250642335
            ],
            [
              3.055894807151366,
              42.58695850335364
            ],
            [
              3.058641271926241,
              42.57061115066396
            ],
            [
              3.063905329411421,
              42.54937004609827
            ],
            [
              3.071686979606903,
              42.543299830963285
            ],
            [
              3.087021407933296,
              42.53604852264957
            ],
            [
              3.09640516258079,
              42.531832258603636
            ],
            [
              3.11769026458608,
              42.52727837372412
            ],
            [
              3.143095063753686,
              42.52036258034788
            ],
            [
              3.147443632980573,
              42.51243377785811
            ],
            [
              3.146985888851427,
              42.50416650841582
            ],
            [
              3.146985888851427,
              42.49623565118429
            ],
            [
              3.158658364144652,
              42.489485193096435
            ],
            [
              3.165753398146415,
              42.487966239617336
            ],
            [
              3.187725116345424,
              42.45859255600335
            ],
            [
              3.182003314731099,
              42.43190795846296
            ],
            [
              3.173077304212752,
              42.423461098030934
            ],
            [
              3.17445053660019,
              42.41704072288067
            ],
            [
              3.171704071825313,
              42.408591859257584
            ],
            [
              3.168957607050437,
              42.402507972714126
            ],
            [
              3.170101967373303,
              42.39338103665677
            ],
            [
              3.168614298953576,
              42.385689717465795
            ],
            [
              3.165066781952695,
              42.38112519239704
            ],
            [
              3.162434753210105,
              42.377743848765576
            ],
            [
              3.160947084790381,
              42.374446863412466
            ]
          ]
        ]
      }
    },
    {
      "type": "Feature",
      "properties": {
        "info": false,
        "cara": false,
        "regl": false,
        "tech": false,
        "projet": "Perception des activités de plongées et de plaisance",
        "id": null,
        "Structure": "Puremotion",
        "Durée": "1",
        "Destinatio": "Collioure"
      },
      "geometry": {
        "type": "MultiLineString",
        "coordinates": [
          [
            [
              3.135427849590489,
              42.48180566127323
            ],
            [
              3.145841528528561,
              42.49758565536972
            ],
            [
              3.148702429335724,
              42.51656700254964
            ],
            [
              3.124213118426411,
              42.52651936063278
            ],
            [
              3.095260802257924,
              42.53006134282385
            ],
            [
              3.088165768256161,
              42.52626635421961
            ]
          ]
        ]
      }
    },
    {
      "type": "Feature",
      "properties": {
        "info": false,
        "cara": false,
        "regl": false,
        "tech": false,
        "projet": "Perception des activités de plongées et de plaisance",
        "id": null,
        "Structure": "Puremotion",
        "Durée": "2",
        "Destinatio": "Cerbère"
      },
      "geometry": {
        "type": "MultiLineString",
        "coordinates": [
          [
            [
              3.136457773881068,
              42.48214324291985
            ],
            [
              3.165295654017268,
              42.48990711807249
            ],
            [
              3.169873095308729,
              42.48686919472108
            ],
            [
              3.175480460890768,
              42.478092142946345
            ],
            [
              3.185207523635121,
              42.46517751136382
            ],
            [
              3.188411732539143,
              42.457579424478624
            ],
            [
              3.182461058860245,
              42.45133141786796
            ],
            [
              3.176281513116773,
              42.44491389738996
            ],
            [
              3.169644223244156,
              42.4417893402548
            ]
          ]
        ]
      }
    },
    {
      "type": "Feature",
      "properties": {
        "info": false,
        "cara": false,
        "regl": false,
        "tech": false,
        "projet": "Perception des activités de plongées et de plaisance",
        "id": null,
        "Structure": "Aloha jet",
        "Durée": "1",
        "Destinatio": "Port la Nouvele"
      },
      "geometry": {
        "type": "MultiLineString",
        "coordinates": [
          [
            [
              3.053491650473348,
              42.872720629971745
            ],
            [
              3.057840219700235,
              42.87691380662302
            ],
            [
              3.065621869895717,
              42.90726390663741
            ],
            [
              3.067681718476874,
              42.92151156211578
            ],
            [
              3.060128940345965,
              42.928047619280235
            ],
            [
              3.045710000277865,
              42.933410020045784
            ],
            [
              3.060128940345965,
              42.98466439829184
            ],
            [
              3.067452846412302,
              43.003078741966846
            ],
            [
              3.075234496607785,
              43.01027557627225
            ]
          ]
        ]
      }
    },
    {
      "type": "Feature",
      "properties": {
        "info": false,
        "cara": false,
        "regl": false,
        "tech": false,
        "projet": "Perception des activités de plongées et de plaisance",
        "id": null,
        "Structure": "Aloha jet",
        "Durée": "2",
        "Destinatio": "Collioure"
      },
      "geometry": {
        "type": "MultiLineString",
        "coordinates": [
          [
            [
              3.050745185698472,
              42.872217429627284
            ],
            [
              3.056238115248223,
              42.86785618811561
            ],
            [
              3.047540976794449,
              42.80206473984452
            ],
            [
              3.047083232665304,
              42.781238577433
            ],
            [
              3.047083232665304,
              42.733849763858665
            ],
            [
              3.048914209181888,
              42.70391901947185
            ],
            [
              3.047083232665304,
              42.68676118719993
            ],
            [
              3.04754097679445,
              42.63391222072484
            ],
            [
              3.048914209181888,
              42.62010350144563
            ],
            [
              3.060357812410538,
              42.546292858027215
            ],
            [
              3.090912233031036,
              42.53347663543991
            ],
            [
              3.092972081612194,
              42.52951319204946
            ],
            [
              3.088394640320733,
              42.52588684267854
            ]
          ]
        ]
      }
    },
    {
      "type": "Feature",
      "properties": {
        "info": false,
        "cara": false,
        "regl": false,
        "tech": false,
        "projet": "Perception des activités de plongées et de plaisance",
        "id": null,
        "Structure": "New Luxury jet",
        "Durée": "40 min",
        "Destinatio": "Sainte Marie"
      },
      "geometry": {
        "type": "MultiLineString",
        "coordinates": [
          [
            [
              3.040217070728115,
              42.7024052837834
            ],
            [
              3.046625488536159,
              42.70223708865084
            ],
            [
              3.047083232665305,
              42.718886196364025
            ]
          ]
        ]
      }
    },
    {
      "type": "Feature",
      "properties": {
        "info": false,
        "cara": false,
        "regl": false,
        "tech": false,
        "projet": "Perception des activités de plongées et de plaisance",
        "id": null,
        "Structure": "New Luxury jet",
        "Durée": "1 h",
        "Destinatio": "Saint Cyprien"
      },
      "geometry": {
        "type": "MultiLineString",
        "coordinates": [
          [
            [
              3.040445942792687,
              42.70173250051927
            ],
            [
              3.045023384084147,
              42.69954590456142
            ],
            [
              3.042048047244698,
              42.681040856340154
            ],
            [
              3.041590303115552,
              42.66253029504379
            ],
            [
              3.041819175180125,
              42.647717876787524
            ],
            [
              3.043879023761282,
              42.62465061311604
            ]
          ]
        ]
      }
    },
    {
      "type": "Feature",
      "properties": {
        "info": false,
        "cara": false,
        "regl": false,
        "tech": false,
        "projet": "Perception des activités de plongées et de plaisance",
        "id": null,
        "Structure": "New Luxury jet",
        "Durée": "1 h 30",
        "Destinatio": "Collioure"
      },
      "geometry": {
        "type": "MultiLineString",
        "coordinates": [
          [
            [
              3.039988198663541,
              42.70190069701878
            ],
            [
              3.049600825375608,
              42.696686393656655
            ],
            [
              3.060815556539685,
              42.541234137048306
            ],
            [
              3.083245018867841,
              42.53887326031552
            ],
            [
              3.097435086871369,
              42.5339825888333
            ],
            [
              3.088966820482167,
              42.52554949715095
            ]
          ]
        ]
      }
    },
    {
      "type": "Feature",
      "properties": {
        "info": false,
        "cara": false,
        "regl": false,
        "tech": false,
        "projet": "Perception des activités de plongées et de plaisance",
        "id": null,
        "Structure": "New Luxury jet",
        "Durée": "Demi-journée",
        "Destinatio": "Frontière espagnole"
      },
      "geometry": {
        "type": "MultiLineString",
        "coordinates": [
          [
            [
              3.039530454534395,
              42.70190069701878
            ],
            [
              3.048914209181888,
              42.699377701682785
            ],
            [
              3.048685337117316,
              42.679190048294124
            ],
            [
              3.049829697440181,
              42.659500769243074
            ],
            [
              3.0505163136339,
              42.64047870743602
            ],
            [
              3.051889546021338,
              42.621619242235276
            ],
            [
              3.064019765443708,
              42.53971644082459
            ],
            [
              3.082329530609549,
              42.537692788474445
            ],
            [
              3.088966820482167,
              42.5349944833235
            ],
            [
              3.091255541127897,
              42.53145278087776
            ],
            [
              3.088966820482167,
              42.5274048750094
            ],
            [
              3.09835057512966,
              42.530946806990094
            ],
            [
              3.115973724101784,
              42.529597523250914
            ],
            [
              3.134970105461343,
              42.52605551475921
            ],
            [
              3.148702429335724,
              42.51897089525805
            ],
            [
              3.148931301400298,
              42.51576568442994
            ],
            [
              3.142294011527681,
              42.51019834857064
            ],
            [
              3.137487698171647,
              42.506992687805955
            ],
            [
              3.131765896557321,
              42.50463051678345
            ],
            [
              3.142522883592253,
              42.50294319712056
            ],
            [
              3.141836267398534,
              42.49534969509896
            ],
            [
              3.136801081977927,
              42.48758649548428
            ],
            [
              3.140463035011096,
              42.485223591303296
            ],
            [
              3.16952978721187,
              42.489443000442286
            ],
            [
              3.19150150541088,
              42.457368353347796
            ],
            [
              3.182117750763386,
              42.44233826022368
            ],
            [
              3.182117750763386,
              42.43591981843783
            ]
          ]
        ]
      }
    },
    {
      "type": "Feature",
      "properties": {
        "info": false,
        "cara": false,
        "regl": false,
        "tech": false,
        "projet": "Perception des activités de plongées et de plaisance",
        "id": null,
        "Structure": "Sunset jet",
        "Durée": "1 h",
        "Destinatio": "La Franqui"
      },
      "geometry": {
        "type": "MultiLineString",
        "coordinates": [
          [
            [
              3.041018122954119,
              42.79748862350326
            ],
            [
              3.04822759298817,
              42.802442569186965
            ],
            [
              3.052232854118198,
              42.81898083660171
            ],
            [
              3.058069091764809,
              42.85472866923765
            ],
            [
              3.061616608765691,
              42.87192389419833
            ],
            [
              3.07477675247864,
              42.91484909795797
            ],
            [
              3.071000363413185,
              42.92289424742391
            ],
            [
              3.06230322495941,
              42.929513947116234
            ],
            [
              3.048113156955883,
              42.93420596161509
            ]
          ]
        ]
      }
    },
    {
      "type": "Feature",
      "properties": {
        "info": false,
        "cara": false,
        "regl": false,
        "tech": false,
        "projet": "Perception des activités de plongées et de plaisance",
        "id": null,
        "Structure": "Sunset jet",
        "Durée": "1 h",
        "Destinatio": "Saint Cyprien"
      },
      "geometry": {
        "type": "MultiLineString",
        "coordinates": [
          [
            [
              3.040445942792688,
              42.79732068619054
            ],
            [
              3.047083232665305,
              42.79664893238195
            ],
            [
              3.048914209181889,
              42.787579542233004
            ],
            [
              3.049600825375609,
              42.73868272922425
            ],
            [
              3.050058569504755,
              42.71464025730058
            ],
            [
              3.045938872342441,
              42.6826812992006
            ],
            [
              3.045710000277868,
              42.665517599543286
            ],
            [
              3.045023384084149,
              42.65053755780362
            ],
            [
              3.047540976794452,
              42.62528213013828
            ]
          ]
        ]
      }
    },
    {
      "type": "Feature",
      "properties": {
        "info": false,
        "cara": false,
        "regl": false,
        "tech": false,
        "projet": "Perception des activités de plongées et de plaisance",
        "id": null,
        "Structure": "Sunset jet",
        "Durée": "2 h",
        "Destinatio": "Collioure"
      },
      "geometry": {
        "type": "MultiLineString",
        "coordinates": [
          [
            [
              3.039988198663541,
              42.79782449676139
            ],
            [
              3.044107895825856,
              42.7981603681964
            ],
            [
              3.047540976794452,
              42.79093873058172
            ],
            [
              3.046625488536159,
              42.7790127867934
            ],
            [
              3.046625488536159,
              42.75733864360681
            ],
            [
              3.045710000277868,
              42.74338925517929
            ],
            [
              3.047083232665305,
              42.698831039180455
            ],
            [
              3.04754097679445,
              42.67847494860217
            ],
            [
              3.048685337117316,
              42.65710228996285
            ],
            [
              3.048456465052743,
              42.64599233730352
            ],
            [
              3.050287441569327,
              42.62662934504129
            ],
            [
              3.052576162215057,
              42.606754968730115
            ],
            [
              3.058069091764809,
              42.574571985151465
            ],
            [
              3.064019765443708,
              42.555018188313454
            ],
            [
              3.07477675247864,
              42.54355276837857
            ],
            [
              3.099266063387953,
              42.533434472472116
            ],
            [
              3.092399901450762,
              42.52938669503375
            ],
            [
              3.087364716030156,
              42.52533865527114
            ]
          ]
        ]
      }
    },
    {
      "type": "Feature",
      "properties": {
        "info": false,
        "cara": false,
        "regl": false,
        "tech": false,
        "projet": "Perception des activités de plongées et de plaisance",
        "id": null,
        "Structure": "Barcajets",
        "Durée": "1 h",
        "Destinatio": "La Franqui"
      },
      "geometry": {
        "type": "MultiLineString",
        "coordinates": [
          [
            [
              3.039587672550538,
              42.797908464791064
            ],
            [
              3.047598194810593,
              42.80143501914625
            ],
            [
              3.053319996424919,
              42.833668481848
            ],
            [
              3.058126309780953,
              42.863704335383915
            ],
            [
              3.066136832041008,
              42.89171344213695
            ],
            [
              3.070485401267895,
              42.917866152105226
            ],
            [
              3.066594576170155,
              42.92859225940849
            ]
          ]
        ]
      }
    },
    {
      "type": "Feature",
      "properties": {
        "info": false,
        "cara": false,
        "regl": false,
        "tech": false,
        "projet": "Perception des activités de plongées et de plaisance",
        "id": null,
        "Structure": "Barcajets",
        "Durée": "2 h",
        "Destinatio": "Collioure"
      },
      "geometry": {
        "type": "MultiLineString",
        "coordinates": [
          [
            [
              3.040732032873403,
              42.79774052861777
            ],
            [
              3.046224962423156,
              42.78816741335415
            ],
            [
              3.048284811004313,
              42.72968890936796
            ],
            [
              3.051946764037481,
              42.63243887533044
            ],
            [
              3.068883296815885,
              42.54667224557652
            ],
            [
              3.094288095983489,
              42.5321695702022
            ],
            [
              3.087193061981726,
              42.52576033831919
            ]
          ]
        ]
      }
    }
  ]
}