{
  "type": "FeatureCollection",
  "name": "us_med_pnmgl_zones_initiation_jetski_2023_ofb_pol_4326",
  "crs": {
    "type": "name",
    "properties": {
      "name": "urn:ogc:def:crs:OGC:1.3:CRS84"
    }
  },
  "features": [
    {
      "type": "Feature",
      "properties": {
        "info": false,
        "cara": false,
        "regl": false,
        "tech": false,
        "projet": "Perception des activités de plongées et de plaisance",
        "Structure": "Leucate jetski"
      },
      "geometry": {
        "type": "MultiPolygon",
        "coordinates": [
          [
            [
              [
                3.05877828821731,
                42.87287365036057
              ],
              [
                3.058898670862174,
                42.88597355925344
              ],
              [
                3.068047751871848,
                42.88610586737689
              ],
              [
                3.068288517161577,
                42.873005986577276
              ],
              [
                3.05877828821731,
                42.87287365036057
              ]
            ]
          ]
        ]
      }
    },
    {
      "type": "Feature",
      "properties": {
        "info": false,
        "cara": false,
        "regl": false,
        "tech": false,
        "projet": "Perception des activités de plongées et de plaisance",
        "Structure": "St Cyp jet évasion"
      },
      "geometry": {
        "type": "MultiPolygon",
        "coordinates": [
          [
            [
              [
                3.056263497131177,
                42.64709064133448
              ],
              [
                3.093220969104467,
                42.64709064133448
              ],
              [
                3.094184030263379,
                42.59340843327015
              ],
              [
                3.058550767383595,
                42.59296531825519
              ],
              [
                3.056263497131177,
                42.64709064133448
              ]
            ]
          ]
        ]
      }
    },
    {
      "type": "Feature",
      "properties": {
        "info": false,
        "cara": false,
        "regl": false,
        "tech": false,
        "projet": "Perception des activités de plongées et de plaisance",
        "Structure": "Jet aventure 66"
      },
      "geometry": {
        "type": "MultiPolygon",
        "coordinates": [
          [
            [
              [
                3.057268039538803,
                42.64607651107177
              ],
              [
                3.072373595800623,
                42.64607651107177
              ],
              [
                3.07443344438178,
                42.62738714061177
              ],
              [
                3.058870143990814,
                42.62772393568201
              ],
              [
                3.057268039538803,
                42.64607651107177
              ]
            ]
          ]
        ]
      }
    },
    {
      "type": "Feature",
      "properties": {
        "info": false,
        "cara": false,
        "regl": false,
        "tech": false,
        "projet": "Perception des activités de plongées et de plaisance",
        "Structure": "Jet aventure 66"
      },
      "geometry": {
        "type": "MultiPolygon",
        "coordinates": [
          [
            [
              [
                3.060014504313679,
                42.61778771510016
              ],
              [
                3.071000363413184,
                42.61778771510016
              ],
              [
                3.073174648026628,
                42.60439657096398
              ],
              [
                3.060472248442825,
                42.60380695757195
              ],
              [
                3.060014504313679,
                42.61778771510016
              ]
            ]
          ]
        ]
      }
    },
    {
      "type": "Feature",
      "properties": {
        "info": false,
        "cara": false,
        "regl": false,
        "tech": false,
        "projet": "Perception des activités de plongées et de plaisance",
        "Structure": "Puremotion"
      },
      "geometry": {
        "type": "MultiPolygon",
        "coordinates": [
          [
            [
              [
                3.149389045529442,
                42.48539237313324
              ],
              [
                3.138860930559084,
                42.487670883268635
              ],
              [
                3.142866191689112,
                42.49906218907677
              ],
              [
                3.140234162946522,
                42.50733013352292
              ],
              [
                3.169072043082723,
                42.51787439426516
              ],
              [
                3.173649484374183,
                42.492396417499585
              ],
              [
                3.149389045529442,
                42.48539237313324
              ]
            ]
          ]
        ]
      }
    },
    {
      "type": "Feature",
      "properties": {
        "info": false,
        "cara": false,
        "regl": false,
        "tech": false,
        "projet": "Perception des activités de plongées et de plaisance",
        "Structure": "Aloha jet"
      },
      "geometry": {
        "type": "MultiPolygon",
        "coordinates": [
          [
            [
              [
                3.056810295409656,
                42.86861104042945
              ],
              [
                3.066308486089437,
                42.868778784134484
              ],
              [
                3.066308486089437,
                42.862320322420246
              ],
              [
                3.056924731441942,
                42.86248808321984
              ],
              [
                3.056810295409656,
                42.86861104042945
              ]
            ]
          ]
        ]
      }
    },
    {
      "type": "Feature",
      "properties": {
        "info": false,
        "cara": false,
        "regl": false,
        "tech": false,
        "projet": "Perception des activités de plongées et de plaisance",
        "Structure": "New Luxury jet"
      },
      "geometry": {
        "type": "MultiPolygon",
        "coordinates": [
          [
            [
              [
                3.046396616471585,
                42.706147507624515
              ],
              [
                3.046625488536157,
                42.71443005475037
              ],
              [
                3.052118418085911,
                42.71447209531736
              ],
              [
                3.052404508166628,
                42.706105461418666
              ],
              [
                3.046396616471585,
                42.706147507624515
              ]
            ]
          ]
        ]
      }
    },
    {
      "type": "Feature",
      "properties": {
        "info": false,
        "cara": false,
        "regl": false,
        "tech": false,
        "projet": "Perception des activités de plongées et de plaisance",
        "Structure": "New Luxury jet"
      },
      "geometry": {
        "type": "MultiPolygon",
        "coordinates": [
          [
            [
              [
                3.045938872342439,
                42.69820026877426
              ],
              [
                3.052232854118198,
                42.69841052628827
              ],
              [
                3.051889546021338,
                42.690630524114354
              ],
              [
                3.045881654326296,
                42.69058846740013
              ],
              [
                3.045938872342439,
                42.69820026877426
              ]
            ]
          ]
        ]
      }
    },
    {
      "type": "Feature",
      "properties": {
        "info": false,
        "cara": false,
        "regl": false,
        "tech": false,
        "projet": "Perception des activités de plongées et de plaisance",
        "Structure": "Sunjet"
      },
      "geometry": {
        "type": "MultiPolygon",
        "coordinates": [
          [
            [
              [
                3.048513683068887,
                42.79933590386216
              ],
              [
                3.048799773149603,
                42.80626271403723
              ],
              [
                3.055379845006076,
                42.8061367789562
              ],
              [
                3.054979318893074,
                42.79929392083008
              ],
              [
                3.048513683068887,
                42.79933590386216
              ]
            ]
          ]
        ]
      }
    },
    {
      "type": "Feature",
      "properties": {
        "info": false,
        "cara": false,
        "regl": false,
        "tech": false,
        "projet": "Perception des activités de plongées et de plaisance",
        "Structure": "Sunjet"
      },
      "geometry": {
        "type": "MultiPolygon",
        "coordinates": [
          [
            [
              [
                3.048570901085029,
                42.79627106765996
              ],
              [
                3.054750446828501,
                42.796355037797575
              ],
              [
                3.054807664844644,
                42.79030889665287
              ],
              [
                3.0483992470366,
                42.79030889665287
              ],
              [
                3.048570901085029,
                42.79627106765996
              ]
            ]
          ]
        ]
      }
    },
    {
      "type": "Feature",
      "properties": {
        "info": false,
        "cara": false,
        "regl": false,
        "tech": false,
        "projet": "Perception des activités de plongées et de plaisance",
        "Structure": "Barcajets"
      },
      "geometry": {
        "type": "MultiPolygon",
        "coordinates": [
          [
            [
              [
                3.048685337117316,
                42.79677488677653
              ],
              [
                3.056638641361229,
                42.79677488677653
              ],
              [
                3.056638641361229,
                42.793961844224214
              ],
              [
                3.048742555133459,
                42.794171777188176
              ],
              [
                3.048685337117316,
                42.79677488677653
              ]
            ]
          ]
        ]
      }
    },
    {
      "type": "Feature",
      "properties": {
        "info": false,
        "cara": false,
        "regl": false,
        "tech": false,
        "projet": "Perception des activités de plongées et de plaisance",
        "Structure": "Barcajets"
      },
      "geometry": {
        "type": "MultiPolygon",
        "coordinates": [
          [
            [
              [
                3.048570901085029,
                42.798748138820926
              ],
              [
                3.048513683068886,
                42.80147700072555
              ],
              [
                3.056409769296655,
                42.80151898227635
              ],
              [
                3.056409769296655,
                42.79891607225957
              ],
              [
                3.048570901085029,
                42.798748138820926
              ]
            ]
          ]
        ]
      }
    }
  ]
}